atco_code,stop_type,street,area_code,area_name,long,lat
1800SJ47601,BCT,Marsland Road,E05000823,Brooklands,-2.317611,53.41754
1800SJ03571,BCT,Carrington Lane,E05000824,Bucklow-St Martins,-2.369411,53.43271
1800SJ03561,BCT,Carrington Lane,E05000824,Bucklow-St Martins,-2.368715,53.43231
1800SJ48171,BCT,Manchester Road,E05000824,Bucklow-St Martins,-2.386555,53.43278
1800SJ48181,BCT,Manchester Road,E05000824,Bucklow-St Martins,-2.386209,53.43283
1800SJH0592,BCT,Addison Road,E05000824,Bucklow-St Martins,-2.398635,53.43213
1800SJ48151,BCT,Manchester Road,E05000824,Bucklow-St Martins,-2.397987,53.43206
1800SJ48201,BCT,Manchester Road,E05000824,Bucklow-St Martins,-2.399914,53.432
1800SJH0591,BCT,Addison Road,E05000824,Bucklow-St Martins,-2.398635,53.43213
1800SJH2642,BCT,Aimson Rd East,E05000839,Village,-2.311619,53.39645
1800SJH2641,BCT,Aimson Rd East,E05000839,Village,-2.311619,53.39645
1800SJ48141,BCT,Manchester Road,E05000824,Bucklow-St Martins,-2.408297,53.43203
1800SJ48211,BCT,Manchester Road,E05000824,Bucklow-St Martins,-2.406467,53.43266
1800SJ12081,BCT,Barton Dock Rd,E05000829,Gorse Hill,-2.327146,53.46003
1800SJ11321,BCT,Arthog Road,E05000830,Hale Barns,-2.330739,53.36999
1800SJ11481,BCT,Arthog Road,E05000830,Hale Barns,-2.330949,53.37003
1800SJ47231,BCT,Marsland Road,E05000835,Sale Moor,-2.307209,53.4188
1800SJ47571,BCT,Marsland Road,E05000823,Brooklands,-2.307522,53.41848
1800SJ41361,BCT,Hale Road,E05000830,Hale Barns,-2.31381,53.36917
1800SJ41371,BCT,Hale Road,E05000830,Hale Barns,-2.313931,53.36938
1800SJQ0061,BCQ,Altrincham Interchange,E05000819,Altrincham,-2.348388,53.38723
1800SJT0841,TXR,Railway St,E05000819,Altrincham,-2.351513,53.38505
1800SJT0851,TXR,Stamford New Rd,E05000819,Altrincham,-2.348284,53.3873
1800SJT0861,TXR,The Causeway,E05000819,Altrincham,-2.349739,53.38694
1800SJH2931,BCT,Green Lane,E05000830,Hale Barns,-2.323584,53.38377
1800SJH2861,BCT,Marlborough Rd,E05000831,Hale Central,-2.351686,53.37683
1800SJH2871,BCT,Marlborough Rd,E05000821,Bowdon,-2.351819,53.37662
1800SJH2881,BCT,Higher Downs,E05000821,Bowdon,-2.358642,53.38187
1800SJH2891,BCT,Higher Downs,E05000821,Bowdon,-2.359152,53.38167
1800AMIC0B1,BCS,Stamford New Rd,E05000819,Altrincham,-2.347476,53.38781
1800AMIC002,BCS,Stamford New Rd,E05000819,Altrincham,-2.347698,53.38743
1800SJQ0051,BCQ,Altrincham Interchange,E05000819,Altrincham,-2.347239,53.38828
1800SJR4931,RSE,Stamford New Rd,E05000819,Altrincham,-2.347277,53.38744
1800AMIC0C1,BCS,Stamford New Rd,E05000819,Altrincham,-2.34761,53.38762
1800AMIC0A1,BCS,Stamford New Rd,E05000819,Altrincham,-2.347282,53.38799
1800SJR0321,RSE,Stamford New Rd,E05000819,Altrincham,-2.347277,53.38744
1800SJ08911,BCT,Altrincham I/C,E05000819,Altrincham,-2.347103,53.38819
1800AMIC001,BCS,Stamford New Rd,E05000819,Altrincham,-2.347743,53.38737
1800AMIC0D1,BCS,Stamford New Rd,E05000819,Altrincham,-2.347714,53.38748
1800AMIC0E1,BCS,Stamford New Rd,E05000819,Altrincham,-2.347832,53.38727
1800AMIC0A,BCS,Stamford New Rd,E05000819,Altrincham,-2.347282,53.38799
1800AMIC0B,BCS,Stamford New Rd,E05000819,Altrincham,-2.347476,53.38781
1800AMIC0C,BCS,Stamford New Rd,E05000819,Altrincham,-2.34761,53.38762
1800AMIC0D,BCS,Stamford New Rd,E05000819,Altrincham,-2.347714,53.38748
1800AMIC0E,BCS,Stamford New Rd,E05000819,Altrincham,-2.347832,53.38727
1800AMIC0F1,BCS,Stamford New Rd,E05000819,Altrincham,-2.347463,53.38804
1800AMIC0F,BCS,Stamford New Rd,E05000819,Altrincham,-2.347463,53.38804
1800AMIC0G,BCS,Stamford New Rd,E05000819,Altrincham,-2.347612,53.38789
1800AMIC0G1,BCS,Stamford New Rd,E05000819,Altrincham,-2.347612,53.38789
1800AMIC0H1,BCS,Stamford New Rd,E05000819,Altrincham,-2.347776,53.38771
1800AMIC0H,BCS,Stamford New Rd,E05000819,Altrincham,-2.347776,53.38771
1800AMIC0J,BCS,Stamford New Rd,E05000819,Altrincham,-2.347865,53.38754
1800AMIC0J1,BCS,Stamford New Rd,E05000819,Altrincham,-2.347865,53.38754
1800AMIC0K,BCS,Stamford New Rd,E05000819,Altrincham,-2.347954,53.38737
1800AMIC0K1,BCS,Stamford New Rd,E05000819,Altrincham,-2.347954,53.38737
1800ALTRNHM0,RSE,Car Park,E05000819,Altrincham,-2.346711,53.38801
1800ALTRNHM2,RSE,Altrincham Interchange,E05000819,Altrincham,-2.347193,53.38809
1800ALTRNHM1,RSE,Car Park,E05000819,Altrincham,-2.346695,53.38789
1800ALTRNHM3,RSE,Altrincham Interchange,E05000819,Altrincham,-2.347966,53.38707
1800SJ01741,BCT,Station Appr/Ch,E05000819,Altrincham,-2.34662,53.38799
1800ZZMAALT1,TMU,Stamford New Rd,E05000819,Altrincham,-2.347193,53.38809
1800ZZMAALT2,TMU,Stamford New Rd,E05000819,Altrincham,-2.347966,53.38707
1800SJ49261,BCT,Riddings Road,E05000837,Timperley,-2.328932,53.4066
1800SJ09371,BCT,Riddings Road,E05000837,Timperley,-2.328798,53.40675
1800SJ03961,BCT,Shetland Way,E05000826,Davyhulme East,-2.354558,53.46198
1800SJ03951,BCT,Shetland Way,E05000826,Davyhulme East,-2.355055,53.46194
1800SJ11301,BCT,Park Road,E05000831,Hale Central,-2.339627,53.37073
1800SJ11501,BCT,Park Road,E05000831,Hale Central,-2.339746,53.37062
1800SJ03891,BCT,Manor Avenue,E05000834,St Mary's,-2.352664,53.41695
1800SJ03681,BCT,Manor Avenue,E05000834,St Mary's,-2.352531,53.41724
1800SJ18511,BCT,George Rich Way,E05000822,Broadheath,-2.362906,53.39882
1800SJ18551,BCT,Atlantic Street,E05000822,Broadheath,-2.362549,53.39747
1800SJH1761,BCT,Barton Dock Rd,E05000826,Davyhulme East,-2.343181,53.46872
1800SJH1762,BCT,Barton Dock Rd,E05000826,Davyhulme East,-2.343181,53.46872
1800SJ41091,BCT,Grove Lane,E05000830,Hale Barns,-2.312088,53.38043
1800SJH0932,BCT,Tenax Road,E05000829,Gorse Hill,-2.324987,53.46919
1800SJH0931,BCT,Tenax Road,E05000829,Gorse Hill,-2.324987,53.46919
1800SJ01611,BCT,Guinness Road,E05000829,Gorse Hill,-2.333462,53.47412
1800SJ01601,BCT,Guinness Road,E05000829,Gorse Hill,-2.333776,53.47379
1800SJ03451,BCT,Cross Street,E05000820,Ashton upon Mersey,-2.32315,53.42768
1800SJ11891,BCT,Stamford Pk Rd,E05000831,Hale Central,-2.345774,53.38375
1800SJ03301,BCT,Cross Street,E05000833,Priory,-2.322759,53.42768
1800SJ04481,BCT,Ashton Lane,E05000820,Ashton upon Mersey,-2.33244,53.42637
1800SJ04221,BCT,Ashton Lane,E05000820,Ashton upon Mersey,-2.332695,53.42622
1800SJ49381,BCT,Ellesmere Road,E05000819,Altrincham,-2.344954,53.39392
1800SJ49411,BCT,Ellesmere Road,E05000819,Altrincham,-2.345181,53.39407
1800SJ04371,BCT,Grosvenor Road,E05000820,Ashton upon Mersey,-2.337546,53.42691
1800SJ04471,BCT,Grosvenor Road,E05000820,Ashton upon Mersey,-2.33759,53.42672
1800SJ04451,BCT,Grosvenor Road,E05000820,Ashton upon Mersey,-2.332987,53.43087
1800SJT0871,TXR,Green Lane,E05000820,Ashton upon Mersey,-2.341719,53.42926
1800SJ09221,BCT,Higher Road,E05000838,Urmston,-2.352183,53.44802
1800SJ09231,BCT,Higher Road,E05000838,Urmston,-2.351823,53.44815
1800SJH0952,BCT,Atlantic Street,E05000822,Broadheath,-2.373815,53.39598
1800SJH0951,BCT,Atlantic Street,E05000822,Broadheath,-2.373815,53.39598
1800SJH1151,BCT,Atlantic Street,E05000822,Broadheath,-2.361798,53.39759
1800SJH1152,BCT,Atlantic Street,E05000822,Broadheath,-2.361798,53.39759
1800SJ17391,BCT,Warwick Rd Sth,E05000832,Longford,-2.284346,53.45597
1800SJ30191,BCT,Seymour Grove,E05000825,Clifford,-2.274593,53.45686
1800SJH0872,BCT,Addison Cres,E05000832,Longford,-2.277918,53.45644
1800SJ30201,BCT,Seymour Grove,E05000832,Longford,-2.275156,53.45782
1800SJH2001,BCT,Ayres Road,E05000825,Clifford,-2.272445,53.45773
1800SJH0871,BCT,Addison Cres,E05000832,Longford,-2.277918,53.45644
1800SJH2002,BCT,Ayres Road,E05000825,Clifford,-2.272445,53.45773
1800SJ02901,BCT,Cornhill Road,E05000827,Davyhulme West,-2.364703,53.45418
1800SJ10941,BCT,Grove Lane,E05000831,Hale Central,-2.331277,53.38129
1800SJ11071,BCT,Grove Lane,E05000831,Hale Central,-2.331502,53.38123
1800SJ41631,BCT,Hale Road,E05000831,Hale Central,-2.350313,53.38177
1800SJ03411,BCT,Washway Road,E05000820,Ashton upon Mersey,-2.329636,53.42183
1800SJ04381,BCT,Grosvenor Road,E05000820,Ashton upon Mersey,-2.335708,53.42855
1800SJ04461,BCT,Grosvenor Road,E05000820,Ashton upon Mersey,-2.334407,53.42958
1800SJ49401,BCT,Gaskell Road,E05000819,Altrincham,-2.34856,53.39346
1800SJ49391,BCT,Gaskell Road,E05000819,Altrincham,-2.348467,53.39316
1800SJ10671,BCT,Park Road,E05000821,Bowdon,-2.373792,53.37965
1800SJH1352,BCT,School Road,E05000836,Stretford,-2.313874,53.44731
1800SJH1351,BCT,School Road,E05000836,Stretford,-2.313874,53.44731
1800SJ03001,BCT,Broadway,E05000826,Davyhulme East,-2.358757,53.45974
1800SJ03131,BCT,Broadway,E05000826,Davyhulme East,-2.358908,53.45984
1800SJH2591,BCT,Barton Road,E05000826,Davyhulme East,-2.356721,53.46487
1800SJH1902,BCT,Barton Road,E05000836,Stretford,-2.312865,53.44321
1800SJH1901,BCT,Barton Road,E05000836,Stretford,-2.312865,53.44321
1800SJH2601,BCT,Barton Road,E05000826,Davyhulme East,-2.357251,53.46336
1800SJH0992,BCT,Hope Road,E05000833,Priory,-2.321375,53.42176
1800SJH0991,BCT,Hope Road,E05000833,Priory,-2.321375,53.42176
1800SJ11911,BCT,Hale Road,E05000831,Hale Central,-2.34351,53.38073
1800SJH2441,BCT,Beech Road,E05000831,Hale Central,-2.343076,53.38281
1800SJH2442,BCT,Beech Road,E05000831,Hale Central,-2.343076,53.38281
1800SJ17201,BCT,Washway Road,E05000823,Brooklands,-2.339346,53.41286
1800SJ48611,BCT,Paddock Lane,E05000821,Bowdon,-2.445952,53.40014
1800SJ48681,BCT,Paddock Lane,E05000821,Bowdon,-2.445848,53.4002
1800SJ03041,BCT,Woodhouse Road,E05000827,Davyhulme West,-2.374814,53.45999
1800SJH0641,BCT,Birch Road,E05000824,Bucklow-St Martins,-2.438176,53.41765
1800SJH0642,BCT,Birch Road,E05000824,Bucklow-St Martins,-2.438176,53.41765
1800SJ12461,BCT,Urban Road,E05000819,Altrincham,-2.34157,53.3863
1800SJH1771,BCT,Urban Road,E05000819,Altrincham,-2.340607,53.38625
1800SJH1772,BCT,Urban Road,E05000819,Altrincham,-2.340607,53.38625
1800SJ40961,BCT,Stockport Road,E05000839,Village,-2.320901,53.39682
1800SJ40911,BCT,Stockport Road,E05000837,Timperley,-2.321919,53.3963
1800SJH2401,BCT,Centenary Way,E05000829,Gorse Hill,-2.325313,53.4803
1800SJ11131,BCT,Oldfield Road,E05000821,Bowdon,-2.37041,53.39016
1800SJ10921,BCT,Stamford Pk Rd,E05000831,Hale Central,-2.345413,53.38377
1800SJ10741,BCT,Langham Road,E05000821,Bowdon,-2.364655,53.37645
1800SJ10742,BCT,Langham Road,E05000821,Bowdon,-2.364655,53.37645
1800SJ10711,BCT,Dunham Road,E05000821,Bowdon,-2.381068,53.3746
1800SJ10701,BCT,Dunham Road,E05000821,Bowdon,-2.380886,53.37444
1800SJH1472,BCT,Bow Green Road,E05000821,Bowdon,-2.372092,53.37259
1800SJH1462,BCT,Bow Green Road,E05000821,Bowdon,-2.368635,53.37613
1800SJ17031,BCT,Langham Road,E05000821,Bowdon,-2.364744,53.37638
1800SJH1471,BCT,Bow Green Road,E05000821,Bowdon,-2.372092,53.37259
1800SJH1461,BCT,Bow Green Road,E05000821,Bowdon,-2.368635,53.37613
1800SJ10761,BCT,Priory Road,E05000821,Bowdon,-2.363212,53.36944
1800SJ09591,BCT,The Firs,E05000821,Bowdon,-2.363711,53.37863
1800SJ09581,BCT,The Firs,E05000821,Bowdon,-2.363891,53.37858
1800SJH0862,BCT,Grange Road,E05000821,Bowdon,-2.354653,53.37034
1800SJH0861,BCT,Grange Road,E05000821,Bowdon,-2.356803,53.37227
1800SJ02501,BCT,Davyhulme Road,E05000827,Davyhulme West,-2.369499,53.45672
1800SJ02511,BCT,Davyhulme Road,E05000827,Davyhulme West,-2.369889,53.45661
1800SJ02951,BCT,Moorside Road,E05000838,Urmston,-2.364987,53.4521
1800SJ02961,BCT,Moorside Road,E05000827,Davyhulme West,-2.364386,53.45234
1800SJH2431,BCT,Bowfell Road,E05000838,Urmston,-2.366174,53.45191
1800SJH2432,BCT,Bowfell Road,E05000838,Urmston,-2.366174,53.45191
1800SJH1492,BCT,Bow Lane,E05000821,Bowdon,-2.370825,53.36871
1800SJH1491,BCT,Bow Lane,E05000821,Bowdon,-2.370825,53.36871
1800SJ48041,BCT,Wood Lane,E05000824,Bucklow-St Martins,-2.435217,53.41516
1800SJ32081,BCT,Talbot Road,E05000832,Longford,-2.279984,53.46143
1800SJ15311,BCT,Chester Road,E05000832,Longford,-2.279272,53.46309
1800SJH1911,BCT,Boyer Street,E05000832,Longford,-2.279601,53.46266
1800SJ32071,BCT,Talbot Road,E05000832,Longford,-2.279895,53.46162
1800SJ12111,BCT,Aimson Rd East,E05000839,Village,-2.307986,53.39528
1800SJ04321,BCT,Carrington Lane,E05000824,Bucklow-St Martins,-2.349699,53.42966
1800SJ04331,BCT,Carrington Lane,E05000820,Ashton upon Mersey,-2.349157,53.42972
1800SJ49061,BCT,Aimson Rd East,E05000839,Village,-2.309147,53.39564
1800SJ49071,BCT,Aimson Rd East,E05000839,Village,-2.30859,53.39556
1800SJ00771,BCT,Dane Road,E05000833,Priory,-2.313617,53.43081
1800SJH2511,BCT,Bridgewater Way,E05000825,Clifford,-2.273657,53.46592
1800SJH2521,BCT,Bridgewater Way,E05000825,Clifford,-2.274257,53.46547
1800SJ01401,BCT,Barton Dock Rd,E05000829,Gorse Hill,-2.32553,53.4595
1800SJH1721,BCT,Woburn Drive,E05000830,Hale Barns,-2.316319,53.37517
1800SJH1722,BCT,Woburn Drive,E05000830,Hale Barns,-2.316319,53.37517
1800SJ17481,BCT,Hale Road,E05000830,Hale Barns,-2.322079,53.37363
1800SJH2621,BCT,Broad Road,E05000833,Priory,-2.318055,53.42457
1800SJH2411,BCT,Broad Road,E05000835,Sale Moor,-2.299041,53.42339
1800SJH0982,BCT,Broad Road,E05000835,Sale Moor,-2.305975,53.42509
1800SJH2691,BCT,Broad Road,E05000833,Priory,-2.317905,53.42468
1800SJH2412,BCT,Broad Road,E05000835,Sale Moor,-2.299041,53.42339
1800SJH0981,BCT,Broad Road,E05000835,Sale Moor,-2.305975,53.42509
1800SJH1292,BCT,Broad Road,E05000833,Priory,-2.310525,53.42589
1800SJH1291,BCT,Broad Road,E05000833,Priory,-2.310525,53.42589
1800SJ09431,BCT,Sinderland Road,E05000822,Broadheath,-2.361571,53.40452
1800SJ48411,BCT,Sinderland Road,E05000822,Broadheath,-2.359954,53.40371
1800SJ04161,BCT,Ashburton Rd W,E05000829,Gorse Hill,-2.338177,53.47215
1800SJ03231,BCT,Ashburton Rd W,E05000829,Gorse Hill,-2.337623,53.47263
1800SJ03331,BCT,Washway Road,E05000833,Priory,-2.327765,53.42315
1800SJ03421,BCT,Washway Road,E05000820,Ashton upon Mersey,-2.327857,53.42339
1800SJ48101,BCT,Manchester Road,E05000824,Bucklow-St Martins,-2.419526,53.42136
1800SJ48251,BCT,Manchester Road,E05000824,Bucklow-St Martins,-2.421148,53.42112
1800SJ03031,BCT,Woodhouse Road,E05000827,Davyhulme West,-2.373755,53.45943
1800SJ41431,BCT,Hale Road,E05000830,Hale Barns,-2.323121,53.37423
1800SJH0761,BCT,Broadway,E05000827,Davyhulme West,-2.370434,53.45864
1800SJH0391,BCT,Broadway,E05000824,Bucklow-St Martins,-2.415961,53.41848
1800SJH0651,BCT,Broadway,E05000827,Davyhulme West,-2.372851,53.45941
1800SJH0131,BCT,Brook Road,E05000828,Flixton,-2.374401,53.44906
1800SJH0132,BCT,Brook Road,E05000828,Flixton,-2.374401,53.44906
1800SJ02851,BCT,Moorside Road,E05000828,Flixton,-2.374745,53.4522
1800SJ02841,BCT,Moorside Road,E05000827,Davyhulme West,-2.375499,53.45227
1800SJ49291,BCT,Park Road,E05000837,Timperley,-2.32778,53.40162
1800SJ49161,BCT,Park Road,E05000837,Timperley,-2.328111,53.40156
1800ZZMABKS0,TMU,Marsland Rd,E05000823,Brooklands,-2.325674,53.41728
1800SJR0401,RSE,Marsland Road,E05000823,Brooklands,-2.325824,53.41729
1800SJ47191,BCT,Marsland Road,E05000833,Priory,-2.3236,53.4176
1800SJE1971,TMU,Brooklands Metrolink,E05000823,Brooklands,-2.325674,53.41728
1800SBH1122,BCT,Brooklands Road,E05000839,Village,-2.314574,53.40562
1800SBH1121,BCT,Brooklands Road,E05000839,Village,-2.314574,53.40562
1800SJ41392,BCT,Hale Road,E05000830,Hale Barns,-2.303686,53.36582
1800SJ16871,BCT,Hale Road,E05000830,Hale Barns,-2.303746,53.36573
1800SJ41391,BCT,Hale Road,E05000830,Hale Barns,-2.303686,53.36582
1800SJ30021,BCT,Upp Chorlton Rd,E05000825,Clifford,-2.259135,53.45839
1800SJ41621,BCT,Hale Road,E05000831,Hale Central,-2.344051,53.38074
1800SJ41611,BCT,Hale Road,E05000831,Hale Central,-2.34104,53.38016
1800SJ04311,BCT,Carrington Lane,E05000834,St Mary's,-2.345511,53.42917
1800SJ04341,BCT,Carrington Lane,E05000820,Ashton upon Mersey,-2.344711,53.42894
1800SJH0501,BCT,Bucklow Avenue,E05000824,Bucklow-St Martins,-2.421334,53.4201
1800SJH0502,BCT,Bucklow Avenue,E05000824,Bucklow-St Martins,-2.421334,53.4201
1800SJ41041,BCT,Wicker Lane,E05000830,Hale Barns,-2.316127,53.36958
1800SJ41191,BCT,Wicker Lane,E05000830,Hale Barns,-2.316231,53.36935
1800SJE0541,BCE,Internal Road,E05000826,Davyhulme East,-2.351621,53.46748
1800SJE0561,BCE,Internal Road,E05000826,Davyhulme East,-2.352223,53.46732
1800SJE0551,BCE,Internal Road,E05000826,Davyhulme East,-2.351688,53.4682
1800SJ02601,BCT,Woodsend Road,E05000827,Davyhulme West,-2.38859,53.45787
1800SJ02611,BCT,Woodsend Road,E05000827,Davyhulme West,-2.389538,53.45771
1800SJ01471,BCT,Mosley Road,E05000829,Gorse Hill,-2.317744,53.45945
1800SJ01541,BCT,Mosley Road,E05000829,Gorse Hill,-2.317546,53.45924
1800SJ01811,BCT,John Gilbert Wy,E05000829,Gorse Hill,-2.302583,53.46448
1800SJ01171,BCT,Crofts Bank Rd,E05000826,Davyhulme East,-2.356051,53.45504
1800SJ02911,BCT,Cornhill Road,E05000827,Davyhulme West,-2.363817,53.45441
1800SJ01191,BCT,Crofts Bank Rd,E05000826,Davyhulme East,-2.355534,53.4544
1800SJ01961,BCT,Trafford Pk Rd,E05000829,Gorse Hill,-2.314456,53.47115
1800SJ01711,BCT,Trafford Pk Rd,E05000829,Gorse Hill,-2.313882,53.47094
1800SJ41501,BCT,Hale Road,E05000830,Hale Barns,-2.322397,53.37386
1800SJ04061,BCT,Kingsway Park,E05000826,Davyhulme East,-2.342222,53.45817
1800SJ04031,BCT,Kingsway Park,E05000826,Davyhulme East,-2.342827,53.45848
1800SJH2711,BCT,Carr Green Lane,E05000821,Bowdon,-2.430387,53.39424
1800SJ41131,BCT,Delahays Road,E05000830,Hale Barns,-2.324218,53.37815
1800SJ41141,BCT,Delahays Road,E05000831,Hale Central,-2.324575,53.37774
1800SJ48711,BCT,Dunham Road,E05000821,Bowdon,-2.430179,53.39754
1800SJ48581,BCT,Dunham Road,E05000821,Bowdon,-2.430284,53.3975
1800SJH0482,BCT,Heatherway,E05000824,Bucklow-St Martins,-2.354532,53.4299
1800SJ03611,BCT,Manor Avenue,E05000824,Bucklow-St Martins,-2.353115,53.42969
1800SJH0481,BCT,Heatherway,E05000824,Bucklow-St Martins,-2.354532,53.4299
1800SJH1921,BCT,Ackers Lane,E05000824,Bucklow-St Martins,-2.384962,53.43137
1800SJH1922,BCT,Ackers Lane,E05000824,Bucklow-St Martins,-2.384962,53.43137
1800SJ03851,BCT,Firsway,E05000834,St Mary's,-2.360997,53.41322
1800SJ03721,BCT,Firsway,E05000834,St Mary's,-2.361041,53.41301
1800SJ00401,BCT,Chester Road,E05000829,Gorse Hill,-2.297054,53.45572
1800SJ00741,BCT,Winchester Road,E05000826,Davyhulme East,-2.345036,53.45234
1800SJH2451,BCT,Cedar Road,E05000831,Hale Central,-2.341629,53.38244
1800SJH2452,BCT,Cedar Road,E05000831,Hale Central,-2.341629,53.38244
1800SJ41471,BCT,Hale Road,E05000831,Hale Central,-2.332807,53.37895
1800SJ41341,BCT,Hale Road,E05000831,Hale Central,-2.333619,53.37893
1800SJH2381,BCT,Centenary Way,E05000829,Gorse Hill,-2.325407,53.47678
1800SJH2391,BCT,Centenary Way,E05000829,Gorse Hill,-2.32557,53.47643
1800SJH0461,BCT,Central Road,E05000824,Bucklow-St Martins,-2.424511,53.41579
1800SJ03691,BCT,Mcr New Road,E05000824,Bucklow-St Martins,-2.426939,53.41936
1800SJH0462,BCT,Central Road,E05000824,Bucklow-St Martins,-2.424511,53.41579
1800SJ48261,BCT,M/Cr New Road,E05000824,Bucklow-St Martins,-2.426398,53.41944
1800SJH0662,BCT,Central Road,E05000824,Bucklow-St Martins,-2.42593,53.41774
1800SJH0661,BCT,Central Road,E05000824,Bucklow-St Martins,-2.42593,53.41774
1800SJ11361,BCT,Chapel Lane,E05000830,Hale Barns,-2.31204,53.3635
1800SJ11451,BCT,Chapel Lane,E05000830,Hale Barns,-2.312129,53.36343
1800SJ11341,BCT,Hawley Lane,E05000830,Hale Barns,-2.319137,53.36814
1800SJH1132,BCT,Cross Lane West,E05000824,Bucklow-St Martins,-2.426754,53.41436
1800SJH0532,BCT,Chapel Lane,E05000824,Bucklow-St Martins,-2.427442,53.41546
1800SJH0442,BCT,Chapel Lane,E05000824,Bucklow-St Martins,-2.42682,53.41494
1800SJ00031,BCT,Chester Road,E05000836,Stretford,-2.310378,53.44279
1800SJ11441,BCT,Greengate,E05000830,Hale Barns,-2.307886,53.36048
1800SJH0441,BCT,Chapel Lane,E05000824,Bucklow-St Martins,-2.42682,53.41494
1800SJH0531,BCT,Chapel Lane,E05000824,Bucklow-St Martins,-2.427442,53.41546
1800SJ03291,BCT,Cross Street,E05000833,Priory,-2.321682,53.42858
1800SJH1532,BCT,Charcoal Road,E05000821,Bowdon,-2.390391,53.38323
1800SJH1632,BCT,Charcoal Road,E05000821,Bowdon,-2.375197,53.38042
1800SJH1631,BCT,Charcoal Road,E05000821,Bowdon,-2.375197,53.38042
1800SJH1531,BCT,Charcoal Road,E05000821,Bowdon,-2.390391,53.38323
1800SJH1942,BCT,Chassen Road,E05000828,Flixton,-2.369776,53.44872
1800SJH1941,BCT,Chassen Road,E05000828,Flixton,-2.369776,53.44872
1800SJR0361,RSE,Chassen Road,E05000828,Flixton,-2.368834,53.44598
1800CHASNRD0,RSE,Chassen Rd,E05000828,Flixton,-2.368757,53.44587
1800CHASNRD1,RSE,Chassen Rd,E05000838,Urmston,-2.369,53.44611
1800SJ00931,BCT,Barton Road,E05000829,Gorse Hill,-2.323514,53.45377
1800SJ04661,BCT,Barton Road,E05000829,Gorse Hill,-2.321945,53.45345
1800SJ03741,BCT,Firsway,E05000834,St Mary's,-2.361939,53.41777
1800SJ03831,BCT,Firsway,E05000834,St Mary's,-2.361935,53.41734
1800SJ47851,BCT,Priory Road,E05000833,Priory,-2.309898,53.42655
1800SJ48451,BCT,Manchester Road,E05000822,Broadheath,-2.352691,53.40028
1800SJ30451,BCT,City Road,E05000825,Clifford,-2.265418,53.46605
1800SJ16961,BCT,Talbot Road,E05000832,Longford,-2.29845,53.45295
1800SJ01031,BCT,Chapel Lane,E05000836,Stretford,-2.311329,53.44321
1800SJ00451,BCT,City Road,E05000825,Clifford,-2.265538,53.46591
1800SJ00861,BCT,Davyhulme Rd E,E05000829,Gorse Hill,-2.303527,53.45111
1800SJ16941,BCT,Talbot Road,E05000829,Gorse Hill,-2.298316,53.45315
1800SJ08711,BCT,White City Way,E05000832,Longford,-2.281752,53.46223
1800SJ00871,BCT,Davyhulme Rd E,E05000836,Stretford,-2.303073,53.45078
1800SJH2741,BCT,Trafford Way,E05000826,Davyhulme East,-2.363275,53.46861
1800SJH2742,BCT,Trafford Way,E05000826,Davyhulme East,-2.363275,53.46861
1800SB14271,BCT,Moss Ln West,E05000825,Clifford,-2.256115,53.45954
1800SJH1362,BCT,Christie Road,E05000832,Longford,-2.300081,53.45147
1800SJH1361,BCT,Christie Road,E05000832,Longford,-2.300081,53.45147
1800SJ10731,BCT,Park Road,E05000821,Bowdon,-2.367792,53.37774
1800SJ04351,BCT,Ashton Lane,E05000820,Ashton upon Mersey,-2.340054,53.42805
1800SJ04241,BCT,Ashton Lane,E05000820,Ashton upon Mersey,-2.339749,53.42762
1800SJ03191,BCT,Redclyffe Road,E05000826,Davyhulme East,-2.352054,53.47239
1800SJ03501,BCT,Carrington Road,E05000828,Flixton,-2.385723,53.4423
1800SJH1951,BCT,Chassen Road,E05000828,Flixton,-2.366361,53.44388
1800SJ03491,BCT,Carrington Road,E05000828,Flixton,-2.384987,53.44244
1800SJH1952,BCT,Chassen Road,E05000828,Flixton,-2.366361,53.44388
1800SG17571,BCT,Oldfield Road,E05000819,Altrincham,-2.353141,53.3928
1800SJ17581,BCT,Oldfield Road,E05000819,Altrincham,-2.352931,53.3929
1800SJH2161,BCT,Church Street,E05000819,Altrincham,-2.351721,53.3921
1800SJH1621,BCT,Church Street,E05000819,Altrincham,-2.350491,53.39056
1800SJH1622,BCT,Church Street,E05000819,Altrincham,-2.350491,53.39056
1800SJ01121,BCT,Stretford Road,E05000838,Urmston,-2.347155,53.44624
1800SJ01231,BCT,Stretford Road,E05000838,Urmston,-2.346629,53.44642
1800SJ30281,BCT,Chester Road,E05000825,Clifford,-2.266762,53.4666
1800SJ30271,BCT,Chester Road,E05000825,Clifford,-2.266431,53.46662
1800SJ47381,BCT,Ashfield Road,E05000833,Priory,-2.320308,53.42596
1800SJ49491,BCT,Brooklands Road,E05000823,Brooklands,-2.321127,53.41286
1800SJ30121,BCT,Upp Chorlton Rd,E05000825,Clifford,-2.270147,53.45163
1800SJ48281,BCT,Central Road,E05000824,Bucklow-St Martins,-2.422693,53.41606
1800SJ48241,BCT,Manchester Road,E05000824,Bucklow-St Martins,-2.414921,53.426
1800SJ48111,BCT,Manchester Road,E05000824,Bucklow-St Martins,-2.415017,53.42658
1800SJ48291,BCT,Central Road,E05000824,Bucklow-St Martins,-2.42559,53.41683
1800SJ00681,BCT,Humphrey Lane,E05000838,Urmston,-2.332039,53.4501
1800SJH0172,BCT,Coniston Road,E05000824,Bucklow-St Martins,-2.431054,53.42006
1800SJH0171,BCT,Coniston Road,E05000824,Bucklow-St Martins,-2.431054,53.42006
1800SJ09401,BCT,Heyes Lane,E05000839,Village,-2.321508,53.40557
1800SJ49231,BCT,Heyes Lane,E05000837,Timperley,-2.321599,53.40567
1800SJH1571,BCT,Conway Road,E05000823,Brooklands,-2.303571,53.41924
1800SB30291,BCT,Chester Rd,E05000825,Clifford,-2.266324,53.46874
1800SJR4781,RSE,None,E05000825,Clifford,-2.269606,53.46844
1800ZZMACRN,TMU,Cornbrook Road,E05000825,Clifford,-2.267793,53.46999
1800SB18341,BCT,Bridgewater Way,E05000825,Clifford,-2.267608,53.46936
1800SJ30401,BCT,Chorlton Road,E05000825,Clifford,-2.258188,53.46111
1800SJ30411,BCT,Chorlton Road,E05000825,Clifford,-2.257967,53.46183
1800SJ00321,BCT,Stretford Road,E05000825,Clifford,-2.262053,53.46495
1800SJ30511,BCT,Stretford Road,E05000825,Clifford,-2.2635710000000002,53.46453
1800SJ02491,BCT,Davyhulme Road,E05000827,Davyhulme West,-2.363491,53.45678
1800SJ02481,BCT,Davyhulme Road,E05000826,Davyhulme East,-2.363837,53.45684
1800SJ48321,BCT,Warburton Lane,E05000824,Bucklow-St Martins,-2.431711,53.41216
1800SJ48331,BCT,Warburton Lane,E05000824,Bucklow-St Martins,-2.431818,53.41233
1800SJ11381,BCT,Greengate,E05000830,Hale Barns,-2.305871,53.36243
1800SJH1041,BCT,Craddock Road,E05000823,Brooklands,-2.315623,53.41117
1800SJH2921,BCT,Craddock Rd,E05000823,Brooklands,-2.311804,53.41137
1800SJH1042,BCT,Craddock Road,E05000823,Brooklands,-2.315623,53.41117
1800SJ04201,BCT,Oaklands Drive,E05000820,Ashton upon Mersey,-2.327386,53.42468
1800SJ47921,BCT,Sinderland Road,E05000822,Broadheath,-2.358218,53.40293
1800SJH1581,BCT,Craven Road,E05000822,Broadheath,-2.359478,53.4007
1800SJ01071,BCT,Urmston Lane,E05000836,Stretford,-2.325318,53.44556
1800SJ09661,BCT,Woodlands Road,E05000819,Altrincham,-2.349424,53.39069
1800SJ17711,BCT,Woodlands Road,E05000819,Altrincham,-2.349572,53.39045
1800SJ02991,BCT,Moorside Road,E05000838,Urmston,-2.355319,53.45213
1800SJ00831,BCT,Winchester Road,E05000826,Davyhulme East,-2.353757,53.45252
1800SJ32221,BCT,Kings Road,E05000832,Longford,-2.293314,53.45066
1800SJH0552,BCT,Cross Lane East,E05000824,Bucklow-St Martins,-2.421092,53.41539
1800SJH0551,BCT,Cross Lane East,E05000824,Bucklow-St Martins,-2.421092,53.41539
1800SJH1131,BCT,Cross Lane West,E05000824,Bucklow-St Martins,-2.426754,53.41436
1800SJ47361,BCT,Ashfield Road,E05000833,Priory,-2.322737,53.42681
1800SJ47371,BCT,Ashfield Road,E05000833,Priory,-2.322904,53.42705
1800SJ03481,BCT,Chester Road,E05000820,Ashton upon Mersey,-2.316634,53.43385
1800SJ00261,BCT,Cross Street,E05000833,Priory,-2.316659,53.43314
1800SJH2421,BCT,Cavendish Road,E05000821,Bowdon,-2.352772,53.381
1800SJH2422,BCT,Cavendish Road,E05000821,Bowdon,-2.352772,53.381
1800SJ47771,BCT,Derbyshire Rd S,E05000823,Brooklands,-2.308691,53.41571
1800SJ47631,BCT,Derbyshire Rd S,E05000823,Brooklands,-2.308889,53.41612
1800SJ47861,BCT,Priory Road,E05000833,Priory,-2.308231,53.42912
1800SJ47811,BCT,Priory Road,E05000833,Priory,-2.30826,53.42896
1800SJ03471,BCT,Cross Street,E05000820,Ashton upon Mersey,-2.318486,53.43184
1800SJ03281,BCT,Cross Street,E05000833,Priory,-2.31911,53.43079
1800ZZMADNE0,TMU,Dane Road,E05000833,Priory,-2.311386,53.43039
1800SJR0371,RSE,Dane Road,E05000833,Priory,-2.31164,53.4301
1800SJE1911,TMU,Dane Road Metrolink,E05000833,Priory,-2.311386,53.43039
1800SJ00761,BCT,Dane Road,E05000833,Priory,-2.31422,53.431
1800SJ00531,BCT,Church Road,E05000838,Urmston,-2.360881,53.44561
1800SJ02191,BCT,Church Road,E05000838,Urmston,-2.359364,53.44603
1800SJ18561,BCT,Atlantic Street,E05000822,Broadheath,-2.356948,53.39853
1800SJ18501,BCT,George Rich Way,E05000822,Broadheath,-2.355632,53.39939
1800SJ01181,BCT,Crofts Bank Rd,E05000826,Davyhulme East,-2.35682,53.45692
1800SJ16421,BCT,Hayeswater Road,E05000826,Davyhulme East,-2.358536,53.4568
1800SJ16431,BCT,Hayeswater Road,E05000826,Davyhulme East,-2.358852,53.4568
1800SJ03921,BCT,Canterbury Road,E05000826,Davyhulme East,-2.353836,53.45478
1800SJ03071,BCT,Woodhouse Road,E05000827,Davyhulme West,-2.384742,53.45872
1800SJ01341,BCT,Park Road,E05000829,Gorse Hill,-2.316992,53.45353
1800SJ02531,BCT,Woodhouse Road,E05000827,Davyhulme West,-2.373428,53.45655
1800SJ05851,BCT,Park Road,E05000836,Stretford,-2.315852,53.4522
1800SJ00111,BCT,Chester Road,E05000836,Stretford,-2.302722,53.45021
1800SJ00881,BCT,Moss Road,E05000836,Stretford,-2.310201,53.4516
1800SJ00421,BCT,Chester Road,E05000832,Longford,-2.302299,53.44999
1800SJ12391,BCT,Firs Road,E05000834,St Mary's,-2.345522,53.42686
1800SJH0372,BCT,De Quincey Road,E05000822,Broadheath,-2.350447,53.4072
1800SJ48471,BCT,Manchester Road,E05000822,Broadheath,-2.346834,53.40683
1800SJH0371,BCT,De Quincey Road,E05000822,Broadheath,-2.350447,53.4072
1800SJ49361,BCT,Brook Lane,E05000837,Timperley,-2.338814,53.39704
1800SJ49431,BCT,Brook Lane,E05000822,Broadheath,-2.338574,53.3972
1800SJ49041,BCT,Greystoke Ave,E05000839,Village,-2.305602,53.39206
1800SJ41321,BCT,Hale Road,E05000831,Hale Central,-2.326777,53.37674
1800SJ41121,BCT,Grove Lane,E05000830,Hale Barns,-2.322744,53.38003
1800SJ41491,BCT,Hale Road,E05000831,Hale Central,-2.326341,53.37666
1800SJ08611,BCT,Grove Lane,E05000830,Hale Barns,-2.323136,53.38023
1800SJ01441,BCT,Park Road,E05000836,Stretford,-2.3146,53.44977
1800SJ01331,BCT,Park Road,E05000836,Stretford,-2.315409,53.45136
1800SJ00101,BCT,Chester Road,E05000836,Stretford,-2.304038,53.44888
1800SJH1051,BCT,Derbyshire Rd S,E05000823,Brooklands,-2.307669,53.41166
1800SJH2911,BCT,Derbyshire Rd S,E05000823,Brooklands,-2.307875,53.41313
1800SJH1001,BCT,Norris Road,E05000823,Brooklands,-2.308317,53.4139
1800SJ47271,BCT,Northenden Road,E05000835,Sale Moor,-2.311733,53.42231
1800SJH2042,BCT,Derbyshire Rd,E05000835,Sale Moor,-2.311687,53.42017
1800SJH2041,BCT,Derbyshire Rd,E05000835,Sale Moor,-2.311687,53.42017
1800SJH2532,BCT,Derbyshire Rd,E05000823,Brooklands,-2.308143,53.41481
1800SJH1052,BCT,Derbyshire Rd S,E05000823,Brooklands,-2.307669,53.41166
1800SJH2531,BCT,Derbyshire Rd,E05000823,Brooklands,-2.308143,53.41481
1800SJ47951,BCT,Barlow Road,E05000822,Broadheath,-2.365908,53.4034
1800SJ48371,BCT,Barlow Road,E05000822,Broadheath,-2.365622,53.40336
1800SJ10691,BCT,Charcoal Road,E05000821,Bowdon,-2.381,53.38215
1800SJ10681,BCT,Charcoal Road,E05000821,Bowdon,-2.381647,53.38222
1800SJ10911,BCT,Woodhouse Lane,E05000821,Bowdon,-2.404557,53.38531
1800SJ10901,BCT,Woodhouse Lane,E05000821,Bowdon,-2.404767,53.38523
1800SJH2331,BCT,Internal Road,E05000821,Bowdon,-2.40442,53.38506
1800SJH2332,BCT,Internal Road,E05000821,Bowdon,-2.40442,53.38506
1800SJH2342,BCT,Dunham Hall,E05000821,Bowdon,-2.403427,53.38347
1800SJH2341,BCT,Dunham Hall,E05000821,Bowdon,-2.403427,53.38347
1800SJ10721,BCT,Park Road,E05000821,Bowdon,-2.374367,53.38005
1800SJH2352,BCT,Dunham Road,E05000821,Bowdon,-2.373287,53.38207
1800SJH2612,BCT,Dunham Road,E05000819,Altrincham,-2.355686,53.38784
1800SJH2611,BCT,Dunham Road,E05000819,Altrincham,-2.355686,53.38784
1800SJH2351,BCT,Dunham Road,E05000821,Bowdon,-2.373287,53.38207
1800SJH2771,BCT,Dunham Road,E05000819,Altrincham,-2.352428,53.388420000000004
1800SJH2781,BCT,Dunham Road,E05000821,Bowdon,-2.366288,53.38637
1800SJH2361,BCT,Dunham Road,E05000821,Bowdon,-2.364998,53.38675
1800SJH1602,BCT,Dunham Road,E05000819,Altrincham,-2.361045,53.38681
1800SJH2362,BCT,Dunham Road,E05000821,Bowdon,-2.364998,53.38675
1800SJH1601,BCT,Dunham Road,E05000819,Altrincham,-2.361045,53.38681
1800SJ16881,BCT,Woodhouse Lane,E05000821,Bowdon,-2.393031,53.38428
1800SJH2721,BCT,School Lane,E05000821,Bowdon,-2.390926,53.38585
1800SJH2722,BCT,School Lane,E05000821,Bowdon,-2.390926,53.38585
1800SJ00541,BCT,Woodhouse Lane,E05000821,Bowdon,-2.393137,53.38435
1800SJ48491,BCT,Washway Road,E05000823,Brooklands,-2.341677,53.41092
1800SJ48621,BCT,Paddock Lane,E05000821,Bowdon,-2.452544,53.40191
1800SJ48671,BCT,Paddock Lane,E05000821,Bowdon,-2.452003,53.40199
1800SJ04051,BCT,Kingsway Park,E05000826,Davyhulme East,-2.343902,53.45919
1800SJ04041,BCT,Kingsway Park,E05000826,Davyhulme East,-2.344055,53.45947
1800SJH2111,BCT,Eighth Street,E05000829,Gorse Hill,-2.310827,53.46517
1800SJH2112,BCT,Eighth Street,E05000829,Gorse Hill,-2.310827,53.46517
1800SJ15701,BCT,Fifth Avenue,E05000829,Gorse Hill,-2.312235,53.46609
1800SJ02061,BCT,Second Avenue,E05000829,Gorse Hill,-2.307978,53.46693
1800SJ09111,BCT,Second Avenue,E05000829,Gorse Hill,-2.308157,53.46671
1800SJ15691,BCT,Fifth Avenue,E05000829,Gorse Hill,-2.312405,53.46669
1800SJ03171,BCT,Trafford Blvd,E05000826,Davyhulme East,-2.351276,53.46946
1800SJ03181,BCT,Redclyffe Road,E05000826,Davyhulme East,-2.350249,53.4709
1800SJ03201,BCT,Redclyffe Road,E05000826,Davyhulme East,-2.350706,53.47158
1800SJ03971,BCT,Trafford Blvd,E05000826,Davyhulme East,-2.350523,53.46951
1800SJH1541,BCT,Ellesmere Cir,E05000826,Davyhulme East,-2.349445,53.47023
1800SJ11211,BCT,Barrington Road,E05000819,Altrincham,-2.350496,53.39484
1800SJ09501,BCT,Hawley Lane,E05000830,Hale Barns,-2.31867,53.36797
1800SJ04511,BCT,Woodhouse Lane,E05000822,Broadheath,-2.347071,53.41199
1800SJ04541,BCT,Woodhouse Lane,E05000834,St Mary's,-2.346441,53.41217
1800SJ04251,BCT,Carrington Lane,E05000820,Ashton upon Mersey,-2.343288,53.42784
1800SJ03731,BCT,Firsway,E05000834,St Mary's,-2.362284,53.41594
1800SJ03841,BCT,Firsway,E05000834,St Mary's,-2.362132,53.41565
1800SJ00631,BCT,Stretford Rd,E05000825,Clifford,-2.260005,53.4652
1800SJH0691,BCT,Europa Way,E05000829,Gorse Hill,-2.305768,53.4655
1800SJH0681,BCT,Europa Way,E05000829,Gorse Hill,-2.305627,53.46464
1800SJ02461,BCT,Lostock Road,E05000826,Davyhulme East,-2.353105,53.45751
1800SJ02451,BCT,Lostock Road,E05000826,Davyhulme East,-2.352548,53.45752
1800SJ04211,BCT,Ashton Lane,E05000820,Ashton upon Mersey,-2.327759,53.42615
1800SJ10611,BCT,Ashley Road,E05000821,Bowdon,-2.352339,53.38318
1800SJ01991,BCT,Village Way,E05000829,Gorse Hill,-2.310979,53.46737
1800SJ01981,BCT,Village Way,E05000829,Gorse Hill,-2.313659,53.46723
1800SJ03801,BCT,Firsway,E05000834,St Mary's,-2.355186,53.42173
1800SJ03771,BCT,Firsway,E05000834,St Mary's,-2.354768,53.42209
1800SJ03651,BCT,Manor Avenue,E05000834,St Mary's,-2.353501,53.42355
1800SJ03911,BCT,Manor Avenue,E05000834,St Mary's,-2.353491,53.42232
1800SJ03861,BCT,Cherry Lane,E05000834,St Mary's,-2.359319,53.41222
1800SJ03711,BCT,Cherry Lane,E05000822,Broadheath,-2.359468,53.41196
1800ZZMAFIR,TMU,Rye Bank Road,E05000832,Longford,-2.278037,53.45159
1800SJ01081,BCT,Urmston Lane,E05000838,Urmston,-2.328481,53.44571
1800SJ01281,BCT,Urmston Lane,E05000836,Stretford,-2.327443,53.44581
1800SJR1641,RSE,Flixton Road,E05000828,Flixton,-2.383508,53.44378
1800FLIXTON0,RSE,Flixton Road,E05000828,Flixton,-2.384262,53.44389
1800SJH0151,BCT,Flixton Road,E05000824,Bucklow-St Martins,-2.385677,53.43391
1800SJH1251,BCT,Flixton Road,E05000828,Flixton,-2.389617,53.44008
1800SJH0061,BCT,Flixton Rd,E05000824,Bucklow-St Martins,-2.389375,53.43995
1800SJH1261,BCT,Flixton Road,E05000824,Bucklow-St Martins,-2.385435,53.43369
1800SJH2661,BCT,Flixton Road,E05000828,Flixton,-2.382814,53.44691
1800SJ02681,BCT,Irlam Road,E05000828,Flixton,-2.381574,53.44799
1800SJ08521,BCT,Irlam Road,E05000828,Flixton,-2.38177,53.44799
1800SJ02271,BCT,Flixton Road,E05000828,Flixton,-2.38421,53.44474
1800SJ02281,BCT,Flixton Road,E05000828,Flixton,-2.384073,53.44455
1800SJ11881,BCT,Moss Lane,E05000831,Hale Central,-2.336252,53.38306
1800SJ40991,BCT,Moss Lane,E05000831,Hale Central,-2.336752,53.38358
1800SJ11882,BCT,Moss Lane,E05000831,Hale Central,-2.336312,53.38306
1800SJ10931,BCT,Stamford Pk Rd,E05000831,Hale Central,-2.33711,53.38314
1800SJ04651,BCT,Winchester Road,E05000829,Gorse Hill,-2.335414,53.45234
1800SJ49471,BCT,Brooklands Road,E05000839,Village,-2.316788,53.408
1800SJ17781,BCT,Sibson Road,E05000833,Priory,-2.323569,53.42334
1800SJ17761,BCT,Winchester Road,E05000826,Davyhulme East,-2.345911,53.4525
1800SJH1482,BCT,Bow Lane,E05000821,Bowdon,-2.370537,53.37185
1800SJH1481,BCT,Bow Lane,E05000821,Bowdon,-2.370537,53.37185
1800SJ17851,BCT,Victoria Street,E05000819,Altrincham,-2.349113,53.38938
1800SJ11201,BCT,Barrington Road,E05000819,Altrincham,-2.350131,53.39437
1800SJH2761,BCT,Baltic Road,E05000822,Broadheath,-2.370129,53.39754
1800SJ48541,BCT,Manchester Road,E05000822,Broadheath,-2.352282,53.39985
1800SJ00601,BCT,Higher Road,E05000838,Urmston,-2.34395,53.4483
1800SJ02331,BCT,Flixton Road,E05000828,Flixton,-2.370968,53.44898
1800SJ02341,BCT,Flixton Road,E05000828,Flixton,-2.371855,53.44886
1800SJH1822,BCT,Gladstone Road,E05000819,Altrincham,-2.344337,53.39571
1800SJH1821,BCT,Gladstone Road,E05000819,Altrincham,-2.344337,53.39571
1800SJ04401,BCT,Glebelands Road,E05000820,Ashton upon Mersey,-2.329336,53.43169
1800SJ04441,BCT,Glebelands Road,E05000820,Ashton upon Mersey,-2.329756,53.4315
1800SJ02261,BCT,Church Road,E05000828,Flixton,-2.375588,53.44191
1800SJ02251,BCT,Church Road,E05000828,Flixton,-2.375,53.44184
1800SJ32161,BCT,Greatstone Rd,E05000832,Longford,-2.289837,53.45521
1800SJ32151,BCT,Greatstone Road,E05000832,Longford,-2.290138,53.45525
1800SJ16921,BCT,Talbot Road,E05000832,Longford,-2.294472,53.45474
1800SJ16931,BCT,Talbot Road,E05000829,Gorse Hill,-2.294938,53.45466
1800SJ48721,BCT,Dunham Road,E05000821,Bowdon,-2.419352,53.3945
1800SJ11111,BCT,Oldfield Road,E05000819,Altrincham,-2.363368,53.39123
1800SJ11171,BCT,Oldfield Road,E05000819,Altrincham,-2.364287,53.39149
1800SJ48571,BCT,Dunham Road,E05000821,Bowdon,-2.41929,53.39437
1800SJ41481,BCT,Hale Road,E05000831,Hale Central,-2.328469,53.3778
1800SJH1832,BCT,Grange Road,E05000839,Village,-2.321918,53.40013
1800SJH1831,BCT,Grange Road,E05000839,Village,-2.321918,53.40013
1800SJ47551,BCT,Northenden Road,E05000835,Sale Moor,-2.293159,53.41929
1800SJ41351,BCT,Hale Road,E05000831,Hale Central,-2.33696,53.37944
1800SJ41461,BCT,Hale Road,E05000831,Hale Central,-2.336555,53.37948
1800SJ32181,BCT,The Quadrant,E05000832,Longford,-2.286834,53.45197
1800SJ00391,BCT,Chester Road,E05000829,Gorse Hill,-2.292933,53.45874
1800SJ32171,BCT,The Quadrant,E05000832,Longford,-2.286645,53.453
1800SJ00151,BCT,Chester Road,E05000829,Gorse Hill,-2.29283,53.45901
1800SJ17491,BCT,Wood Lane,E05000830,Hale Barns,-2.320702,53.38844
1800SJ11651,BCT,Wood Lane,E05000830,Hale Barns,-2.320026,53.38844
1800SJH2102,BCT,Wood Lane,E05000830,Hale Barns,-2.321514,53.38834
1800SJH2101,BCT,Wood Lane,E05000830,Hale Barns,-2.321514,53.38834
1800SJ11371,BCT,Chapel Lane,E05000830,Hale Barns,-2.307904,53.36089
1800SJ17601,BCT,Hillcroft Road,E05000819,Altrincham,-2.375239,53.3904
1800SJH2462,BCT,Greenway,E05000819,Altrincham,-2.373569,53.39029
1800SJH2461,BCT,Greenway,E05000819,Altrincham,-2.373569,53.39029
1800SJH2481,BCT,Grey Road,E05000819,Altrincham,-2.360585,53.38933
1800SJH2482,BCT,Grey Road,E05000819,Altrincham,-2.360585,53.38933
1800SJ17911,BCT,Barrington Road,E05000819,Altrincham,-2.346863,53.39012
1800SJ04391,BCT,Glebelands Road,E05000820,Ashton upon Mersey,-2.332028,53.43135
1800SJ41311,BCT,Ash Lane,E05000830,Hale Barns,-2.311888,53.37978
1800SJH1842,BCT,Grove Lane,E05000837,Timperley,-2.320918,53.39716
1800SJH1851,BCT,Grove Lane,E05000837,Timperley,-2.333843,53.39796
1800SJH1841,BCT,Grove Lane,E05000837,Timperley,-2.320918,53.39716
1800SJH1852,BCT,Grove Lane,E05000837,Timperley,-2.333843,53.39796
1800SJ01581,BCT,Centenary Way,E05000829,Gorse Hill,-2.324416,53.47531
1800SJ01641,BCT,Centenary Way,E05000829,Gorse Hill,-2.324644,53.47559
1800SJ01631,BCT,Guinness Road,E05000829,Gorse Hill,-2.327694,53.47645
1800SJR0311,RSE,Ashley Road,E05000831,Hale Central,-2.347351,53.37796
1800SJT0831,TXR,Ashley Rd,E05000831,Hale Central,-2.346459,53.37743
1800HALE0,RSE,Victoria Road,E05000831,Hale Central,-2.347387,53.3787
1800SJ11401,BCT,High Elm Road,E05000830,Hale Barns,-2.30415,53.36555
1800SJ11411,BCT,High Elm Road,E05000830,Hale Barns,-2.304134,53.36538
1800SJH1642,BCT,Hale Road,E05000830,Hale Barns,-2.325238,53.37587
1800SJH1641,BCT,Hale Road,E05000830,Hale Barns,-2.325238,53.37587
1800SJ11261,BCT,Ashley Road,E05000831,Hale Central,-2.346899,53.37786
1800SJ11871,BCT,Ashley Road,E05000831,Hale Central,-2.347154,53.37786
1800SJ11271,BCT,Ashley Road,E05000831,Hale Central,-2.345085,53.37661
1800SJ11861,BCT,Ashley Road,E05000831,Hale Central,-2.344993,53.37636
1800SJ02891,BCT,Cornhill Road,E05000827,Davyhulme West,-2.364784,53.45303
1800SJ09031,BCT,Cornhill Rd,E05000827,Davyhulme West,-2.365851,53.45285
1800SJ05861,BCT,Firs Road,E05000820,Ashton upon Mersey,-2.343754,53.42776
1800SJH1792,BCT,Harboro Road,E05000834,St Mary's,-2.340436,53.42319
1800SJH1791,BCT,Harboro Road,E05000834,St Mary's,-2.340436,53.42319
1800SJH1871,BCT,Harboro Way,E05000834,St Mary's,-2.332299,53.41982
1800SJ09681,BCT,Manchester Road,E05000819,Altrincham,-2.3521,53.39604
1800SJH0512,BCT,Moss Lane,E05000824,Bucklow-St Martins,-2.422494,53.41724
1800SJH0112,BCT,Hardwick Road,E05000824,Bucklow-St Martins,-2.420933,53.41912
1800SJH0511,BCT,Moss Lane,E05000824,Bucklow-St Martins,-2.422494,53.41724
1800SJ48272,BCT,Moss Lane,E05000824,Bucklow-St Martins,-2.422829,53.41763
1800SJH0111,BCT,Hardwick Road,E05000824,Bucklow-St Martins,-2.420933,53.41912
1800SJ48271,BCT,Moss Lane,E05000824,Bucklow-St Martins,-2.422829,53.41763
1800SJ40751,BCT,Stockport Road,E05000819,Altrincham,-2.330846,53.39154
1800SJ40891,BCT,Stockport Road,E05000837,Timperley,-2.328864,53.39192
1800SJ12061,BCT,Manor Avenue,E05000834,St Mary's,-2.353122,53.41964
1800SJ02441,BCT,Lostock Road,E05000826,Davyhulme East,-2.346446,53.45711
1800SJ02431,BCT,Lostock Road,E05000826,Davyhulme East,-2.345769,53.45724
1800SJ11101,BCT,Oldfield Road,E05000819,Altrincham,-2.359853,53.39168
1800SJ11181,BCT,Oldfield Road,E05000819,Altrincham,-2.359629,53.3919
1800SJH2052,BCT,Hartley Road,E05000819,Altrincham,-2.359447,53.39174
1800SJH2051,BCT,Hartley Road,E05000819,Altrincham,-2.359447,53.39174
1800SJ01501,BCT,Westinghouse Rd,E05000829,Gorse Hill,-2.323992,53.46515
1800SJ01511,BCT,Westinghouse Rd,E05000829,Gorse Hill,-2.323404,53.46506
1800SJH1812,BCT,Hawarden Road,E05000819,Altrincham,-2.347647,53.39589
1800SJH1811,BCT,Hawarden Road,E05000819,Altrincham,-2.347647,53.39589
1800SJ02931,BCT,Davyhulme Circl,E05000826,Davyhulme East,-2.357849,53.45746
1800SJ02921,BCT,Davyhulme Road,E05000826,Davyhulme East,-2.358255,53.45735
1800SJ02471,BCT,Davyhulme Road,E05000826,Davyhulme East,-2.359231,53.45707
1800SJH0141,BCT,Hayeswater Road,E05000827,Davyhulme West,-2.361595,53.45351
1800SJH1511,BCT,Hayeswater Road,E05000826,Davyhulme East,-2.361773,53.45317
1800SJH2561,BCT,School Road,E05000833,Priory,-2.324367,53.42546
1800SJ11221,BCT,Barrington Road,E05000819,Altrincham,-2.348762,53.39251
1800SJ11231,BCT,Barrington Road,E05000819,Altrincham,-2.348247,53.39206
1800SJ10791,BCT,Langham Road,E05000821,Bowdon,-2.355512,53.37605
1800SJ10631,BCT,Langham Road,E05000821,Bowdon,-2.355556,53.37593
1800SJ03671,BCT,Central Road,E05000824,Bucklow-St Martins,-2.426662,53.41879
1800SJ41181,BCT,Shay Lane,E05000830,Hale Barns,-2.315466,53.37165
1800SJ41051,BCT,Shay Lane,E05000830,Hale Barns,-2.315316,53.37167
1800SJH1442,BCT,Heather Road,E05000831,Hale Central,-2.343917,53.37154
1800SJH1441,BCT,Heather Road,E05000831,Hale Central,-2.343917,53.37154
1800SJH1112,BCT,Heatherway,E05000824,Bucklow-St Martins,-2.354579,53.4265
1800SJH1111,BCT,Heatherway,E05000824,Bucklow-St Martins,-2.354579,53.4265
1800SJ47701,BCT,Norris Road,E05000835,Sale Moor,-2.295912,53.41499
1800SJ47681,BCT,Norris Road,E05000835,Sale Moor,-2.295538,53.41523
1800SJH0901,BCT,Ayres Road,E05000825,Clifford,-2.268834,53.45836
1800SJH0902,BCT,Ayres Road,E05000825,Clifford,-2.268834,53.45836
1800SJ30491,BCT,Stretford Road,E05000825,Clifford,-2.266429,53.46396
1800SJ30481,BCT,Stretford Road,E05000825,Clifford,-2.265829,53.46421
1800SJ30471,BCT,Stretford Road,E05000825,Clifford,-2.270854,53.46326
1800SJ30461,BCT,Stretford Road,E05000832,Longford,-2.271454,53.46302
1800SJH1932,BCT,Hereford Grove,E05000838,Urmston,-2.359318,53.44954
1800SJH1931,BCT,Hereford Grove,E05000838,Urmston,-2.359318,53.44954
1800SJ49151,BCT,Park Road,E05000837,Timperley,-2.323425,53.40047
1800SJ49301,BCT,Park Road,E05000839,Village,-2.323697,53.40071
1800SJH2752,BCT,High Elm Rd,E05000830,Hale Barns,-2.310428,53.36499
1800SJH2751,BCT,High Elm Rd,E05000830,Hale Barns,-2.310428,53.36499
1800SJ11391,BCT,Greengate,E05000830,Hale Barns,-2.306721,53.36362
1800SJ00171,BCT,Hale Road,E05000830,Hale Barns,-2.304724,53.36598
1800SJ11351,BCT,Chapel Lane,E05000830,Hale Barns,-2.314001,53.36654
1800SJ11461,BCT,Chapel Lane,E05000830,Hale Barns,-2.314224,53.36631
1800SJ10971,BCT,Green Lane,E05000830,Hale Barns,-2.323345,53.38405
1800SJ11041,BCT,Green Lane,E05000830,Hale Barns,-2.322629,53.38475
1800SJH0731,BCT,Highgate Road,E05000821,Bowdon,-2.364247,53.38861
1800SJH0732,BCT,Highgate Road,E05000821,Bowdon,-2.364247,53.38861
1800SJH1651,BCT,Hillcroft Road,E05000819,Altrincham,-2.373902,53.39051
1800SJH1652,BCT,Hillcroft Road,E05000819,Altrincham,-2.373902,53.39051
1800SJ32251,BCT,Kings Road,E05000832,Longford,-2.299324,53.44867
1800SJ32261,BCT,Kings Road,E05000832,Longford,-2.299623,53.44836
1800SJ04231,BCT,Ashton Lane,E05000820,Ashton upon Mersey,-2.336743,53.42613
1800SJ04361,BCT,Ashton Lane,E05000820,Ashton upon Mersey,-2.336713,53.42624
1800SJ00641,BCT,Bradfield Road,E05000838,Urmston,-2.334876,53.44904
1800SJ17791,BCT,Bradfield Road,E05000838,Urmston,-2.334634,53.44894
1800SJ49031,BCT,Mainwood Road,E05000839,Village,-2.306664,53.39125
1800SJ49101,BCT,Mainwood Road,E05000839,Village,-2.308228,53.39127
1800SJ08581,BCT,Sinderland Road,E05000822,Broadheath,-2.354856,53.40199
1800SJ48421,BCT,Sinderland Road,E05000822,Broadheath,-2.356124,53.40258
1800SJH2032,BCT,Old Hall Lane,E05000835,Sale Moor,-2.298847,53.42157
1800SJH2031,BCT,Old Hall Lane,E05000835,Sale Moor,-2.298847,53.42157
1800SJ03361,BCT,Washway Road,E05000823,Brooklands,-2.33724,53.4148
1800SJ03381,BCT,Washway Road,E05000834,St Mary's,-2.33763,53.41467
1800SJH1331,BCT,Bradfield Road,E05000838,Urmston,-2.332932,53.44886
1800SJH1332,BCT,Bradfield Road,E05000838,Urmston,-2.332932,53.44886
1800SJR0031,RSE,Derbyshire Lane,E05000836,Stretford,-2.328094,53.45219
1800HMPHRYP0,RSE,Footpath,E05000829,Gorse Hill,-2.328396,53.45228
1800HMPHRYP1,RSE,Footpath,E05000836,Stretford,-2.328274,53.45203
1800SJH0751,BCT,Derbyshire Ln W,E05000836,Stretford,-2.327849,53.45163
1800SJ04672,BCT,Chatsworth Road,E05000829,Gorse Hill,-2.328414,53.45263
1800SJ16981,BCT,Chatsworth Road,E05000829,Gorse Hill,-2.328474,53.45252
1800SJ04671,BCT,Chatsworth Road,E05000829,Gorse Hill,-2.328399,53.45263
1800SJ00671,BCT,Derbyshire Ln W,E05000836,Stretford,-2.328135,53.45153
1800SJ03871,BCT,Cherry Lane,E05000834,St Mary's,-2.354066,53.41373
1800SJ03701,BCT,Cherry Lane,E05000822,Broadheath,-2.354547,53.41365
1800SJ01361,BCT,Barton Dock Rd,E05000829,Gorse Hill,-2.321827,53.45769
1800SJE0891,BCE,Altrincham Interchange,E05000819,Altrincham,-2.347193,53.38809
1800SJE0901,BCE,Altrincham Interchange,E05000819,Altrincham,-2.347966,53.38707
1800TCBS041,BCS,Trafford Blvd.,E05000826,Davyhulme East,-2.351777,53.46803
1800TCBS111,BCS,Trafford Blvd.,E05000826,Davyhulme East,-2.35182,53.46774
1800TCBS071,BCS,Trafford Blvd.,E05000826,Davyhulme East,-2.351791,53.46791
1800TCBS081,BCS,Trafford Blvd.,E05000826,Davyhulme East,-2.35179,53.46786
1800TCBS001,BCS,Trafford Blvd.,E05000826,Davyhulme East,-2.351669,53.4678
1800TCBS011,BCS,Trafford Blvd.,E05000826,Davyhulme East,-2.351748,53.46816
1800TCBS161,BCS,Trafford Blvd.,E05000826,Davyhulme East,-2.351848,53.46752
1800TCBS031,BCS,Trafford Blvd.,E05000826,Davyhulme East,-2.351762,53.46808
1800TCBS051,BCS,Trafford Blvd.,E05000826,Davyhulme East,-2.351776,53.46799
1800TCBS121,BCS,Trafford Blvd.,E05000826,Davyhulme East,-2.351834,53.46769
1800TCBS141,BCS,Trafford Blvd.,E05000826,Davyhulme East,-2.351848,53.4676
1800TCBS151,BCS,Trafford Blvd.,E05000826,Davyhulme East,-2.351848,53.46756
1800TCBS021,BCS,Trafford Blvd.,E05000826,Davyhulme East,-2.351747,53.46812
1800TCBS131,BCS,Trafford Blvd.,E05000826,Davyhulme East,-2.351834,53.46765
1800TCBS061,BCS,Trafford Blvd.,E05000826,Davyhulme East,-2.351776,53.46794
1800TCBS091,BCS,Trafford Blvd.,E05000826,Davyhulme East,-2.351805,53.46783
1800TCBS101,BCS,Trafford Blvd.,E05000826,Davyhulme East,-2.35182,53.46778
1800SJ02651,BCT,Woodsend Rd,E05000828,Flixton,-2.391442,53.44859
1800SJ02661,BCT,Woodsend Rd,E05000828,Flixton,-2.391245,53.44844
1800SJ15021,BCT,Lytham Road,E05000827,Davyhulme West,-2.404017,53.44731
1800SJ02301,BCT,Flixton Road,E05000828,Flixton,-2.381058,53.44748
1800SJ16481,BCT,Lytham Road,E05000827,Davyhulme West,-2.403882,53.44731
1800SJ02291,BCT,Flixton Road,E05000828,Flixton,-2.380623,53.44772
1800SJ15022,BCT,Lytham Road,E05000827,Davyhulme West,-2.404017,53.44731
1800SJ09101,BCT,Wharfside Way,E05000829,Gorse Hill,-2.296222,53.46597
1800SJ02081,BCT,Wharfside Way,E05000829,Gorse Hill,-2.29809,53.46598
1800SJ11091,BCT,Oldfield Road,E05000819,Altrincham,-2.355489,53.39307
1800SJ11191,BCT,Oldfield Road,E05000819,Altrincham,-2.355866,53.39329
1800SJ18971,BCT,Hayfield Street,E05000833,Priory,-2.324425,53.42519
1800SJ12451,BCT,Hayfield Street,E05000833,Priory,-2.324605,53.42505
1800SJ01351,BCT,Barton Dock Rd,E05000829,Gorse Hill,-2.319288,53.45657
1800SJ01551,BCT,Park Road,E05000829,Gorse Hill,-2.31783,53.45687
1800SJ01421,BCT,Barton Dock Rd,E05000829,Gorse Hill,-2.319803,53.45695
1800SJ01461,BCT,Park Road,E05000829,Gorse Hill,-2.318088,53.45712
1800SJ49051,BCT,Greystoke Ave,E05000839,Village,-2.306416,53.3943
1800SJ49081,BCT,Greystoke Ave,E05000839,Village,-2.305574,53.39232
1800SJ30171,BCT,Seymour Grove,E05000825,Clifford,-2.273688,53.45441
1800SJ30041,BCT,Upp Chorlton Rd,E05000825,Clifford,-2.262406,53.45638
1800SJ30181,BCT,Seymour Grove,E05000832,Longford,-2.274206,53.4553
1800SJ32201,BCT,Kings Road,E05000832,Longford,-2.290474,53.45146
1800SJ32211,BCT,Kings Road,E05000832,Longford,-2.290188,53.4514
1800SJ03141,BCT,Barton Road,E05000826,Davyhulme East,-2.358178,53.46079
1800SJ18972,BCT,Hayfield Street,E05000833,Priory,-2.324425,53.42519
1800SJ12452,BCT,Hayfield Street,E05000833,Priory,-2.324605,53.42505
1800SJ00721,BCT,Langham Grove,E05000839,Village,-2.31991,53.40303
1800SJ09701,BCT,Langham Grove,E05000839,Village,-2.320271,53.40311
1800NFR2761,TMU,Ladywell Metrolink Station,E05000829,Gorse Hill,-2.326343,53.47505
1800SJ15941,BCT,Trafford Pk Rd,E05000829,Gorse Hill,-2.316697,53.47258
1800SJ01701,BCT,Trafford Pk Rd,E05000829,Gorse Hill,-2.316607,53.47267
1800SJ01702,BCT,Trafford Pk Rd,E05000829,Gorse Hill,-2.316607,53.47267
1800SJ49021,BCT,Mainwood Road,E05000839,Village,-2.311512,53.39214
1800SJ49111,BCT,Mainwood Road,E05000839,Village,-2.310699,53.39189
1800SJ16951,BCT,Talbot Road,E05000832,Longford,-2.288182,53.45756
1800SJ49131,BCT,Thorley Lane,E05000839,Village,-2.317347,53.39423
1800SJ49321,BCT,Thorley Lane,E05000839,Village,-2.317095,53.39471
1800SJH0412,BCT,Laurel Walk,E05000824,Bucklow-St Martins,-2.434463,53.41502
1800SJH0411,BCT,Laurel Walk,E05000824,Bucklow-St Martins,-2.434463,53.41502
1800SJ02811,BCT,Moorside Road,E05000827,Davyhulme West,-2.386104,53.4527
1800SJ02801,BCT,Moorside Road,E05000828,Flixton,-2.387112,53.45263
1800SJ48391,BCT,Craven Road,E05000822,Broadheath,-2.359555,53.40091
1800SJ47441,BCT,Old Hall Road,E05000835,Sale Moor,-2.302118,53.42022
1800SJ49201,BCT,Park Road,E05000822,Broadheath,-2.343013,53.40499
1800SJ49181,BCT,Park Road,E05000822,Broadheath,-2.343374,53.40499
1800SJ18631,BCT,Manchester Road,E05000822,Broadheath,-2.351117,53.40269
1800SJ08661,BCT,Oak Road,E05000824,Bucklow-St Martins,-2.440566,53.413
1800SJ48051,BCT,Oak Road,E05000824,Bucklow-St Martins,-2.44046,53.41295
1800SJ03931,BCT,Iona Way,E05000826,Davyhulme East,-2.348155,53.46174
1800SJ03941,BCT,Iona Way,E05000826,Davyhulme East,-2.348608,53.46182
1800SJH2231,BCT,Lloyd Street,E05000831,Hale Central,-2.346527,53.38393
1800SJ09631,BCT,The Downs,E05000821,Bowdon,-2.353158,53.384
1800SJH2232,BCT,Lloyd Street,E05000831,Hale Central,-2.346527,53.38393
1800SJ09621,BCT,The Downs,E05000819,Altrincham,-2.352814,53.38427
1800SJH0212,BCT,Lock Lane,E05000824,Bucklow-St Martins,-2.441036,53.41773
1800SJH0222,BCT,Lock Lane,E05000824,Bucklow-St Martins,-2.438711,53.41847
1800SJH0162,BCT,Lock Lane,E05000824,Bucklow-St Martins,-2.430973,53.41952
1800SJH0211,BCT,Lock Lane,E05000824,Bucklow-St Martins,-2.441036,53.41773
1800SJH0221,BCT,Lock Lane,E05000824,Bucklow-St Martins,-2.438711,53.41847
1800SJH0161,BCT,Lock Lane,E05000824,Bucklow-St Martins,-2.431168,53.41945
1800SJH0711,BCT,Lock Lane,E05000824,Bucklow-St Martins,-2.427638,53.42002
1800SJH0712,BCT,Lock Lane,E05000824,Bucklow-St Martins,-2.427638,53.42002
1800SJ01241,BCT,Stretford Road,E05000838,Urmston,-2.342371,53.44673
1800SJ48011,BCT,Wood Lane,E05000824,Bucklow-St Martins,-2.438726,53.41699
1800SJ32341,BCT,Edge Lane,E05000832,Longford,-2.295834,53.44482
1800SJ32331,BCT,Edge Lane,E05000832,Longford,-2.295562,53.44469
1800SJH1861,BCT,Hartley Road,E05000819,Altrincham,-2.358187,53.38852
1800SJH1862,BCT,Hartley Road,E05000819,Altrincham,-2.358187,53.38852
1800SJ00971,BCT,Barton Road,E05000829,Gorse Hill,-2.336636,53.45644
1800SJ00961,BCT,Barton Road,E05000829,Gorse Hill,-2.337183,53.45702
1800SJ00941,BCT,Barton Road,E05000829,Gorse Hill,-2.328355,53.45472
1800SJ00991,BCT,Barton Road,E05000829,Gorse Hill,-2.324647,53.45422
1800SJ00611,BCT,City Road,E05000825,Clifford,-2.263387,53.46646
1800SJ47831,BCT,Broad Road,E05000833,Priory,-2.314718,53.4251
1800SJ04141,BCT,Ashburton Rd W,E05000829,Gorse Hill,-2.329824,53.47128
1800SJ03251,BCT,Ashburton Rd W,E05000829,Gorse Hill,-2.329251,53.47118
1800SJH0351,BCT,Lytham Road,E05000827,Davyhulme West,-2.400465,53.44901
1800SJH0361,BCT,Lytham Road,E05000827,Davyhulme West,-2.39772,53.45015
1800SJH0341,BCT,Lytham Road,E05000827,Davyhulme West,-2.401967,53.44859
1800SJ02761,BCT,Woodsend Cres R,E05000827,Davyhulme West,-2.396576,53.45021
1800SBH0821,BCT,M56 Slip Road,E05000830,Hale Barns,-2.286851,53.37634
1800SJH1381,BCT,M60 Motorway,E05000827,Davyhulme West,-2.367911,53.46811
1800SJH1061,BCT,M60 Motorway,E05000826,Davyhulme East,-2.367974,53.46845
1800SGH3071,BCT,M60 Motorway,E05000836,Stretford,-2.322801,53.43922
1800SGH3061,BCT,M60 Motorway,E05000836,Stretford,-2.326217,53.43909
1800SJ11931,BCT,Old Hall Road,E05000835,Sale Moor,-2.2927,53.42701
1800SJ04491,BCT,Ashton Lane,E05000820,Ashton upon Mersey,-2.325935,53.42582
1800SJ11001,BCT,Thorley Lane,E05000830,Hale Barns,-2.317301,53.39208
1800SJ11011,BCT,Thorley Lane,E05000830,Hale Barns,-2.31709,53.392
1800SJ49191,BCT,Park Road,E05000822,Broadheath,-2.345681,53.4057
1800SJH0492,BCT,Moss Lane,E05000824,Bucklow-St Martins,-2.425077,53.41976
1800SJH0382,BCT,Broadway,E05000824,Bucklow-St Martins,-2.419492,53.42105
1800SJH0381,BCT,Broadway,E05000824,Bucklow-St Martins,-2.419492,53.42105
1800SJ00561,BCT,Sinderland Road,E05000822,Broadheath,-2.353013,53.40101
1800SJH1141,BCT,Atlantic Street,E05000822,Broadheath,-2.352784,53.39875
1800SJH1142,BCT,Atlantic Street,E05000822,Broadheath,-2.352784,53.39875
1800SJR0771,RSE,United Road,E05000829,Gorse Hill,-2.290548,53.46227
1800MNCRUFG0,RSE,Old Trafford Football Stadium,E05000829,Gorse Hill,-2.290428,53.46243
1800MUSTAT1,RSE,Manchester Utd Train Station,E05000829,Gorse Hill,-2.290428,53.46243
1800MUSTAT2,RSE,Manchester Utd Train Station,E05000829,Gorse Hill,-2.29112,53.46225
1800SJ03591,BCT,Carrington Lane,E05000824,Bucklow-St Martins,-2.354128,53.43018
1800SJH0472,BCT,Epping Drive,E05000824,Bucklow-St Martins,-2.353916,53.42646
1800SJ03791,BCT,Firs Road,E05000834,St Mary's,-2.352445,53.42319
1800SJ04531,BCT,Woodhouse Lane,E05000822,Broadheath,-2.350861,53.41175
1800SJ03781,BCT,Firs Road,E05000834,St Mary's,-2.352625,53.42323
1800SJ03601,BCT,Carrington Lane,E05000824,Bucklow-St Martins,-2.352728,53.43013
1800SJ04521,BCT,Woodhouse Lane,E05000822,Broadheath,-2.351265,53.41158
1800SJH0471,BCT,Epping Drive,E05000824,Bucklow-St Martins,-2.353916,53.42646
1800SJH1882,BCT,Queens Road,E05000838,Urmston,-2.352752,53.44574
1800SJH1881,BCT,Queens Road,E05000838,Urmston,-2.352752,53.44574
1800SJ03641,BCT,Manor Avenue,E05000834,St Mary's,-2.353747,53.42415
1800SJH2221,BCT,Manor Road,E05000831,Hale Central,-2.345836,53.38589
1800SJH2222,BCT,Manor Road,E05000831,Hale Central,-2.345836,53.38589
1800SB15551,BCT,Brooklands Rd,E05000839,Village,-2.315241,53.40628
1800SJ02821,BCT,Moorside Road,E05000827,Davyhulme West,-2.379957,53.45243
1800SJ02831,BCT,Moorside Road,E05000828,Flixton,-2.378857,53.45227
1800SJ05921,BCT,Springfield Rd,E05000833,Priory,-2.321777,53.42329
1800SJ47341,BCT,Springfield Rd,E05000833,Priory,-2.321779,53.42346
1800SJH2251,BCT,Market Street,E05000819,Altrincham,-2.353285,53.38658
1800SJH2252,BCT,Market Street,E05000819,Altrincham,-2.353285,53.38658
1800SJ03431,BCT,Washway Road,E05000820,Ashton upon Mersey,-2.326109,53.42502
1800SJ03321,BCT,Washway Road,E05000833,Priory,-2.325912,53.42485
1800SJ03441,BCT,Washway Road,E05000820,Ashton upon Mersey,-2.325975,53.42515
1800SJ03311,BCT,Washway Road,E05000833,Priory,-2.325883,53.42487
1800SJ49011,BCT,Mainwood Road,E05000839,Village,-2.314718,53.39244
1800SJ49121,BCT,Mainwood Road,E05000830,Hale Barns,-2.314326,53.39235
1800SJ47781,BCT,Derbyshire Rd S,E05000823,Brooklands,-2.310192,53.41726
1800SJ47241,BCT,Link Road,E05000835,Sale Moor,-2.30511,53.41986
1800SJ47621,BCT,Derbyshire Rd S,E05000823,Brooklands,-2.310026,53.41727
1800SJ32231,BCT,Kings Road,E05000832,Longford,-2.294831,53.45006
1800SJ32241,BCT,Kings Road,E05000832,Longford,-2.295959,53.44983
1800SJ01781,BCT,Wharfside Way,E05000829,Gorse Hill,-2.290264,53.46486
1800SJ41111,BCT,Grove Lane,E05000830,Hale Barns,-2.318353,53.37983
1800SJ41291,BCT,Grove Lane,E05000830,Hale Barns,-2.318578,53.37986
1800SJH2302,BCT,Meadow Way,E05000830,Hale Barns,-2.318429,53.37999
1800SJH2301,BCT,Meadow Way,E05000830,Hale Barns,-2.318429,53.37999
1800SJ03021,BCT,Broadway,E05000827,Davyhulme West,-2.367065,53.45913
1800SJ03111,BCT,Broadway,E05000827,Davyhulme West,-2.367306,53.45917
1800SJ01691,BCT,Trafford Pk Rd,E05000829,Gorse Hill,-2.318681,53.474
1800SJ01941,BCT,Trafford Pk Rd,E05000829,Gorse Hill,-2.319316,53.47425
1800SJ30161,BCT,Seymour Grove,E05000832,Longford,-2.273422,53.45272
1800SJ30151,BCT,Seymour Grove,E05000825,Clifford,-2.273163,53.45229
1800SJ04111,BCT,Barton Dock Rd,E05000826,Davyhulme East,-2.336571,53.46337
1800SJ04071,BCT,Barton Dock Rd,E05000826,Davyhulme East,-2.340529,53.46488
1800SJ03581,BCT,Carrington Lane,E05000824,Bucklow-St Martins,-2.356717,53.43026
1800SJ03461,BCT,Cross Street,E05000820,Ashton upon Mersey,-2.320667,53.42972
1800SJ40901,BCT,Stockport Road,E05000837,Timperley,-2.324208,53.39468
1800SJ40971,BCT,Stockport Road,E05000839,Village,-2.324251,53.39446
1800SJ14831,BCT,Stockport Road,E05000837,Timperley,-2.319535,53.39721
1800SJ48081,BCT,Warburton Lane,E05000824,Bucklow-St Martins,-2.429544,53.41811
1800SJ48301,BCT,Warburton Lane,E05000824,Bucklow-St Martins,-2.429244,53.41812
1800SJ48161,BCT,Manchester Road,E05000824,Bucklow-St Martins,-2.394508,53.43174
1800SJ48191,BCT,Manchester Road,E05000824,Bucklow-St Martins,-2.394476,53.4316
1800SJ47941,BCT,Barlow Road,E05000822,Broadheath,-2.362484,53.40046
1800SJ48381,BCT,Barlow Road,E05000822,Broadheath,-2.363147,53.40058
1800SJ04431,BCT,Glebelands Road,E05000820,Ashton upon Mersey,-2.326373,53.43192
1800SJ04411,BCT,Glebelands Road,E05000820,Ashton upon Mersey,-2.325651,53.43194
1800SJ00701,BCT,Renton Road,E05000832,Longford,-2.296156,53.45217
1800SJ00651,BCT,Derbyshire Ln W,E05000836,Stretford,-2.322514,53.45098
1800SJ00661,BCT,Derbyshire Ln W,E05000836,Stretford,-2.322952,53.45119
1800SJH0672,BCT,Trafford Pk Rd,E05000829,Gorse Hill,-2.320752,53.47491
1800SJH0671,BCT,Trafford Pk Rd,E05000829,Gorse Hill,-2.320752,53.47491
1800SJ01661,BCT,Trafford Pk Rd,E05000829,Gorse Hill,-2.321268,53.47547
1800SJH0911,BCT,Moorings Road,E05000829,Gorse Hill,-2.3214,53.47493
1800SJ47331,BCT,Sibson Road,E05000833,Priory,-2.324548,53.42355
1800SJ01201,BCT,Crofts Bank Rd,E05000826,Davyhulme East,-2.354158,53.45189
1800SJ01161,BCT,Crofts Bank Rd,E05000826,Davyhulme East,-2.355164,53.45335
1800SJ03531,BCT,Carrington Road,E05000828,Flixton,-2.388107,53.44121
1800SJ03521,BCT,Carrington Road,E05000828,Flixton,-2.388315,53.44096
1800SJ01911,BCT,Village Way,E05000829,Gorse Hill,-2.316282,53.46743
1800SJ01571,BCT,Village Way,E05000829,Gorse Hill,-2.31845,53.46731
1800SJ48591,BCT,Dunham Road,E05000821,Bowdon,-2.437948,53.39978
1800SJ48701,BCT,Dunham Road,E05000821,Bowdon,-2.438039,53.39991
1800SJ49441,BCT,Brookway,E05000822,Broadheath,-2.335571,53.39782
1800SJ48351,BCT,Warburton Lane,E05000821,Bowdon,-2.434484,53.40823
1800SJH0522,BCT,Moss Lane,E05000824,Bucklow-St Martins,-2.424454,53.41914
1800SJ49351,BCT,Brookway,E05000837,Timperley,-2.335796,53.39767
1800SJH1232,BCT,Moss Lane,E05000821,Bowdon,-2.415125,53.40681
1800SJH1231,BCT,Moss Lane,E05000821,Bowdon,-2.41493,53.40684
1800SJH0722,BCT,Moss Lane,E05000821,Bowdon,-2.425228,53.40921
1800SJH1101,BCT,Moss Lane,E05000834,St Mary's,-2.351608,53.41669
1800SJH1091,BCT,Moss Lane,E05000834,St Mary's,-2.343921,53.42059
1800SJH0401,BCT,Moss Lane,E05000824,Bucklow-St Martins,-2.421795,53.41653
1800SJH0402,BCT,Moss Lane,E05000824,Bucklow-St Martins,-2.421795,53.41653
1800SJH0092,BCT,Moss Lane,E05000820,Ashton upon Mersey,-2.33588,53.42557
1800SJH1092,BCT,Moss Lane,E05000834,St Mary's,-2.343921,53.42059
1800SJH1102,BCT,Moss Lane,E05000834,St Mary's,-2.351608,53.41669
1800SJH1082,BCT,Moss Lane,E05000834,St Mary's,-2.340418,53.42276
1800SJH0292,BCT,Moss Lane,E05000834,St Mary's,-2.343894,53.41906
1800SJH0091,BCT,Moss Lane,E05000820,Ashton upon Mersey,-2.33588,53.42557
1800SJH0491,BCT,Moss Lane,E05000824,Bucklow-St Martins,-2.425077,53.41976
1800SJH0291,BCT,Moss Lane,E05000834,St Mary's,-2.343894,53.41906
1800SJH1081,BCT,Moss Lane,E05000834,St Mary's,-2.340418,53.42276
1800SJH2211,BCT,Moss Lane,E05000819,Altrincham,-2.34861,53.38679
1800SJH2212,BCT,Moss Lane,E05000819,Altrincham,-2.34861,53.38679
1800SJH0721,BCT,Moss Lane,E05000821,Bowdon,-2.425242,53.40913
1800SJH0521,BCT,Moss Lane,E05000824,Bucklow-St Martins,-2.42346,53.41813
1800SJ01431,BCT,Barton Road,E05000836,Stretford,-2.315793,53.4483
1800SJ01051,BCT,Barton Road,E05000836,Stretford,-2.316309,53.44877
1800SJH1522,BCT,Moss Park Road,E05000836,Stretford,-2.317342,53.44795
1800SJH1521,BCT,Moss Park Road,E05000836,Stretford,-2.317342,53.44795
1800SJ08511,BCT,Davyhulme Road,E05000836,Stretford,-2.310897,53.45206
1800SJ12341,BCT,Davyhulme Rd E,E05000829,Gorse Hill,-2.308486,53.45181
1800SJ00901,BCT,Derbyshire Lane,E05000836,Stretford,-2.310959,53.4502
1800SJ49341,BCT,Moss Lane,E05000837,Timperley,-2.334254,53.39854
1800SJ49451,BCT,Moss Lane,E05000822,Broadheath,-2.3342,53.39936
1800SJ02421,BCT,Lostock Road,E05000826,Davyhulme East,-2.343811,53.4572
1800SJ02411,BCT,Lostock Road,E05000826,Davyhulme East,-2.343029,53.45739
1800SJH1311,BCT,Higher Road,E05000838,Urmston,-2.340548,53.44849
1800SJH1312,BCT,Higher Road,E05000838,Urmston,-2.340548,53.44849
1800SJH1322,BCT,Bradfield Road,E05000838,Urmston,-2.339921,53.44907
1800SJ15861,BCT,Winchester Road,E05000826,Davyhulme East,-2.341949,53.45231
1800SJH1681,BCT,Moss Vale Road,E05000829,Gorse Hill,-2.338284,53.45532
1800SJH1682,BCT,Moss Vale Road,E05000829,Gorse Hill,-2.338284,53.45532
1800SJ11641,BCT,Winchester Road,E05000829,Gorse Hill,-2.33826,53.45238
1800SJH0392,BCT,Moss View Road,E05000824,Bucklow-St Martins,-2.415673,53.41824
1800SJ49091,BCT,Greystoke Ave,E05000839,Village,-2.306371,53.39442
1800SJ11851,BCT,Ashley Road,E05000831,Hale Central,-2.343032,53.37553
1800SJ11281,BCT,Ashley Road,E05000831,Hale Central,-2.34252,53.3754
1800SJ03221,BCT,Ashburton Rd W,E05000829,Gorse Hill,-2.34301,53.47367
1800SJ04171,BCT,Ashburton Rd W,E05000829,Gorse Hill,-2.343598,53.47375
1800SJE1851,TMU,Navigation Road Metrolink,E05000819,Altrincham,-2.343356,53.39523
1800SJE1841,TMU,Navigation Road Metrolink,E05000819,Altrincham,-2.343522,53.39535
1800SJR4921,RSE,Navigation Road,E05000819,Altrincham,-2.343402,53.39539
1800SJR0331,RSE,Navigation Road,E05000819,Altrincham,-2.343402,53.39539
1800ZZMANAV1,TMU,Navigation Road,E05000819,Altrincham,-2.343522,53.39535
1800ZZMANAV2,TMU,Wellington R,E05000819,Altrincham,-2.343356,53.39523
1800NAVGTNR0,RSE,Navigation Road,E05000819,Altrincham,-2.343356,53.39523
1800SJ49371,BCT,Wellington Road,E05000819,Altrincham,-2.342225,53.39485
1800SJ49421,BCT,Wellington Road,E05000819,Altrincham,-2.342271,53.39499
1800SJH1701,BCT,Moss Lane,E05000837,Timperley,-2.332447,53.39449
1800SJH1702,BCT,Moss Lane,E05000837,Timperley,-2.332447,53.39449
1800SJH2811,BCT,Moss Road,E05000837,Timperley,-2.333212,53.39613
1800SJ47751,BCT,Conway Road,E05000835,Sale Moor,-2.302889,53.41655
1800SJ47731,BCT,Conway Road,E05000823,Brooklands,-2.303162,53.4168
1800SJ14921,BCT,Flixton Road,E05000838,Urmston,-2.360586,53.44815
1800SJ03621,BCT,Manor Avenue,E05000824,Bucklow-St Martins,-2.353605,53.42704
1800SJ03631,BCT,Manor Avenue,E05000834,St Mary's,-2.353551,53.42595
1800SJ47451,BCT,Northenden Road,E05000835,Sale Moor,-2.298895,53.41975
1800SJ08941,BCT,Brooklands Road,E05000823,Brooklands,-2.320141,53.41176
1800SJH0772,BCT,Norris Road,E05000823,Brooklands,-2.319531,53.41267
1800SJ47541,BCT,Northenden Road,E05000835,Sale Moor,-2.289,53.41624
1800SJ47721,BCT,Conway Road,E05000823,Brooklands,-2.302835,53.41533
1800SJ47641,BCT,Derbyshire Rd S,E05000823,Brooklands,-2.307973,53.41426
1800SJ47761,BCT,Conway Road,E05000835,Sale Moor,-2.302607,53.41496
1800SJH2541,BCT,Norris Road,E05000835,Sale Moor,-2.301792,53.41463
1800SJ47081,BCT,Brooklands Road,E05000823,Brooklands,-2.320233,53.41204
1800SJH2542,BCT,Norris Road,E05000835,Sale Moor,-2.301792,53.41463
1800SJ47471,BCT,Northenden Road,E05000835,Sale Moor,-2.2889,53.41698
1800SJH0771,BCT,Norris Road,E05000823,Brooklands,-2.319531,53.41267
1800SJH0791,BCT,Norris Road,E05000823,Brooklands,-2.316986,53.41239
1800SJH0792,BCT,Norris Road,E05000823,Brooklands,-2.316986,53.41239
1800SJ47691,BCT,Norris Road,E05000835,Sale Moor,-2.290655,53.41628
1800SJ47741,BCT,Conway Road,E05000835,Sale Moor,-2.303481,53.41938
1800SJH1992,BCT,Northumberl'D R,E05000825,Clifford,-2.268159,53.46359
1800SJH1991,BCT,Northumberl'D R,E05000825,Clifford,-2.268159,53.46359
1800SJ32311,BCT,Edge Lane,E05000832,Longford,-2.300562,53.44499
1800SJ32321,BCT,Edge Lane,E05000832,Longford,-2.298831,53.44492
1800SJ30251,BCT,Chester Road,E05000825,Clifford,-2.271535,53.46388
1800SJ30261,BCT,Chester Road,E05000825,Clifford,-2.271504,53.46373
1800SJ48341,BCT,Warburton Lane,E05000824,Bucklow-St Martins,-2.43296,53.41073
1800SJ47971,BCT,Warburton Lane,E05000824,Bucklow-St Martins,-2.433246,53.41068
1800SJ48031,BCT,Wood Lane,E05000824,Bucklow-St Martins,-2.438564,53.41437
1800SJH2731,BCT,Wood Lane,E05000824,Bucklow-St Martins,-2.439908,53.41488
1800SJH2732,BCT,Wood Lane,E05000824,Bucklow-St Martins,-2.439908,53.41488
1800SJH2841,BCT,Oakfield Road,E05000819,Altrincham,-2.344895,53.38848
1800SJH2851,BCT,Oakfield Road,E05000819,Altrincham,-2.345035,53.38903
1800SJ32091,BCT,Talbot Road,E05000832,Longford,-2.283408,53.45996
1800SJ32101,BCT,Talbot Road,E05000832,Longford,-2.283707,53.45954
1800SJ18521,BCT,Atlantic St,E05000822,Broadheath,-2.366677,53.3966
1800SJ04271,BCT,Firs Road,E05000834,St Mary's,-2.348129,53.42546
1800SJ04301,BCT,Firs Road,E05000834,St Mary's,-2.347501,53.42593
1800SJ03981,BCT,Trafford Blvd,E05000826,Davyhulme East,-2.355921,53.46638
1800SJ03161,BCT,Trafford Blvd,E05000826,Davyhulme East,-2.356522,53.46626
1800SJ00951,BCT,Barton Road,E05000829,Gorse Hill,-2.333708,53.45562
1800SJ00981,BCT,Barton Road,E05000829,Gorse Hill,-2.331704,53.45546
1800SJH2371,BCT,Dunham Road,E05000819,Altrincham,-2.350417,53.38895
1800SJH2372,BCT,Dunham Road,E05000819,Altrincham,-2.350417,53.38895
1800SJ11051,BCT,Thorley Lane,E05000830,Hale Barns,-2.323357,53.38163
1800SJH2311,BCT,Old Meadow Lane,E05000830,Hale Barns,-2.315104,53.3817
1800SJ10961,BCT,Thorley Lane,E05000831,Hale Central,-2.323701,53.3814
1800ZZMAOLD1,TMU,Edgebaston Dr,E05000832,Longford,-2.285188,53.45579
1800ZZMAOLD3,TMU,Warwick Rd,E05000832,Longford,-2.285056,53.45641
1800ZZMAOLD2,TMU,Elsinore Dr,E05000832,Longford,-2.284439,53.45639
1800SJR0521,RSE,Warwick Road,E05000832,Longford,-2.284784,53.45622
1800SJT0931,TXR,City Rd,E05000825,Clifford,-2.265673,53.46589
1800SJE2011,TMU,Old Trafford Metrolink,E05000832,Longford,-2.285188,53.45579
1800SJE2021,TMU,Old Trafford Metrolink,E05000832,Longford,-2.284439,53.45639
1800SJE2031,TMU,Old Trafford Metrolink,E05000832,Longford,-2.285056,53.45641
1800SJ11141,BCT,Greenway,E05000819,Altrincham,-2.373628,53.39017
1800SJ47841,BCT,Broad Road,E05000833,Priory,-2.313592,53.42538
1800SJH2472,BCT,Oldfield Road,E05000819,Altrincham,-2.370201,53.39027
1800SJH2471,BCT,Oldfield Road,E05000819,Altrincham,-2.370201,53.39027
1800SJ15831,BCT,Seamons Road,E05000819,Altrincham,-2.370402,53.39269
1800SJ48661,BCT,Townfield Road,E05000821,Bowdon,-2.45412,53.40164
1800SJ48631,BCT,Townfield Road,E05000821,Bowdon,-2.454016,53.40173
1800SJ47991,BCT,Wood Lane,E05000824,Bucklow-St Martins,-2.432961,53.41671
1800SJ48071,BCT,Wood Lane,E05000824,Bucklow-St Martins,-2.432108,53.41714
1800SJ30221,BCT,Seymour Grove,E05000832,Longford,-2.27606,53.46025
1800SJ47421,BCT,Northenden Road,E05000835,Sale Moor,-2.310317,53.42201
1800SJ01011,BCT,Derbyshire Lane,E05000836,Stretford,-2.314304,53.45047
1800SJ11841,BCT,Ashley Road,E05000831,Hale Central,-2.343093,53.37191
1800SJ09351,BCT,Riddings Road,E05000837,Timperley,-2.33289,53.40305
1800SJH1612,BCT,Park Road,E05000830,Hale Barns,-2.329107,53.3748
1800SJ11291,BCT,Ashley Road,E05000831,Hale Central,-2.342899,53.37204
1800SJ00841,BCT,Davyhulme Road,E05000829,Gorse Hill,-2.314501,53.45272
1800SJH1611,BCT,Park Road,E05000830,Hale Barns,-2.329107,53.3748
1800SJH2671,BCT,Park Road,E05000837,Timperley,-2.33281,53.4024
1800SJ00911,BCT,Derbyshire Lane,E05000836,Stretford,-2.316427,53.45045
1800SJ49281,BCT,Riddings Road,E05000837,Timperley,-2.332829,53.40295
1800SJ49331,BCT,Moss Lane,E05000837,Timperley,-2.332461,53.40205
1800SJ49461,BCT,Moss Lane,E05000837,Timperley,-2.332701,53.40191
1800SJH2672,BCT,Park Road,E05000837,Timperley,-2.33281,53.4024
1800SJ04131,BCT,Ashburton Rd W,E05000829,Gorse Hill,-2.32642,53.46941
1800SJ03261,BCT,Ashburton Rd W,E05000829,Gorse Hill,-2.326044,53.46952
1800SJH0961,BCT,Park Way,E05000826,Davyhulme East,-2.33668,53.46013
1800SJH0971,BCT,Park Way,E05000829,Gorse Hill,-2.336409,53.46015
1800SJ17351,BCT,Barton Dock Rd,E05000826,Davyhulme East,-2.335783,53.4628
1800SJ04091,BCT,Barton Dock Rd,E05000826,Davyhulme East,-2.339351,53.46451
1800SJ10811,BCT,Ashley Road,E05000821,Bowdon,-2.352418,53.38365
1800SJ17251,BCT,Barton Dock Rd,E05000826,Davyhulme East,-2.343188,53.46587
1800SJ17241,BCT,Barton Dock Rd,E05000826,Davyhulme East,-2.342918,53.46603
1800SJH1501,BCT,Park Way,E05000829,Gorse Hill,-2.32686,53.46787
1800SJH1021,BCT,Park Way,E05000829,Gorse Hill,-2.32709,53.46844
1800SJR4791,RSE,Pomona Strand,E05000825,Clifford,-2.27796,53.46519
1800ZZMAPOM2,TMU,Pomona Strand,E05000825,Clifford,-2.2776,53.46534
1800ZZMAPOM1,TMU,Pomona Strand,E05000825,Clifford,-2.278668,53.46511
1800SJE2061,TMU,Pomona Metrolink,E05000825,Clifford,-2.2776,53.46534
1800SJE2051,TMU,Pomona Metrolink,E05000825,Clifford,-2.278668,53.46511
1800SJ00051,BCT,Chester Road,E05000836,Stretford,-2.312728,53.44098
1800SJ00061,BCT,Chester Road,E05000836,Stretford,-2.312731,53.44138
1800SJ00041,BCT,Chester Road,E05000836,Stretford,-2.312141,53.44101
1800SJ01881,BCT,Westinghouse Rd,E05000829,Gorse Hill,-2.315055,53.46254
1800SJ02161,BCT,Westinghouse Rd,E05000829,Gorse Hill,-2.314575,53.46276
1800SJ02361,BCT,Flixton Road,E05000838,Urmston,-2.36414,53.44818
1800SJ02351,BCT,Flixton Road,E05000838,Urmston,-2.364685,53.44849
1800SJ48401,BCT,Craven Road,E05000822,Broadheath,-2.359194,53.40271
1800SJ47931,BCT,Craven Road,E05000822,Broadheath,-2.359203,53.40199
1800SJH2631,BCT,Priory Road,E05000833,Priory,-2.309464,53.42682
1800SJ01671,BCT,Trafford Pk Rd,E05000829,Gorse Hill,-2.324056,53.47747
1800SJ15681,BCT,Traff Wharf Rd,E05000829,Gorse Hill,-2.296722,53.46851
1800SJ15671,BCT,Traff Wharf Rd,E05000829,Gorse Hill,-2.295996,53.46819
1800SJ41451,BCT,Hale Road,E05000831,Hale Central,-2.339971,53.38
1800SJ02181,BCT,Church Road,E05000838,Urmston,-2.353945,53.44625
1800SJ15882,BCT,Church Road,E05000838,Urmston,-2.354835,53.44635
1800SJ15881,BCT,Church Road,E05000838,Urmston,-2.354835,53.44635
1800SJ01131,BCT,Stretford Road,E05000838,Urmston,-2.352331,53.44588
1800SJ01221,BCT,Stretford Road,E05000838,Urmston,-2.352394,53.44619
1800SJ00431,BCT,Chester Road,E05000832,Longford,-2.305291,53.44722
1800SJ03351,BCT,Washway Road,E05000823,Brooklands,-2.334998,53.4167
1800SJ03391,BCT,Washway Road,E05000834,St Mary's,-2.335015,53.41697
1800SJ48521,BCT,Manchester Road,E05000822,Broadheath,-2.350027,53.40371
1800SJ48461,BCT,Manchester Road,E05000822,Broadheath,-2.350955,53.40308
1800SJ11901,BCT,Hale Road,E05000821,Bowdon,-2.348148,53.38167
1800SJ11421,BCT,High Elm Road,E05000830,Hale Barns,-2.305719,53.36422
1800SJ11741,BCT,Irlam Road,E05000828,Flixton,-2.390609,53.44811
1800SJ03081,BCT,Woodhouse Road,E05000827,Davyhulme West,-2.381649,53.45974
1800SJ03061,BCT,Woodhouse Road,E05000827,Davyhulme West,-2.381633,53.45964
1800SJH0421,BCT,Redbrook Road,E05000824,Bucklow-St Martins,-2.432469,53.41418
1800SJ47981,BCT,Warburton Lane,E05000824,Bucklow-St Martins,-2.430714,53.41473
1800SJ48311,BCT,Warburton Lane,E05000824,Bucklow-St Martins,-2.430607,53.41453
1800SJH0422,BCT,Redbrook Road,E05000824,Bucklow-St Martins,-2.432469,53.41418
1800SJ01901,BCT,Mosley Road,E05000829,Gorse Hill,-2.317229,53.46516
1800SJH2281,BCT,Central Way,E05000819,Altrincham,-2.352334,53.38613
1800SJH2282,BCT,Central Way,E05000819,Altrincham,-2.352334,53.38613
1800SJH2061,BCT,Regent Road,E05000819,Altrincham,-2.356494,53.38747
1800SJH2241,BCT,Regent Road,E05000819,Altrincham,-2.351456,53.38549
1800SJH2242,BCT,Regent Road,E05000819,Altrincham,-2.351456,53.38549
1800SJH2062,BCT,Regent Road,E05000819,Altrincham,-2.356494,53.38747
1800SJH1371,BCT,Renton Road,E05000832,Longford,-2.296215,53.45207
1800SJ00711,BCT,Wardle Close,E05000832,Longford,-2.299021,53.45066
1800SJ14991,BCT,Lytham Road,E05000827,Davyhulme West,-2.397539,53.45015
1800SJ03241,BCT,Ashburton Rd W,E05000829,Gorse Hill,-2.33182,53.47222
1800SJH0851,BCT,Stamford Road,E05000821,Bowdon,-2.362231,53.37786
1800SJH0852,BCT,Stamford Road,E05000821,Bowdon,-2.362231,53.37786
1800SJ04151,BCT,Ashburton Rd W,E05000829,Gorse Hill,-2.332347,53.47228
1800SJH1751,BCT,Richmond Road,E05000821,Bowdon,-2.36253,53.37588
1800SJ04001,BCT,Barton Road,E05000826,Davyhulme East,-2.357791,53.46137
1800SJ01021,BCT,Barton Road,E05000836,Stretford,-2.313806,53.44632
1800SJ01311,BCT,Urmston Lane,E05000836,Stretford,-2.315712,53.44548
1800SJ01041,BCT,Barton Road,E05000836,Stretford,-2.314061,53.44623
1800SJ01321,BCT,Urmston Lane,E05000836,Stretford,-2.314613,53.44551
1800SJ02211,BCT,Church Road,E05000828,Flixton,-2.366672,53.44328
1800SJ02201,BCT,Church Road,E05000828,Flixton,-2.365727,53.44368
1800SJ15011,BCT,Lytham Road,E05000827,Davyhulme West,-2.401952,53.44868
1800SJ02741,BCT,Woodsend Cres R,E05000827,Davyhulme West,-2.396967,53.44853
1800SJ02751,BCT,Woodsend Cres R,E05000827,Davyhulme West,-2.39712,53.44883
1800SJ15001,BCT,Lytham Road,E05000827,Davyhulme West,-2.400809,53.44881
1800SJ48731,BCT,Dunham Road,E05000821,Bowdon,-2.413976,53.39219
1800SJ48561,BCT,Paddock Lane,E05000821,Bowdon,-2.414141,53.39215
1800SJ02971,BCT,Moorside Road,E05000838,Urmston,-2.3599579999999998,53.45222
1800SJ02381,BCT,Flixton Road,E05000838,Urmston,-2.356914,53.44836
1800SJ02981,BCT,Moorside Road,E05000826,Davyhulme East,-2.358679,53.4523
1800SJ02371,BCT,Flixton Road,E05000838,Urmston,-2.358102,53.4482
1800SJ41401,BCT,Hale Road,E05000830,Hale Barns,-2.309228,53.3674
1800SJ41381,BCT,Hale Road,E05000830,Hale Barns,-2.308189,53.36718
1800SJ47351,BCT,Ashfield Road,E05000833,Priory,-2.32168,53.42638
1800SJ10841,BCT,Lloyd Street,E05000821,Bowdon,-2.349852,53.38422
1800SJ10831,BCT,Lloyd Street,E05000819,Altrincham,-2.35029,53.38443
1800SJH1561,BCT,Sainsbury Car P,E05000819,Altrincham,-2.349874,53.38504
1800SJH1562,BCT,Sainsbury Car P,E05000819,Altrincham,-2.349874,53.38504
1800ZZMASLE0,TMU,Northenden Road,E05000833,Priory,-2.318807,53.42447
1800SJR0391,RSE,School Road,E05000833,Priory,-2.31912,53.42413
1800SJT0921,TXR,Hereford St,E05000833,Priory,-2.324415,53.42382
1800SJT0881,TXR,Marsland Rd,E05000823,Brooklands,-2.32053,53.41757
1800SJT0891,TXR,School Lane,E05000833,Priory,-2.324292,53.42542
1800SJT0901,TXR,Washway Rd,E05000820,Ashton upon Mersey,-2.325975,53.42511
1800SJT0911,TXR,Wynnstay Rd,E05000833,Priory,-2.322533,53.42569
1800SJ47051,BCT,Marsland Road,E05000833,Priory,-2.327741,53.41802
1800SJ47021,BCT,Marsland Road,E05000823,Brooklands,-2.327544,53.41782
1800SJH2011,BCT,Chapel Road,E05000833,Priory,-2.319985,53.42703
1800SJH2012,BCT,Chapel Road,E05000833,Priory,-2.319985,53.42703
1800SJ47211,BCT,Marsland Road,E05000833,Priory,-2.315611,53.41766
1800SJ47591,BCT,Marsland Road,E05000823,Brooklands,-2.314587,53.41752
1800SJ47661,BCT,Norris Road,E05000823,Brooklands,-2.304454,53.41449
1800SJ00511,BCT,Norris Road,E05000823,Brooklands,-2.303807,53.41445
1800SJE1961,TMU,Sale Metrolink,E05000833,Priory,-2.318807,53.42447
1800SJ47561,BCT,Marsland Road,E05000823,Brooklands,-2.30431,53.41952
1800SJ47301,BCT,School Road,E05000833,Priory,-2.31944,53.42462
1800SJ47391,BCT,Broad Road,E05000833,Priory,-2.317635,53.42472
1800SJH2702,BCT,School Road,E05000833,Priory,-2.318627,53.42458
1800SJH2701,BCT,School Road,E05000833,Priory,-2.318627,53.42458
1800SJ47401,BCT,Broad Road,E05000833,Priory,-2.318296,53.42466
1800ZZMASWP1,TMU,Rifle Road,E05000835,Sale Moor,-2.290123,53.4286
1800ZZMASWP2,TMU,Rifle Road,E05000835,Sale Moor,-2.291579,53.42805
1800SJ01301,BCT,Urmston Lane,E05000836,Stretford,-2.319548,53.44499
1800SJ01291,BCT,Urmston Lane,E05000836,Stretford,-2.31988,53.44507
1800SJH1891,BCT,Sandy Lane,E05000836,Stretford,-2.320027,53.44467
1800SJH1892,BCT,Sandy Lane,E05000836,Stretford,-2.320027,53.44467
1800SJ48601,BCT,Paddock Lane,E05000821,Bowdon,-2.443044,53.39962
1800SJ48691,BCT,Paddock Lane,E05000821,Bowdon,-2.443587,53.39975
1800SJ01801,BCT,John Gilbert Wy,E05000829,Gorse Hill,-2.298958,53.46515
1800SJ09421,BCT,Springfield Rd,E05000833,Priory,-2.320778,53.42443
1800SJH1341,BCT,Victoria Road,E05000836,Stretford,-2.309749,53.44738
1800SJH1342,BCT,Victoria Road,E05000836,Stretford,-2.309749,53.44738
1800SJ17611,BCT,Stokoe Avenue,E05000819,Altrincham,-2.372453,53.39331
1800SJH1672,BCT,Stokoe Avenue,E05000819,Altrincham,-2.372392,53.39328
1800SJH2151,BCT,Seamons Road,E05000819,Altrincham,-2.368037,53.39213
1800SJH2152,BCT,Seamons Road,E05000819,Altrincham,-2.368037,53.39213
1800SJ01791,BCT,Village Way,E05000829,Gorse Hill,-2.308748,53.46714
1800SJ02051,BCT,Village Way,E05000829,Gorse Hill,-2.307619,53.46727
1800SJ01831,BCT,Westinghouse Rd,E05000829,Gorse Hill,-2.309482,53.46245
1800SJ03091,BCT,Woodhouse Road,E05000827,Davyhulme West,-2.377482,53.46022
1800SJ03051,BCT,Woodhouse Road,E05000827,Davyhulme West,-2.378204,53.46017
1800SJ01061,BCT,Barton Road,E05000836,Stretford,-2.318217,53.45029
1800SJ08901,BCT,Barton Road,E05000836,Stretford,-2.3179,53.4502
1800SJ32551,BCT,Kings Road,E05000832,Longford,-2.274594,53.45474
1800SJ32041,BCT,Kings Road,E05000825,Clifford,-2.272233,53.45523
1800SJ08101,BCT,Aimson Rd East,E05000839,Village,-2.311724,53.39645
1800SJH0041,BCT,Shaftesbury Ave,E05000839,Village,-2.32769,53.39185
1800SJH2171,BCT,Shaftesbury Ave,E05000839,Village,-2.311627,53.3975
1800SJH1071,BCT,Shaftesbury Ave,E05000839,Village,-2.314618,53.39325
1800SJH0071,BCT,Shaftesbury Ave,E05000839,Village,-2.314617,53.39314
1800SJH2181,BCT,Shaftesbury Ave,E05000839,Village,-2.311551,53.39737
1800SJH0051,BCT,Shaftesbury Ave,E05000839,Village,-2.327538,53.39167
1800SJ47501,BCT,Stockport Road,E05000839,Village,-2.328234,53.39217
1800SJ08102,BCT,Aimson Rd East,E05000839,Village,-2.311724,53.39645
1800SJH2261,BCT,Shaws Road,E05000819,Altrincham,-2.351729,53.3876
1800SJH2262,BCT,Shaws Road,E05000819,Altrincham,-2.351729,53.3876
1800SJH2272,BCT,Central Way,E05000819,Altrincham,-2.351169,53.38717
1800SJH2271,BCT,Central Way,E05000819,Altrincham,-2.351169,53.38717
1800SJH2682,BCT,Shay Lane,E05000830,Hale Barns,-2.299492,53.37422
1800SJH2681,BCT,Shay Lane,E05000830,Hale Barns,-2.299492,53.37422
1800SJ48231,BCT,Manchester Road,E05000824,Bucklow-St Martins,-2.413859,53.42821
1800SJ48121,BCT,Manchester Road,E05000824,Bucklow-St Martins,-2.413536,53.429
1800SJ47711,BCT,Norris Road,E05000835,Sale Moor,-2.298439,53.414790000000004
1800SJ49271,BCT,Riddings Road,E05000837,Timperley,-2.331368,53.40456
1800SJ04021,BCT,Canterbury Road,E05000826,Davyhulme East,-2.34569,53.45488
1800SJ49241,BCT,Woodhouse La Ea,E05000837,Timperley,-2.322888,53.407
1800SJ09391,BCT,Woodhouse La Ea,E05000837,Timperley,-2.322798,53.40708
1800SJ47651,BCT,North Parade,E05000823,Brooklands,-2.308254,53.41355
1800SJ47671,BCT,Norris Road,E05000835,Sale Moor,-2.297777,53.41493
1800SJH2581,BCT,Sibson Road,E05000833,Priory,-2.32568,53.42402
1800SJH2582,BCT,Sibson Road,E05000833,Priory,-2.32568,53.42402
1800SJ04291,BCT,Firs Road,E05000834,St Mary's,-2.350453,53.42439
1800SJ04281,BCT,Firs Road,E05000834,St Mary's,-2.351231,53.42385
1800SJH1221,BCT,Moss Lane,E05000821,Bowdon,-2.409908,53.40548
1800SJH1182,BCT,Sinderland Lane,E05000821,Bowdon,-2.385936,53.40601
1800SJH1162,BCT,Sinderland Lane,E05000822,Broadheath,-2.368106,53.40535
1800SJH1222,BCT,Moss Lane,E05000821,Bowdon,-2.409848,53.40553
1800SJH1172,BCT,Sinderland Lane,E05000821,Bowdon,-2.379793,53.40873
1800SJH1181,BCT,Sinderland Lane,E05000821,Bowdon,-2.387671,53.40656
1800SJH1161,BCT,Sinderland Lane,E05000822,Broadheath,-2.365592,53.40512
1800SJH1171,BCT,Sinderland Lane,E05000821,Bowdon,-2.379793,53.4087
1800SJH1192,BCT,Sinderland Lane,E05000821,Bowdon,-2.403689,53.40631
1800SJH1191,BCT,Sinderland Lane,E05000821,Bowdon,-2.403689,53.40631
1800SJH1202,BCT,Sinderland Lane,E05000821,Bowdon,-2.405367,53.40882
1800SJH1211,BCT,Sinderland Lane,E05000821,Bowdon,-2.408,53.40882
1800SJH1201,BCT,Sinderland Lane,E05000821,Bowdon,-2.405367,53.40882
1800SJH1212,BCT,Sinderland Lane,E05000821,Bowdon,-2.408,53.40882
1800SJ48531,BCT,Manchester Road,E05000822,Broadheath,-2.352114,53.40147
1800SJ47961,BCT,Barlow Road,E05000822,Broadheath,-2.363706,53.40441
1800SJ48361,BCT,Barlow Road,E05000822,Broadheath,-2.363584,53.40427
1800SJ13981,BCT,Traff Wharf Rd,E05000829,Gorse Hill,-2.290187,53.4668
1800SJ17661,BCT,Sir A Ferguson,E05000829,Gorse Hill,-2.289111,53.46583
1800SJ17671,BCT,Sir A Ferguson,E05000829,Gorse Hill,-2.289471,53.46558
1800SJ15591,BCT,Traff Wharf Rd,E05000829,Gorse Hill,-2.290035,53.46662
1800SJ01751,BCT,Wharfside Way,E05000829,Gorse Hill,-2.290553,53.46521
1800SJH1971,BCT,Sir M Busby Way,E05000829,Gorse Hill,-2.289229,53.46324
1800SJH1972,BCT,Sir M Busby Way,E05000829,Gorse Hill,-2.289229,53.46324
1800SJH1962,BCT,Sir M Busby Way,E05000832,Longford,-2.288117,53.46145
1800SJH1961,BCT,Sir M Busby Way,E05000832,Longford,-2.288117,53.46145
1800SJ15101,BCT,Kings Road,E05000832,Longford,-2.27646,53.45457
1800SJH1391,BCT,M63 Slip Road,E05000826,Davyhulme East,-2.340405,53.45884
1800SJH1401,BCT,M63 Slip Road,E05000826,Davyhulme East,-2.339412,53.45899
1800SJ02231,BCT,Church Road,E05000828,Flixton,-2.369812,53.44242
1800SJ02221,BCT,Church Road,E05000828,Flixton,-2.36978,53.4423
1800SJ00891,BCT,Moss Road,E05000836,Stretford,-2.310395,53.45131
1800SJH1431,BCT,South Downs Rd,E05000821,Bowdon,-2.349865,53.37291
1800SJH1432,BCT,South Downs Rd,E05000821,Bowdon,-2.349865,53.37291
1800SJH1422,BCT,South Downs Rd,E05000821,Bowdon,-2.353048,53.37438
1800SJH1421,BCT,South Downs Rd,E05000821,Bowdon,-2.353048,53.37438
1800SJH2571,BCT,School Road,E05000833,Priory,-2.320283,53.42474
1800SJ41421,BCT,Hale Road,E05000830,Hale Barns,-2.318697,53.37165
1800SJ41411,BCT,Hale Road,E05000830,Hale Barns,-2.318276,53.37164
1800SJH2831,BCT,School Grounds,E05000830,Hale Barns,-2.319886,53.37177
1800SJH2821,BCT,School Grounds,E05000830,Hale Barns,-2.31951,53.37177
1800SJH2072,BCT,Bradfield Road,E05000838,Urmston,-2.337496,53.44898
1800SJH2071,BCT,Bradfield Road,E05000838,Urmston,-2.336712,53.4489
1800SJH1321,BCT,Bradfield Road,E05000838,Urmston,-2.339092,53.44903
1800SJ11061,BCT,Grove Lane,E05000831,Hale Central,-2.32637,53.38052
1800SJ10951,BCT,Grove Lane,E05000831,Hale Central,-2.326973,53.38071
1800SJ02701,BCT,Irlam Rd,E05000828,Flixton,-2.392596,53.44803
1800SJ49481,BCT,Brooklands Road,E05000839,Village,-2.318199,53.40958
1800SJ09831,BCT,Delamere Road,E05000821,Bowdon,-2.355359,53.38294
1800SJ32011,BCT,Kings Road,E05000825,Clifford,-2.266636,53.45611
1800SJ09841,BCT,Delamere Road,E05000821,Bowdon,-2.355838,53.38272
1800SJ32001,BCT,Kings Road,E05000825,Clifford,-2.26662,53.45599
1800SJ10751,BCT,Vicarage Lane,E05000821,Bowdon,-2.361683,53.37164
1800SJ10771,BCT,Vicarage Lane,E05000821,Bowdon,-2.361624,53.37175
1800SJ09611,BCT,Cavendish Road,E05000821,Bowdon,-2.360353,53.38149
1800SJ09601,BCT,Cavendish Road,E05000821,Bowdon,-2.360474,53.38159
1800SJH1592,BCT,St Margarets Rd,E05000821,Bowdon,-2.361482,53.38171
1800SJH1591,BCT,St Margarets Rd,E05000821,Bowdon,-2.361482,53.38171
1800SJ01841,BCT,Church Road,E05000828,Flixton,-2.382426,53.44228
1800SJ01561,BCT,Church Road,E05000828,Flixton,-2.380196,53.44201
1800SJ01391,BCT,Barton Dock Rd,E05000829,Gorse Hill,-2.329336,53.46085
1800SJ01381,BCT,Barton Dock Rd,E05000829,Gorse Hill,-2.33202,53.46118
1800SJH1732,BCT,Orchard Road,E05000819,Altrincham,-2.342915,53.39095
1800SJH1731,BCT,Orchard Road,E05000819,Altrincham,-2.34253,53.38975
1800SJ18571,BCT,Bent Lane,E05000821,Bowdon,-2.445829,53.39841
1800SJH1981,BCT,Park Road,E05000837,Timperley,-2.334619,53.40294
1800SJH1982,BCT,Park Road,E05000837,Timperley,-2.334619,53.40294
1800SJ18661,BCT,Manchester Rd,E05000822,Broadheath,-2.349895,53.40417
1800SJH2961,BCT,Stamford Brook,E05000822,Broadheath,-2.354089,53.40554
1800SJH2951,BCT,Stamford Brook,E05000822,Broadheath,-2.354539,53.40548
1800SJ17831,BCT,Stamford Street,E05000819,Altrincham,-2.347278,53.3894
1800SJH2291,BCT,Stamford New Rd,E05000819,Altrincham,-2.3508269999999998,53.38575
1800SJH2801,BCT,Stamford New Rd,E05000819,Altrincham,-2.349241,53.38666
1800SJH2292,BCT,Stamford New Rd,E05000819,Altrincham,-2.350243,53.38602
1800SJH1742,BCT,Queens Road,E05000831,Hale Central,-2.339613,53.38222
1800SJH1741,BCT,Queens Road,E05000831,Hale Central,-2.339613,53.38222
1800SJ10801,BCT,Ashley Road,E05000821,Bowdon,-2.352053,53.37945
1800SJH0611,BCT,Stamford Road,E05000824,Bucklow-St Martins,-2.398405,53.43325
1800SJH0841,BCT,Stamford Road,E05000821,Bowdon,-2.352919,53.37879
1800SJH0612,BCT,Stamford Road,E05000824,Bucklow-St Martins,-2.398405,53.43325
1800SJH0842,BCT,Stamford Road,E05000821,Bowdon,-2.352919,53.37879
1800SJ10621,BCT,Ashley Road,E05000821,Bowdon,-2.351871,53.37933
1800SJ17961,BCT,Victoria Street,E05000819,Altrincham,-2.348752,53.38939
1800SJ11251,BCT,Barrington Road,E05000819,Altrincham,-2.346997,53.38991
1800SJ17921,BCT,Stamford New Rd,E05000819,Altrincham,-2.346853,53.38881
1800SJ17881,BCT,Stamford Street,E05000819,Altrincham,-2.348822,53.38877
1800SJ17841,BCT,Stamford New Rd,E05000819,Altrincham,-2.347421,53.38844
1800SJ17891,BCT,Stamford Street,E05000819,Altrincham,-2.348612,53.38885
1800SJ03401,BCT,Washway Road,E05000834,St Mary's,-2.333133,53.41868
1800SJ11241,BCT,Stamford New Rd,E05000819,Altrincham,-2.346674,53.38902
1800SJ09911,BCT,Stockport Road,E05000839,Village,-2.311748,53.39969
1800SJ09901,BCT,Stockport Road,E05000839,Village,-2.311342,53.39967
1800SJH2082,BCT,Wood Lane,E05000839,Village,-2.329428,53.39104
1800SJH2081,BCT,Wood Lane,E05000839,Village,-2.329428,53.39104
1800SJH2131,BCT,Stockport Road,E05000837,Timperley,-2.340527,53.39128
1800SJH2121,BCT,Stockport Road,E05000819,Altrincham,-2.341443,53.39113
1800SJH1671,BCT,Stokoe Avenue,E05000819,Altrincham,-2.37349,53.39322
1800SJ40921,BCT,Stockport Road,E05000839,Village,-2.317419,53.39779
1800SJ40951,BCT,Stockport Road,E05000839,Village,-2.317643,53.39758
1800ZZMASFD2,TMU,Edge Lane,E05000832,Longford,-2.304392,53.44574
1800ZZMASFD3,TMU,Edge Lane,E05000832,Longford,-2.304045,53.44567
1800ZZMASFD1,TMU,Edge Lane,E05000832,Longford,-2.304303,53.44597
1800ZZMASFD4,TMU,Edge Lane,E05000832,Longford,-2.303246,53.44556
1800SJR0381,RSE,Edge Lane,E05000832,Longford,-2.303777,53.44614
1800SJ00801,BCT,Kingsway,E05000836,Stretford,-2.310507,53.44612
1800SJ00011,BCT,Chester Road,E05000836,Stretford,-2.307849,53.44499
1800SJ00821,BCT,Kingsway,E05000836,Stretford,-2.310765,53.4463
1800SJT0941,TXR,Kinsway,E05000836,Stretford,-2.309545,53.44621
1800SJ00071,BCT,Chester Road,E05000836,Stretford,-2.309425,53.44425
1800SJ00791,BCT,Kingsway,E05000836,Stretford,-2.310162,53.4462
1800SJ00811,BCT,Kingsway,E05000836,Stretford,-2.31105,53.44622
1800SJ00021,BCT,Chester Road,E05000836,Stretford,-2.308104,53.44477
1800SJE1941,TMU,Stretford Metrolink,E05000832,Longford,-2.304045,53.44567
1800SJE1951,TMU,Stretford Metrolink,E05000832,Longford,-2.303246,53.44556
1800SJE1931,TMU,Stretford Metrolink,E05000832,Longford,-2.304392,53.44574
1800SJE1921,TMU,Stretford Metrolink,E05000832,Longford,-2.304303,53.44597
1800SJ11731,BCT,Station Appr'Ch,E05000832,Longford,-2.304064,53.44621
1800SJ32301,BCT,Edge Lane,E05000832,Longford,-2.303623,53.44562
1800SJ00081,BCT,Chester Road,E05000836,Stretford,-2.306507,53.44669
1800SJ00091,BCT,Chester Road,E05000836,Stretford,-2.306297,53.44688
1800SJH1011,BCT,Henrietta St,E05000825,Clifford,-2.265888,53.46404
1800SJH1551,BCT,Cornbrook St,E05000825,Clifford,-2.262804,53.46463
1800SJH1552,BCT,Cornbrook St,E05000825,Clifford,-2.262804,53.46463
1800SJ02171,BCT,Queens Road,E05000838,Urmston,-2.352662,53.4458
1800SJH1012,BCT,Henrietta St,E05000825,Clifford,-2.265888,53.46404
1800SJ32291,BCT,Edge Lane,E05000836,Stretford,-2.305807,53.44569
1800SJ11732,BCT,Station Appr'Ch,E05000832,Longford,-2.304064,53.44621
1800SJ08621,BCT,Northenden Road,E05000835,Sale Moor,-2.296742,53.41964
1800SJH1691,BCT,Wood Road,E05000839,Village,-2.323009,53.40917
1800SJH1692,BCT,Wood Road,E05000839,Village,-2.323009,53.40917
1800SJ30081,BCT,Upp Chorlton Rd,E05000825,Clifford,-2.265152,53.45471
1800SJ09361,BCT,Riddings Road,E05000837,Timperley,-2.330758,53.40546
1800SJ17621,BCT,Stokoe Avenue,E05000819,Altrincham,-2.374617,53.39318
1800SJ15321,BCT,Warwick Road,E05000832,Longford,-2.286061,53.45805
1800SJ03661,BCT,Manor Avenue,E05000834,St Mary's,-2.353215,53.42173
1800SJT0951,TXR,Moorside Rd,E05000827,Davyhulme West,-2.37059,53.45232
1800SJ03211,BCT,Ashburton Rd W,E05000826,Davyhulme East,-2.348667,53.47089
1800SJ04181,BCT,Ashburton Rd W,E05000826,Davyhulme East,-2.348009,53.47154
1800SJ11121,BCT,Walton Road,E05000819,Altrincham,-2.368967,53.39193
1800SJH1661,BCT,Taylor Road,E05000819,Altrincham,-2.374304,53.3918
1800SJH1662,BCT,Taylor Road,E05000819,Altrincham,-2.374304,53.3918
1800SJ00131,BCT,Chester Road,E05000829,Gorse Hill,-2.298028,53.45505
1800SJ00141,BCT,Chester Road,E05000829,Gorse Hill,-2.298148,53.45494
1800SJ00411,BCT,Chester Road,E05000829,Gorse Hill,-2.298698,53.45399
1800SJH2901,BCT,Temple Rd,E05000835,Sale Moor,-2.305058,53.42101
1800SJH1301,BCT,Temple Road,E05000835,Sale Moor,-2.302702,53.42411
1800SJ47881,BCT,Dane Road,E05000833,Priory,-2.300927,53.42636
1800SJH1302,BCT,Temple Road,E05000835,Sale Moor,-2.302702,53.42411
1800SJ47431,BCT,Northenden Road,E05000835,Sale Moor,-2.305626,53.42054
1800SJ47801,BCT,Dane Road,E05000833,Priory,-2.30094,53.42597
1800SJ01931,BCT,Moorings Road,E05000829,Gorse Hill,-2.321519,53.4748
1800SJH0811,BCT,Tenax Road,E05000829,Gorse Hill,-2.32343,53.47447
1800SJH0812,BCT,Tenax Road,E05000829,Gorse Hill,-2.32343,53.47447
1800SJ47871,BCT,Dane Road,E05000833,Priory,-2.304281,53.42819
1800SJ47901,BCT,Dane Road,E05000833,Priory,-2.304326,53.4281
1800SJ48061,BCT,Oak Road,E05000824,Bucklow-St Martins,-2.436669,53.4115
1800SJ17771,BCT,Chester Road,E05000829,Gorse Hill,-2.290532,53.45994
1800SJ00381,BCT,Chester Road,E05000829,Gorse Hill,-2.290892,53.45975
1800SJ01491,BCT,Westinghouse Rd,E05000829,Gorse Hill,-2.320952,53.46354
1800SJ01521,BCT,Westinghouse Rd,E05000829,Gorse Hill,-2.32053,53.46346
1800SJ15261,BCT,Broadway,E05000827,Davyhulme West,-2.371415,53.45881
1800SJ03761,BCT,Firsway,E05000834,St Mary's,-2.357424,53.4212
1800SJ03811,BCT,Firsway,E05000834,St Mary's,-2.357948,53.42096
1800SJ03881,BCT,Northenden Road,E05000835,Sale Moor,-2.290536,53.41868
1800SJ10821,BCT,Railway Street,E05000819,Altrincham,-2.351977,53.38482
1800SJ48481,BCT,Washway Road,E05000822,Broadheath,-2.344324,53.40897
1800SJ48501,BCT,Washway Road,E05000823,Brooklands,-2.345279,53.40794
1800SJ01371,BCT,Barton Dock Rd,E05000829,Gorse Hill,-2.324335,53.45882
1800SJ01411,BCT,Barton Dock Rd,E05000829,Gorse Hill,-2.323007,53.45837
1800SJH2501,BCT,Internal Road,E05000826,Davyhulme East,-2.344972,53.46295
1800SJH2502,BCT,Internal Road,E05000826,Davyhulme East,-2.344972,53.46295
1800SJ09691,BCT,Grange Avenue,E05000839,Village,-2.319421,53.40199
1800SJ09411,BCT,Grange Avenue,E05000839,Village,-2.319209,53.40185
1800SJ47611,BCT,Marsland Road,E05000823,Brooklands,-2.320786,53.41756
1800SJ47201,BCT,Marsland Road,E05000833,Priory,-2.319689,53.41766
1800SJ01001,BCT,Barton Road,E05000829,Gorse Hill,-2.319824,53.45173
1800SJ00921,BCT,Barton Road,E05000829,Gorse Hill,-2.319716,53.45143
1800SJ47221,BCT,Marsland Road,E05000833,Priory,-2.310857,53.4177
1800SJ47581,BCT,Marsland Road,E05000823,Brooklands,-2.311202,53.41754
1800SJ48441,BCT,Manchester Road,E05000819,Altrincham,-2.352273,53.39703
1800SJ40761,BCT,Stockport Road,E05000819,Altrincham,-2.336034,53.39166
1800SJ41021,BCT,Stockport Road,E05000837,Timperley,-2.336305,53.39174
1800SJH2491,BCT,Internal Road,E05000826,Davyhulme East,-2.349623,53.46447
1800SJH2492,BCT,Internal Road,E05000826,Davyhulme East,-2.349623,53.46447
1800SJ32191,BCT,Kings Road,E05000832,Longford,-2.287874,53.45219
1800SJ10661,BCT,Park Road,E05000821,Bowdon,-2.367836,53.37764
1800SJ48001,BCT,Wood Lane,E05000824,Bucklow-St Martins,-2.435275,53.41644
1800SJ04081,BCT,Barton Dock Rd,E05000826,Davyhulme East,-2.346787,53.46755
1800SJ04101,BCT,Barton Dock Rd,E05000826,Davyhulme East,-2.34638,53.46759
1800SJ11081,BCT,Church Street,E05000819,Altrincham,-2.352235,53.39241
1800SJH0281,BCT,Third Avenue,E05000829,Gorse Hill,-2.310224,53.463
1800SJH0282,BCT,Third Avenue,E05000829,Gorse Hill,-2.310224,53.463
1800SJ01861,BCT,Westinghouse Rd,E05000829,Gorse Hill,-2.311275,53.46248
1800SJ02151,BCT,Westinghouse Rd,E05000829,Gorse Hill,-2.311457,53.4627
1800SJ01721,BCT,Trafford Pk Rd,E05000829,Gorse Hill,-2.310613,53.46886
1800SJH0182,BCT,Thirlmere Road,E05000824,Bucklow-St Martins,-2.433603,53.42062
1800SJH0181,BCT,Thirlmere Road,E05000824,Bucklow-St Martins,-2.433603,53.42062
1800SJ03751,BCT,Firsway,E05000834,St Mary's,-2.359883,53.42021
1800SJ03821,BCT,Firsway,E05000834,St Mary's,-2.360436,53.41971
1800SJ00121,BCT,Chester Road,E05000829,Gorse Hill,-2.300017,53.45303
1800ZZMATIM0,TMU,Park Road,E05000837,Timperley,-2.338552,53.4039
1800SJR0341,RSE,Park Rd  B5165,E05000822,Broadheath,-2.338525,53.40424
1800SJ11021,BCT,Thorley Lane,E05000830,Hale Barns,-2.31646,53.39014
1800SJ10991,BCT,Thorley Lane,E05000830,Hale Barns,-2.316659,53.39062
1800SJE1861,TMU,Timperley Metrolink,E05000837,Timperley,-2.338552,53.4039
1800SJ49211,BCT,Park Road,E05000837,Timperley,-2.337663,53.40372
1800SJ49171,BCT,Park Road,E05000822,Broadheath,-2.340254,53.40417
1800SJ16991,BCT,Park Road,E05000837,Timperley,-2.318488,53.39798
1800SJ49141,BCT,Thorley Lane,E05000839,Village,-2.317861,53.39661
1800SJ14821,BCT,Park Road,E05000839,Village,-2.318338,53.39802
1800SJH1711,BCT,Briony Avenue,E05000830,Hale Barns,-2.315499,53.37813
1800SJH1712,BCT,Briony Avenue,E05000830,Hale Barns,-2.315499,53.37813
1800SJ41081,BCT,Ash Lane,E05000830,Hale Barns,-2.313866,53.37886
1800SJ41151,BCT,Ash Lane,E05000830,Hale Barns,-2.314472,53.37744
1800SJ01111,BCT,Stretford Road,E05000838,Urmston,-2.343184,53.44666
1800SJ16691,BCT,Irlam Road,E05000827,Davyhulme West,-2.400978,53.44749
1800SJ02731,BCT,Irlam Road,E05000827,Davyhulme West,-2.400964,53.44763
1800SJ02732,BCT,Irlam Road,E05000827,Davyhulme West,-2.400964,53.44763
1800SJ01621,BCT,Guinness Road,E05000829,Gorse Hill,-2.331182,53.47545
1800SJ15921,BCT,Guinness Road,E05000829,Gorse Hill,-2.331061,53.47538
1800SJ01622,BCT,Guinness Road,E05000829,Gorse Hill,-2.331182,53.47545
1800SJ00291,BCT,Chester Road,E05000825,Clifford,-2.276527,53.46257
1800SJ32051,BCT,Talbot Road,E05000832,Longford,-2.277488,53.46209
1800SJ30241,BCT,Seymour Grove,E05000832,Longford,-2.27652,53.46144
1800SJ00211,BCT,Chester Road,E05000825,Clifford,-2.277012,53.46294
1800SJ30211,BCT,Seymour Grove,E05000832,Longford,-2.276217,53.46117
1800SJ00311,BCT,Chester Road,E05000832,Longford,-2.277296,53.4627
1800SJ00281,BCT,Chester Road,E05000825,Clifford,-2.276196,53.4625
1800SJ00301,BCT,Chester Road,E05000832,Longford,-2.27704,53.46266
1800SJ32061,BCT,Talbot Road,E05000832,Longford,-2.277954,53.4619
1800SJ00221,BCT,Chester Road,E05000825,Clifford,-2.276635,53.46286
1800ZZMATRA0,TMU,Talbot Road,E05000832,Longford,-2.276794,53.46196
1800SJR0511,RSE,Stretford Road,E05000832,Longford,-2.27705,53.46183
1800SJE2001,TMU,Seymour Grove,E05000832,Longford,-2.276794,53.46196
1800SJH0101,BCT,Trafford Blvd,E05000826,Davyhulme East,-2.3521,53.46893
1800TCBS002,BCS,Trafford Blvd.,E05000826,Davyhulme East,-2.352,53.4677
1800SJQ0401,BCQ,Trafford Bus Station,E05000826,Davyhulme East,-2.352314,53.46736
1800SJQ0411,BCQ,Trafford Bus Station,E05000826,Davyhulme East,-2.352214,53.46811
1800SJ32141,BCT,Talbot Road,E05000832,Longford,-2.289653,53.4569
1800SJ48511,BCT,Manchester Road,E05000822,Broadheath,-2.348265,53.40528
1800SJ14851,BCT,Manchester Road,E05000822,Broadheath,-2.348865,53.40508
1800SJ32131,BCT,Talbot Road,E05000829,Gorse Hill,-2.29039,53.45673
1800SJ00621,BCT,Higher Road,E05000838,Urmston,-2.348106,53.44835
1800SJ02881,BCT,Moorside Rd,E05000828,Flixton,-2.370303,53.45218
1800SJ02871,BCT,Moorside Rd,E05000827,Davyhulme West,-2.371313,53.45236
1800SJR0431,RSE,Moss Road,E05000829,Gorse Hill,-2.3117,53.45477
1800TRFDPK0,RSE,Moss Road,E05000829,Gorse Hill,-2.310601,53.45478
1800TRFDPK1,RSE,Moss Road,E05000829,Gorse Hill,-2.310601,53.45489
1800SJH0431,BCT,Trafford Park R,E05000829,Gorse Hill,-2.284926,53.4639
1800SJH0432,BCT,Trafford Park R,E05000829,Gorse Hill,-2.284926,53.4639
1800SJ30231,BCT,Seymour Grove,E05000832,Longford,-2.275497,53.45929
1800SJ03151,BCT,Neary Way,E05000827,Davyhulme West,-2.358764,53.46236
1800SJH2201,BCT,Neary Way,E05000827,Davyhulme West,-2.358883,53.46224
1800SJ01771,BCT,Traff Wharf Rd,E05000829,Gorse Hill,-2.285487,53.46456
1800SJ15771,BCT,Wharf Road,E05000829,Gorse Hill,-2.285217,53.46468
1800SJ03551,BCT,Carrington Lane,E05000824,Bucklow-St Martins,-2.373347,53.43358
1800SJ03541,BCT,Carrington Lane,E05000824,Bucklow-St Martins,-2.373663,53.43353
1800SJ47061,BCT,Brooklands Road,E05000823,Brooklands,-2.324436,53.41674
1800SJ47011,BCT,Brooklands Road,E05000823,Brooklands,-2.324313,53.41642
1800SJ32271,BCT,Kings Road,E05000832,Longford,-2.301942,53.44629
1800SJ32281,BCT,Kings Road,E05000832,Longford,-2.301984,53.44582
1800SJ02311,BCT,Flixton Road,E05000828,Flixton,-2.377722,53.44826
1800SJ02321,BCT,Flixton Road,E05000828,Flixton,-2.376231,53.44829
1800SJ47261,BCT,Northenden Road,E05000835,Sale Moor,-2.308234,53.42122
1800SJH0451,BCT,Tulip Road,E05000824,Bucklow-St Martins,-2.433384,53.41246
1800SJH0452,BCT,Tulip Road,E05000824,Bucklow-St Martins,-2.433384,53.41246
1800SJH1122,BCT,Laurel Walk,E05000824,Bucklow-St Martins,-2.43549,53.41242
1800SJH1121,BCT,Laurel Walk,E05000824,Bucklow-St Martins,-2.43549,53.41242
1800SJH0891,BCT,Edge Lane,E05000832,Longford,-2.304573,53.44584
1800SJH0892,BCT,Edge Lane,E05000832,Longford,-2.304573,53.44584
1800SJH2941,BCT,Dunham Road,E05000821,Bowdon,-2.362246,53.38668
1800SJ03511,BCT,Carrington Road,E05000828,Flixton,-2.387699,53.44102
1800SJ30051,BCT,Kings Road,E05000825,Clifford,-2.262694,53.45668
1800SJ30061,BCT,Kings Road,E05000825,Clifford,-2.263342,53.45671
1800SJ41011,BCT,Moss Lane,E05000819,Altrincham,-2.341863,53.38537
1800SJ41001,BCT,Moss Lane,E05000819,Altrincham,-2.341155,53.38522
1800SJR0351,RSE,Station Road,E05000838,Urmston,-2.353796,53.44827
1800SJH1782,BCT,Newton Road,E05000838,Urmston,-2.361238,53.4504
1800SJH1781,BCT,Newton Road,E05000838,Urmston,-2.361238,53.4504
1800SJ01261,BCT,Stretford Road,E05000838,Urmston,-2.331569,53.44586
1800SJ01091,BCT,Stretford Road,E05000838,Urmston,-2.332427,53.44583
1800SJ01271,BCT,Stretford Road,E05000838,Urmston,-2.331313,53.44585
1800SJH0701,BCT,Hereford Grove,E05000838,Urmston,-2.356817,53.44934
1800SJH0702,BCT,Hereford Grove,E05000838,Urmston,-2.356817,53.44934
1800SJ16441,BCT,Bowfell Road,E05000828,Flixton,-2.373472,53.44952
1800SJ02861,BCT,Bowfell Road,E05000828,Flixton,-2.373141,53.44955
1800SJ01141,BCT,Crofts Bank Rd,E05000838,Urmston,-2.353614,53.44986
1800SJ01211,BCT,Crofts Bank Rd,E05000838,Urmston,-2.353374,53.45004
1800SJ01151,BCT,Crofts Bank Rd,E05000838,Urmston,-2.353737,53.45013
1800SJ18651,BCT,Higher Rd,E05000838,Urmston,-2.348526,53.44823
1800URMSTON0,RSE,Car Park,E05000838,Urmston,-2.353269,53.4482
1800URMSTON1,RSE,Flixton Rd,E05000838,Urmston,-2.353933,53.44839
1800SJ02401,BCT,Flixton Road,E05000838,Urmston,-2.354535,53.44838
1800SJ02391,BCT,Flixton Road,E05000838,Urmston,-2.35419,53.44852
1800SJ01871,BCT,Stockport Road,E05000837,Timperley,-2.327293,53.39297
1800SJ02621,BCT,Woodsend Road,E05000827,Davyhulme West,-2.393542,53.45592
1800SJ02631,BCT,Woodsend Road,E05000827,Davyhulme West,-2.393127,53.45498
1800SJ48221,BCT,Manchester Road,E05000824,Bucklow-St Martins,-2.410961,53.43048
1800SJ48131,BCT,Manchester Road,E05000824,Bucklow-St Martins,-2.411517,53.43034
1800SJ10641,BCT,Langham Road,E05000821,Bowdon,-2.359696,53.37486
1800SJ10781,BCT,Langham Road,E05000821,Bowdon,-2.360103,53.37502
1800SJ01731,BCT,Wharfside Way,E05000829,Gorse Hill,-2.302752,53.46699
1800SJ15631,BCT,Warren Bruce Rd,E05000829,Gorse Hill,-2.304386,53.46801
1800SJ15651,BCT,Trafford Pk Rd,E05000829,Gorse Hill,-2.307655,53.46803
1800SJ02071,BCT,Wharfside Way,E05000829,Gorse Hill,-2.30278,53.46681
1800SJ15621,BCT,Warren Bruce Rd,E05000829,Gorse Hill,-2.304234,53.46786
1800SJ15641,BCT,Trafford Pk Rd,E05000829,Gorse Hill,-2.308287,53.46806
1800SJ10871,BCT,Station Road,E05000821,Bowdon,-2.415048,53.38809
1800SJ10881,BCT,Station Road,E05000821,Bowdon,-2.414958,53.38805
1800SJ03341,BCT,Washway Road,E05000833,Priory,-2.330515,53.42066
1800SJ00751,BCT,Winchester Road,E05000826,Davyhulme East,-2.341393,53.45242
1800SJ48021,BCT,Wood Lane,E05000824,Bucklow-St Martins,-2.439985,53.41504
1800SJH1802,BCT,St Margarets Rd,E05000821,Bowdon,-2.361974,53.38645
1800SJH1801,BCT,St Margarets Rd,E05000821,Bowdon,-2.361974,53.38645
1800SJ17681,BCT,Traff Wharf Rd,E05000829,Gorse Hill,-2.300298,53.46933
1800SJ17691,BCT,Traff Wharf Rd,E05000829,Gorse Hill,-2.299634,53.46929
1800SJ11431,BCT,Greengate,E05000830,Hale Barns,-2.30567,53.36157
1800SJ17381,BCT,Greengate,E05000830,Hale Barns,-2.30582,53.36159
1800SJH1241,BCT,Moss Lane,E05000821,Bowdon,-2.434151,53.40798
1800SJH1242,BCT,Moss Lane,E05000821,Bowdon,-2.434151,53.40798
1800SJH1411,BCT,Warburton Lane,E05000824,Bucklow-St Martins,-2.428242,53.41877
1800SJH0561,BCT,Warburton Lane,E05000824,Bucklow-St Martins,-2.427692,53.41944
1800SJH1412,BCT,Warburton Lane,E05000824,Bucklow-St Martins,-2.428242,53.41877
1800SJH1271,BCT,Wardle Road,E05000833,Priory,-2.318577,53.4179
1800SJH1032,BCT,Wardle Road,E05000833,Priory,-2.315125,53.4232
1800SJH1272,BCT,Wardle Road,E05000833,Priory,-2.318577,53.4179
1800SJH1282,BCT,Wardle Road,E05000833,Priory,-2.316718,53.42077
1800SJH1031,BCT,Wardle Road,E05000833,Priory,-2.315125,53.4232
1800SJ47281,BCT,Northenden Road,E05000833,Priory,-2.315821,53.4236
1800SJH1281,BCT,Wardle Road,E05000833,Priory,-2.316718,53.42077
1800SJ00161,BCT,Chester Road,E05000829,Gorse Hill,-2.28971,53.46079
1800SJ17171,BCT,Talbot Road,E05000832,Longford,-2.285328,53.45883
1800SJ00371,BCT,Chester Road,E05000829,Gorse Hill,-2.288926,53.46073
1800SJ32111,BCT,Talbot Road,E05000832,Longford,-2.28578,53.45882
1800SJ00191,BCT,Chester Road,E05000829,Gorse Hill,-2.289093,53.46095
1800SJ32581,BCT,Kings Road,E05000832,Longford,-2.281951,53.45363
1800SJ32591,BCT,Kings Road,E05000832,Longford,-2.283365,53.45342
1800SJ47031,BCT,Marsland Road,E05000823,Brooklands,-2.331,53.41921
1800SJ09281,BCT,The Drive,E05000822,Broadheath,-2.345014,53.40868
1800SJ04501,BCT,Woodhouse Lane,E05000822,Broadheath,-2.342286,53.41177
1800SJ47041,BCT,Marsland Road,E05000833,Priory,-2.330503,53.41914
1800SJ41101,BCT,Grove Lane,E05000830,Hale Barns,-2.313505,53.38095
1800SJ41301,BCT,Grove Lane,E05000830,Hale Barns,-2.31313,53.38098
1800SJH2191,BCT,Irlam Road,E05000828,Flixton,-2.395652,53.44794
1800SJH2971,BCT,Wellington Road,E05000837,Timperley,-2.335599,53.39372
1800SJ03011,BCT,Broadway,E05000826,Davyhulme East,-2.362826,53.46004
1800SJ03121,BCT,Broadway,E05000826,Davyhulme East,-2.362615,53.46011
1800SJ01971,BCT,Trafford Pk Rd,E05000829,Gorse Hill,-2.311262,53.46904
1800SJH1452,BCT,Westinghouse Rd,E05000829,Gorse Hill,-2.32547,53.46732
1800SJH1451,BCT,Westinghouse Rd,E05000829,Gorse Hill,-2.32547,53.46732
1800SJ01481,BCT,Mosley Road,E05000829,Gorse Hill,-2.317612,53.46205
1800SJ01891,BCT,Mosley Road,E05000829,Gorse Hill,-2.317306,53.46333
1800SJ01531,BCT,Mosley Road,E05000829,Gorse Hill,-2.317414,53.46174
1800SJ02111,BCT,Second Avenue,E05000829,Gorse Hill,-2.308163,53.46331
1800SJ15611,BCT,Fifth Avenue,E05000829,Gorse Hill,-2.312561,53.46331
1800SJ15601,BCT,Fifth Avenue,E05000829,Gorse Hill,-2.31232,53.46341
1800SJ02121,BCT,Second Avenue,E05000829,Gorse Hill,-2.308388,53.46319
1800SJ41331,BCT,Hale Road,E05000831,Hale Central,-2.330504,53.37852
1800SJ01101,BCT,Stretford Road,E05000838,Urmston,-2.33841,53.44662
1800SJ01251,BCT,Stretford Road,E05000838,Urmston,-2.337252,53.44673
1800SJH0082,BCT,Elevator Road,E05000829,Gorse Hill,-2.30052,53.46668
1800SJH0081,BCT,Elevator Road,E05000829,Gorse Hill,-2.30052,53.46668
1800SJ02101,BCT,Chester Road,E05000832,Longford,-2.285247,53.46242
1800SJ00341,BCT,Chester Road,E05000832,Longford,-2.284613,53.46219
1800SJ17221,BCT,Chester Road,E05000832,Longford,-2.286073,53.46206
1800SJ17211,BCT,Chester Road,E05000832,Longford,-2.286719,53.46177
1800SJ00351,BCT,Chester Road,E05000832,Longford,-2.284883,53.46211
1800SJH2551,BCT,White City Way,E05000832,Longford,-2.281871,53.46208
1800SJ11471,BCT,Broad Lane,E05000830,Hale Barns,-2.32449,53.36846
1800SJ11331,BCT,Broad Lane,E05000830,Hale Barns,-2.324399,53.36834
1800SJ11942,BCT,Sinderland Lane,E05000821,Bowdon,-2.393571,53.40689
1800SJ16971,BCT,Sinderland Lane,E05000821,Bowdon,-2.393374,53.40675
1800SJ11941,BCT,Sinderland Lane,E05000821,Bowdon,-2.39357,53.40688
1800SJ02671,BCT,Irlam Road,E05000828,Flixton,-2.385777,53.44825
1800SJ02691,BCT,Irlam Road,E05000828,Flixton,-2.384662,53.44819
1800SJ12181,BCT,Elmridge Drive,E05000830,Hale Barns,-2.312592,53.36713
1800SJ12211,BCT,Elmridge Drive,E05000830,Hale Barns,-2.312489,53.36738
1800SJ41171,BCT,Shay Lane,E05000830,Hale Barns,-2.313329,53.37326
1800SJ41061,BCT,Shay Lane,E05000830,Hale Barns,-2.313029,53.37343
1800SJ04421,BCT,Glebelands Road,E05000820,Ashton upon Mersey,-2.321568,53.43135
1800SJ41161,BCT,Ash Lane,E05000830,Hale Barns,-2.313669,53.3746
1800SJ41071,BCT,Ash Lane,E05000830,Hale Barns,-2.314136,53.37469
1800SJ10981,BCT,Green Lane,E05000830,Hale Barns,-2.321329,53.38784
1800SJH2651,BCT,Wood Lane,E05000824,Bucklow-St Martins,-2.437641,53.41384
1800SJ11031,BCT,Green Lane,E05000830,Hale Barns,-2.321355,53.3873
1800SJ30091,BCT,Upp Chorlton Rd,E05000825,Clifford,-2.267597,53.4532
1800SJ32021,BCT,Kings Road,E05000825,Clifford,-2.268637,53.45579
1800SJ32031,BCT,Kings Road,E05000825,Clifford,-2.270081,53.45544
1800SJ47071,BCT,Brooklands Road,E05000823,Brooklands,-2.32216,53.41418
1800SJ49501,BCT,Brooklands Road,E05000823,Brooklands,-2.322826,53.41475
1800SJ16351,BCT,Woodsend Circle,E05000827,Davyhulme West,-2.393316,53.45259
1800SJH0031,BCT,Woodcote Road,E05000822,Broadheath,-2.350381,53.40654
1800SJH0032,BCT,Woodcote Road,E05000822,Broadheath,-2.350381,53.40654
1800SJ17731,BCT,Smithy Lane,E05000821,Bowdon,-2.392812,53.38333
1800SJ03371,BCT,Washway Road,E05000834,St Mary's,-2.340723,53.41197
1800SJ17721,BCT,Smithy Lane,E05000821,Bowdon,-2.39364,53.38347
1800SJ10891,BCT,Woodhouse Lane,E05000821,Bowdon,-2.411153,53.38637
1800SJ10861,BCT,Woodhouse Lane,E05000821,Bowdon,-2.411227,53.38631
1800SJH2322,BCT,Woodhouse Lane,E05000821,Bowdon,-2.397364,53.38457
1800SJH2321,BCT,Woodhouse Lane,E05000821,Bowdon,-2.395522,53.38373
1800SJH2791,BCT,Woodhouse Lane,E05000821,Bowdon,-2.400399,53.38597
1800SJ09381,BCT,Riddings Road,E05000837,Timperley,-2.326371,53.40812
1800SJ49251,BCT,Riddings Road,E05000837,Timperley,-2.325966,53.40821
1800SJH0831,BCT,Woodhouse Road,E05000827,Davyhulme West,-2.373354,53.45671
1800SJH0241,BCT,Woodhouse Road,E05000827,Davyhulme West,-2.374588,53.46004
1800SJH0011,BCT,Woodhouse Road,E05000827,Davyhulme West,-2.384171,53.45882
1800SJ03101,BCT,Broadway,E05000827,Davyhulme West,-2.373199,53.45964
1800SJ02521,BCT,Davyhulme Road,E05000827,Davyhulme West,-2.372464,53.45648
1800SJH2142,BCT,Woodlands P/Way,E05000837,Timperley,-2.34113,53.39335
1800SJH2141,BCT,Woodlands P/Way,E05000837,Timperley,-2.34113,53.39335
1800SJ17901,BCT,Barrington Road,E05000819,Altrincham,-2.347137,53.39049
1800SJ47411,BCT,Northenden Road,E05000833,Priory,-2.31457,53.42334
1800SJH2091,BCT,Woodlands Road,E05000833,Priory,-2.315393,53.42477
1800SJ02791,BCT,Moorside Road,E05000828,Flixton,-2.39184,53.45255
1800SJ02781,BCT,Woodsend Cres R,E05000827,Davyhulme West,-2.393673,53.45212
1800SJ02641,BCT,Woodsend Road,E05000827,Davyhulme West,-2.392614,53.45327
1800SJ02771,BCT,Woodsend Cres R,E05000827,Davyhulme West,-2.396429,53.45055
1800SJH0191,BCT,Woodsend Cre Rd,E05000827,Davyhulme West,-2.393688,53.4522
1800SJ02711,BCT,Irlam Road,E05000828,Flixton,-2.396223,53.44785
1800SJ02721,BCT,Irlam Road,E05000827,Davyhulme West,-2.398511,53.44778
1800SJ32561,BCT,Kings Road,E05000832,Longford,-2.279846,53.45414
1800SJ32571,BCT,Kings Road,E05000832,Longford,-2.280116,53.45397
1800SJ17111,BCT,Broad Road,E05000835,Sale Moor,-2.307482,53.42533
1800SJ17101,BCT,Broad Road,E05000833,Priory,-2.30694,53.42533
1800SJH2022,BCT,Wythenshawe Rd,E05000835,Sale Moor,-2.294185,53.42192
1800SJH2021,BCT,Wythenshawe Rd,E05000835,Sale Moor,-2.294185,53.42192
1800SJ47461,BCT,Northenden Road,E05000835,Sale Moor,-2.294681,53.41971
1800SJH0541,BCT,Wychelm Road,E05000824,Bucklow-St Martins,-2.425115,53.41597
1800SJH0542,BCT,Wychelm Road,E05000824,Bucklow-St Martins,-2.425115,53.41597
1800SJ11491,BCT,Arthog Road,E05000830,Hale Barns,-2.33678,53.36993
1800SJ11311,BCT,Arthog Road,E05000830,Hale Barns,-2.336901,53.37002
1800SJ47791,BCT,Old Hall Road,E05000835,Sale Moor,-2.296781,53.42301
1800SJ47891,BCT,Old Hall Road,E05000835,Sale Moor,-2.29624,53.42311
