{
"type": "FeatureCollection",
"crs": { "type": "name", "properties": { "name": "urn:ogc:def:crs:OGC:1.3:CRS84" } },
"features": [
{ "type": "Feature", "properties": { "name": "Altrincham Interchange", "area_code": "E05000819", "area_name": "Altrincham", "marker-color": "#fc6721", "marker-size": "medium" }, "geometry": { "type": "Point", "coordinates": [ -2.347158856240235, 53.387651253781314 ] } },
{ "type": "Feature", "properties": { "name": "Chassen Road", "area_code": "E05000838", "area_name": "Urmston", "marker-color": "#fc6721", "marker-size": "medium" }, "geometry": { "type": "Point", "coordinates": [ -2.368172753839174, 53.446175855326388 ] } },
{ "type": "Feature", "properties": { "name": "Flixton", "area_code": "E05000828", "area_name": "Flixton", "marker-color": "#fc6721", "marker-size": "medium" }, "geometry": { "type": "Point", "coordinates": [ -2.383508366742162, 53.443772578726694 ] } },
{ "type": "Feature", "properties": { "name": "Hale", "area_code": "E05000831", "area_name": "Hale Central", "marker-color": "#fc6721", "marker-size": "medium" }, "geometry": { "type": "Point", "coordinates": [ -2.347490240675866, 53.378499863566454 ] } },
{ "type": "Feature", "properties": { "name": "Humphrey Park", "area_code": "E05000836", "area_name": "Stretford", "marker-color": "#fc6721", "marker-size": "medium" }, "geometry": { "type": "Point", "coordinates": [ -2.327718559466691, 53.452253153278647 ] } },
{ "type": "Feature", "properties": { "name": "Manchester United Football Ground", "area_code": "E05000829", "area_name": "Gorse Hill", "marker-color": "#fc6721", "marker-size": "medium" }, "geometry": { "type": "Point", "coordinates": [ -2.290728034092572, 53.462182391734707 ] } },
{ "type": "Feature", "properties": { "name": "Navigation Road", "area_code": "E05000819", "area_name": "Altrincham", "marker-color": "#fc6721", "marker-size": "medium" }, "geometry": { "type": "Point", "coordinates": [ -2.343329535875281, 53.39570714621604 ] } },
{ "type": "Feature", "properties": { "name": "Trafford Park", "area_code": "E05000829", "area_name": "Gorse Hill", "marker-color": "#fc6721", "marker-size": "medium" }, "geometry": { "type": "Point", "coordinates": [ -2.311699926924355, 53.454767893165162 ] } },
{ "type": "Feature", "properties": { "name": "Urmston", "area_code": "E05000838", "area_name": "Urmston", "marker-color": "#fc6721", "marker-size": "medium" }, "geometry": { "type": "Point", "coordinates": [ -2.353796483949151, 53.44826871078196 ] } },
{ "type": "Feature", "properties": { "name": "Altrincham", "area_code": "E05000819", "area_name": "Altrincham", "marker-color": "#fc6721", "marker-size": "medium" }, "geometry": { "type": "Point", "coordinates": [ -2.34727738030008, 53.387435181882331 ] } },
{ "type": "Feature", "properties": { "name": "Brooklands", "area_code": "E05000823", "area_name": "Brooklands", "marker-color": "#fc6721", "marker-size": "medium" }, "geometry": { "type": "Point", "coordinates": [ -2.326108825334381, 53.417085378646988 ] } },
{ "type": "Feature", "properties": { "name": "Dane Road", "area_code": "E05000833", "area_name": "Priory", "marker-color": "#fc6721", "marker-size": "medium" }, "geometry": { "type": "Point", "coordinates": [ -2.311325036389838, 53.430293101656368 ] } },
{ "type": "Feature", "properties": { "name": "Firswood", "area_code": "E05000832", "area_name": "Longford", "marker-color": "#fc6721", "marker-size": "medium" }, "geometry": { "type": "Point", "coordinates": [ -2.277718725143894, 53.451274357493034 ] } },
{ "type": "Feature", "properties": { "name": "Navigation Road", "area_code": "E05000819", "area_name": "Altrincham", "marker-color": "#fc6721", "marker-size": "medium" }, "geometry": { "type": "Point", "coordinates": [ -2.343329535875281, 53.39570714621604 ] } },
{ "type": "Feature", "properties": { "name": "Old Trafford", "area_code": "E05000832", "area_name": "Longford", "marker-color": "#fc6721", "marker-size": "medium" }, "geometry": { "type": "Point", "coordinates": [ -2.284559311545858, 53.4564176496119 ] } },
{ "type": "Feature", "properties": { "name": "Pomona", "area_code": "E05000825", "area_name": "Clifford", "marker-color": "#fc6721", "marker-size": "medium" }, "geometry": { "type": "Point", "coordinates": [ -2.277960240006187, 53.465187992416652 ] } },
{ "type": "Feature", "properties": { "name": "Stretford", "area_code": "E05000832", "area_name": "Longford", "marker-color": "#fc6721", "marker-size": "medium" }, "geometry": { "type": "Point", "coordinates": [ -2.303791977799002, 53.446069416895085 ] } },
{ "type": "Feature", "properties": { "name": "Sale", "area_code": "E05000833", "area_name": "Priory", "marker-color": "#fc6721", "marker-size": "medium" }, "geometry": { "type": "Point", "coordinates": [ -2.31885146754072, 53.424421682253552 ] } },
{ "type": "Feature", "properties": { "name": "Sale Water Park", "area_code": "E05000835", "area_name": "Sale Moor", "marker-color": "#fc6721", "marker-size": "medium" }, "geometry": { "type": "Point", "coordinates": [ -2.29082710134188, 53.42821452578761 ] } },
{ "type": "Feature", "properties": { "name": "Timperley", "area_code": "E05000822", "area_name": "Broadheath", "marker-color": "#fc6721", "marker-size": "medium" }, "geometry": { "type": "Point", "coordinates": [ -2.338256238005921, 53.404503500769678 ] } },
{ "type": "Feature", "properties": { "name": "Trafford Bar", "area_code": "E05000832", "area_name": "Longford", "marker-color": "#fc6721", "marker-size": "medium" }, "geometry": { "type": "Point", "coordinates": [ -2.277049638743866, 53.461828413364891 ] } }
]
}
