{
"type": "FeatureCollection",
"crs": { "type": "name", "properties": { "name": "urn:ogc:def:crs:OGC:1.3:CRS84" } },
"features": [
{ "type": "Feature", "properties": { "name": "Altrincham", "area_code": "E05000819", "area_name": "Altrincham" }, "geometry": { "type": "Point", "coordinates": [ -2.34727738030008, 53.387435181882331 ] } },
{ "type": "Feature", "properties": { "name": "Brooklands", "area_code": "E05000823", "area_name": "Brooklands" }, "geometry": { "type": "Point", "coordinates": [ -2.326108825334381, 53.417085378646988 ] } },
{ "type": "Feature", "properties": { "name": "Dane Road", "area_code": "E05000833", "area_name": "Priory" }, "geometry": { "type": "Point", "coordinates": [ -2.311325036389838, 53.430293101656368 ] } },
{ "type": "Feature", "properties": { "name": "Firswood", "area_code": "E05000832", "area_name": "Longford" }, "geometry": { "type": "Point", "coordinates": [ -2.277718725143894, 53.451274357493034 ] } },
{ "type": "Feature", "properties": { "name": "Navigation Road", "area_code": "E05000819", "area_name": "Altrincham" }, "geometry": { "type": "Point", "coordinates": [ -2.343329535875281, 53.39570714621604 ] } },
{ "type": "Feature", "properties": { "name": "Old Trafford", "area_code": "E05000832", "area_name": "Longford" }, "geometry": { "type": "Point", "coordinates": [ -2.284559311545858, 53.4564176496119 ] } },
{ "type": "Feature", "properties": { "name": "Pomona", "area_code": "E05000825", "area_name": "Clifford" }, "geometry": { "type": "Point", "coordinates": [ -2.277960240006187, 53.465187992416652 ] } },
{ "type": "Feature", "properties": { "name": "Stretford", "area_code": "E05000832", "area_name": "Longford" }, "geometry": { "type": "Point", "coordinates": [ -2.303791977799002, 53.446069416895085 ] } },
{ "type": "Feature", "properties": { "name": "Sale", "area_code": "E05000833", "area_name": "Priory" }, "geometry": { "type": "Point", "coordinates": [ -2.31885146754072, 53.424421682253552 ] } },
{ "type": "Feature", "properties": { "name": "Sale Water Park", "area_code": "E05000835", "area_name": "Sale Moor" }, "geometry": { "type": "Point", "coordinates": [ -2.29082710134188, 53.42821452578761 ] } },
{ "type": "Feature", "properties": { "name": "Timperley", "area_code": "E05000822", "area_name": "Broadheath" }, "geometry": { "type": "Point", "coordinates": [ -2.338256238005921, 53.404503500769678 ] } },
{ "type": "Feature", "properties": { "name": "Trafford Bar", "area_code": "E05000832", "area_name": "Longford" }, "geometry": { "type": "Point", "coordinates": [ -2.277049638743866, 53.461828413364891 ] } }
]
}
