name,alias,cqc_id,tel,address,postcode,area_name,area_code,lat,long
Urmston Group Practice,NA,1-199787408,1617559870,"6 Woodsend Crescent Road, Urmston, Manchester",M41 8AA,Trafford,E08000009,53.452491,-2.394066
Urmston Group Practice,NA,1-199787408,1617559870,"6 Woodsend Crescent Road, Urmston, Manchester",M41 8AA,Trafford,E08000009,53.452491,-2.394066
Urmston Group Practice,NA,1-199787408,1617559870,"6 Woodsend Crescent Road, Urmston, Manchester",M41 8AA,Trafford,E08000009,53.452491,-2.394066
Urmston Group Practice,NA,1-199787408,1617559870,"6 Woodsend Crescent Road, Urmston, Manchester",M41 8AA,Trafford,E08000009,53.452491,-2.394066
Urmston Group Practice,NA,1-199787408,1617559870,"6 Woodsend Crescent Road, Urmston, Manchester",M41 8AA,Trafford,E08000009,53.452491,-2.394066
Urmston Group Practice,NA,1-199787408,1617559870,"6 Woodsend Crescent Road, Urmston, Manchester",M41 8AA,Trafford,E08000009,53.452491,-2.394066
Urmston Group Practice,NA,1-199787408,1617559870,"6 Woodsend Crescent Road, Urmston, Manchester",M41 8AA,Trafford,E08000009,53.452491,-2.394066
Urmston Group Practice,NA,1-199787408,1617559870,"6 Woodsend Crescent Road, Urmston, Manchester",M41 8AA,Trafford,E08000009,53.452491,-2.394066
Urmston Group Practice,NA,1-199787408,1617559870,"6 Woodsend Crescent Road, Urmston, Manchester",M41 8AA,Trafford,E08000009,53.452491,-2.394066
Urmston Group Practice,NA,1-199787408,1617559870,"6 Woodsend Crescent Road, Urmston, Manchester",M41 8AA,Trafford,E08000009,53.452491,-2.394066
Urmston Group Practice,NA,1-199787408,1617559870,"6 Woodsend Crescent Road, Urmston, Manchester",M41 8AA,Trafford,E08000009,53.452491,-2.394066
Urmston Group Practice,NA,1-199787408,1617559870,"6 Woodsend Crescent Road, Urmston, Manchester",M41 8AA,Trafford,E08000009,53.452491,-2.394066
Urmston Group Practice,NA,1-199787408,1617559870,"6 Woodsend Crescent Road, Urmston, Manchester",M41 8AA,Trafford,E08000009,53.452491,-2.394066
Urmston Group Practice,NA,1-199787408,1617559870,"6 Woodsend Crescent Road, Urmston, Manchester",M41 8AA,Trafford,E08000009,53.452491,-2.394066
Urmston Group Practice,NA,1-199787408,1617559870,"6 Woodsend Crescent Road, Urmston, Manchester",M41 8AA,Trafford,E08000009,53.452491,-2.394066
Urmston Group Practice,NA,1-199787408,1617559870,"6 Woodsend Crescent Road, Urmston, Manchester",M41 8AA,Trafford,E08000009,53.452491,-2.394066
Urmston Group Practice,NA,1-199787408,1617559870,"6 Woodsend Crescent Road, Urmston, Manchester",M41 8AA,Trafford,E08000009,53.452491,-2.394066
Urmston Group Practice,NA,1-199787408,1617559870,"6 Woodsend Crescent Road, Urmston, Manchester",M41 8AA,Trafford,E08000009,53.452491,-2.394066
Urmston Group Practice,NA,1-199787408,1617559870,"6 Woodsend Crescent Road, Urmston, Manchester",M41 8AA,Trafford,E08000009,53.452491,-2.394066
Urmston Group Practice,NA,1-199787408,1617559870,"6 Woodsend Crescent Road, Urmston, Manchester",M41 8AA,Trafford,E08000009,53.452491,-2.394066
Urmston Group Practice,NA,1-199787408,1617559870,"6 Woodsend Crescent Road, Urmston, Manchester",M41 8AA,Trafford,E08000009,53.452491,-2.394066
Primrose Surgery,NA,1-199787456,1617472424,"59 Old Crofts Bank, Urmston, Manchester",M41 7AB,Trafford,E08000009,53.456159,-2.357311
Primrose Surgery,NA,1-199787456,1617472424,"59 Old Crofts Bank, Urmston, Manchester",M41 7AB,Trafford,E08000009,53.456159,-2.357311
Primrose Surgery,NA,1-199787456,1617472424,"59 Old Crofts Bank, Urmston, Manchester",M41 7AB,Trafford,E08000009,53.456159,-2.357311
Primrose Surgery,NA,1-199787456,1617472424,"59 Old Crofts Bank, Urmston, Manchester",M41 7AB,Trafford,E08000009,53.456159,-2.357311
Primrose Surgery,NA,1-199787456,1617472424,"59 Old Crofts Bank, Urmston, Manchester",M41 7AB,Trafford,E08000009,53.456159,-2.357311
Primrose Surgery,NA,1-199787456,1617472424,"59 Old Crofts Bank, Urmston, Manchester",M41 7AB,Trafford,E08000009,53.456159,-2.357311
Primrose Surgery,NA,1-199787456,1617472424,"59 Old Crofts Bank, Urmston, Manchester",M41 7AB,Trafford,E08000009,53.456159,-2.357311
Primrose Surgery,NA,1-199787456,1617472424,"59 Old Crofts Bank, Urmston, Manchester",M41 7AB,Trafford,E08000009,53.456159,-2.357311
Primrose Surgery,NA,1-199787456,1617472424,"59 Old Crofts Bank, Urmston, Manchester",M41 7AB,Trafford,E08000009,53.456159,-2.357311
Primrose Surgery,NA,1-199787456,1617472424,"59 Old Crofts Bank, Urmston, Manchester",M41 7AB,Trafford,E08000009,53.456159,-2.357311
Primrose Surgery,NA,1-199787456,1617472424,"59 Old Crofts Bank, Urmston, Manchester",M41 7AB,Trafford,E08000009,53.456159,-2.357311
Primrose Surgery,NA,1-199787456,1617472424,"59 Old Crofts Bank, Urmston, Manchester",M41 7AB,Trafford,E08000009,53.456159,-2.357311
Primrose Surgery,NA,1-199787456,1617472424,"59 Old Crofts Bank, Urmston, Manchester",M41 7AB,Trafford,E08000009,53.456159,-2.357311
Primrose Surgery,NA,1-199787456,1617472424,"59 Old Crofts Bank, Urmston, Manchester",M41 7AB,Trafford,E08000009,53.456159,-2.357311
Primrose Surgery,NA,1-199787456,1617472424,"59 Old Crofts Bank, Urmston, Manchester",M41 7AB,Trafford,E08000009,53.456159,-2.357311
Primrose Surgery,NA,1-199787456,1617472424,"59 Old Crofts Bank, Urmston, Manchester",M41 7AB,Trafford,E08000009,53.456159,-2.357311
Primrose Surgery,NA,1-199787456,1617472424,"59 Old Crofts Bank, Urmston, Manchester",M41 7AB,Trafford,E08000009,53.456159,-2.357311
Primrose Surgery,NA,1-199787456,1617472424,"59 Old Crofts Bank, Urmston, Manchester",M41 7AB,Trafford,E08000009,53.456159,-2.357311
Primrose Surgery,NA,1-199787456,1617472424,"59 Old Crofts Bank, Urmston, Manchester",M41 7AB,Trafford,E08000009,53.456159,-2.357311
Primrose Surgery,NA,1-199787456,1617472424,"59 Old Crofts Bank, Urmston, Manchester",M41 7AB,Trafford,E08000009,53.456159,-2.357311
Primrose Surgery,NA,1-199787456,1617472424,"59 Old Crofts Bank, Urmston, Manchester",M41 7AB,Trafford,E08000009,53.456159,-2.357311
Direct Medicare UK Limited,NA,1-2464425273,16119624625,"Bodmin Road Health Centre, Bodmin Road, Sale",M33 5JH,Trafford,E08000009,53.428123,-2.351718
Direct Medicare UK Limited,NA,1-2464425273,16119624625,"Bodmin Road Health Centre, Bodmin Road, Sale",M33 5JH,Trafford,E08000009,53.428123,-2.351718
Direct Medicare UK Limited,NA,1-2464425273,16119624625,"Bodmin Road Health Centre, Bodmin Road, Sale",M33 5JH,Trafford,E08000009,53.428123,-2.351718
Direct Medicare UK Limited,NA,1-2464425273,16119624625,"Bodmin Road Health Centre, Bodmin Road, Sale",M33 5JH,Trafford,E08000009,53.428123,-2.351718
Direct Medicare UK Limited,NA,1-2464425273,16119624625,"Bodmin Road Health Centre, Bodmin Road, Sale",M33 5JH,Trafford,E08000009,53.428123,-2.351718
Direct Medicare UK Limited,NA,1-2464425273,16119624625,"Bodmin Road Health Centre, Bodmin Road, Sale",M33 5JH,Trafford,E08000009,53.428123,-2.351718
Direct Medicare UK Limited,NA,1-2464425273,16119624625,"Bodmin Road Health Centre, Bodmin Road, Sale",M33 5JH,Trafford,E08000009,53.428123,-2.351718
Direct Medicare UK Limited,NA,1-2464425273,16119624625,"Bodmin Road Health Centre, Bodmin Road, Sale",M33 5JH,Trafford,E08000009,53.428123,-2.351718
Direct Medicare UK Limited,NA,1-2464425273,16119624625,"Bodmin Road Health Centre, Bodmin Road, Sale",M33 5JH,Trafford,E08000009,53.428123,-2.351718
Direct Medicare UK Limited,NA,1-2464425273,16119624625,"Bodmin Road Health Centre, Bodmin Road, Sale",M33 5JH,Trafford,E08000009,53.428123,-2.351718
Direct Medicare UK Limited,NA,1-2464425273,16119624625,"Bodmin Road Health Centre, Bodmin Road, Sale",M33 5JH,Trafford,E08000009,53.428123,-2.351718
Direct Medicare UK Limited,NA,1-2464425273,16119624625,"Bodmin Road Health Centre, Bodmin Road, Sale",M33 5JH,Trafford,E08000009,53.428123,-2.351718
Direct Medicare UK Limited,NA,1-2464425273,16119624625,"Bodmin Road Health Centre, Bodmin Road, Sale",M33 5JH,Trafford,E08000009,53.428123,-2.351718
Direct Medicare UK Limited,NA,1-2464425273,16119624625,"Bodmin Road Health Centre, Bodmin Road, Sale",M33 5JH,Trafford,E08000009,53.428123,-2.351718
Direct Medicare UK Limited,NA,1-2464425273,16119624625,"Bodmin Road Health Centre, Bodmin Road, Sale",M33 5JH,Trafford,E08000009,53.428123,-2.351718
Direct Medicare UK Limited,NA,1-2464425273,16119624625,"Bodmin Road Health Centre, Bodmin Road, Sale",M33 5JH,Trafford,E08000009,53.428123,-2.351718
Direct Medicare UK Limited,NA,1-2464425273,16119624625,"Bodmin Road Health Centre, Bodmin Road, Sale",M33 5JH,Trafford,E08000009,53.428123,-2.351718
Direct Medicare UK Limited,NA,1-2464425273,16119624625,"Bodmin Road Health Centre, Bodmin Road, Sale",M33 5JH,Trafford,E08000009,53.428123,-2.351718
Direct Medicare UK Limited,NA,1-2464425273,16119624625,"Bodmin Road Health Centre, Bodmin Road, Sale",M33 5JH,Trafford,E08000009,53.428123,-2.351718
Direct Medicare UK Limited,NA,1-2464425273,16119624625,"Bodmin Road Health Centre, Bodmin Road, Sale",M33 5JH,Trafford,E08000009,53.428123,-2.351718
Direct Medicare UK Limited,NA,1-2464425273,16119624625,"Bodmin Road Health Centre, Bodmin Road, Sale",M33 5JH,Trafford,E08000009,53.428123,-2.351718
Brooks Bar Medical Centre,NA,1-3769470093,1612267777,"162-164 Chorlton Road, Manchester",M16 7WW,Trafford,E08000009,53.459478,-2.258524
Brooks Bar Medical Centre,NA,1-3769470093,1612267777,"162-164 Chorlton Road, Manchester",M16 7WW,Trafford,E08000009,53.459478,-2.258524
Brooks Bar Medical Centre,NA,1-3769470093,1612267777,"162-164 Chorlton Road, Manchester",M16 7WW,Trafford,E08000009,53.459478,-2.258524
Brooks Bar Medical Centre,NA,1-3769470093,1612267777,"162-164 Chorlton Road, Manchester",M16 7WW,Trafford,E08000009,53.459478,-2.258524
Brooks Bar Medical Centre,NA,1-3769470093,1612267777,"162-164 Chorlton Road, Manchester",M16 7WW,Trafford,E08000009,53.459478,-2.258524
Brooks Bar Medical Centre,NA,1-3769470093,1612267777,"162-164 Chorlton Road, Manchester",M16 7WW,Trafford,E08000009,53.459478,-2.258524
Brooks Bar Medical Centre,NA,1-3769470093,1612267777,"162-164 Chorlton Road, Manchester",M16 7WW,Trafford,E08000009,53.459478,-2.258524
Brooks Bar Medical Centre,NA,1-3769470093,1612267777,"162-164 Chorlton Road, Manchester",M16 7WW,Trafford,E08000009,53.459478,-2.258524
Brooks Bar Medical Centre,NA,1-3769470093,1612267777,"162-164 Chorlton Road, Manchester",M16 7WW,Trafford,E08000009,53.459478,-2.258524
Brooks Bar Medical Centre,NA,1-3769470093,1612267777,"162-164 Chorlton Road, Manchester",M16 7WW,Trafford,E08000009,53.459478,-2.258524
Brooks Bar Medical Centre,NA,1-3769470093,1612267777,"162-164 Chorlton Road, Manchester",M16 7WW,Trafford,E08000009,53.459478,-2.258524
Brooks Bar Medical Centre,NA,1-3769470093,1612267777,"162-164 Chorlton Road, Manchester",M16 7WW,Trafford,E08000009,53.459478,-2.258524
Brooks Bar Medical Centre,NA,1-3769470093,1612267777,"162-164 Chorlton Road, Manchester",M16 7WW,Trafford,E08000009,53.459478,-2.258524
Brooks Bar Medical Centre,NA,1-3769470093,1612267777,"162-164 Chorlton Road, Manchester",M16 7WW,Trafford,E08000009,53.459478,-2.258524
Brooks Bar Medical Centre,NA,1-3769470093,1612267777,"162-164 Chorlton Road, Manchester",M16 7WW,Trafford,E08000009,53.459478,-2.258524
Brooks Bar Medical Centre,NA,1-3769470093,1612267777,"162-164 Chorlton Road, Manchester",M16 7WW,Trafford,E08000009,53.459478,-2.258524
Brooks Bar Medical Centre,NA,1-3769470093,1612267777,"162-164 Chorlton Road, Manchester",M16 7WW,Trafford,E08000009,53.459478,-2.258524
Brooks Bar Medical Centre,NA,1-3769470093,1612267777,"162-164 Chorlton Road, Manchester",M16 7WW,Trafford,E08000009,53.459478,-2.258524
Brooks Bar Medical Centre,NA,1-3769470093,1612267777,"162-164 Chorlton Road, Manchester",M16 7WW,Trafford,E08000009,53.459478,-2.258524
Brooks Bar Medical Centre,NA,1-3769470093,1612267777,"162-164 Chorlton Road, Manchester",M16 7WW,Trafford,E08000009,53.459478,-2.258524
Brooks Bar Medical Centre,NA,1-3769470093,1612267777,"162-164 Chorlton Road, Manchester",M16 7WW,Trafford,E08000009,53.459478,-2.258524
Limelight Health and Well-being Hub,NA,1-3769470093,1612267777,"Limelight, 1-3 St Brides Way, Manchester",M16 9NW,Trafford,E08000009,53.461412,-2.261969
Limelight Health and Well-being Hub,NA,1-3769470093,1612267777,"Limelight, 1-3 St Brides Way, Manchester",M16 9NW,Trafford,E08000009,53.461412,-2.261969
Limelight Health and Well-being Hub,NA,1-3769470093,1612267777,"Limelight, 1-3 St Brides Way, Manchester",M16 9NW,Trafford,E08000009,53.461412,-2.261969
Limelight Health and Well-being Hub,NA,1-3769470093,1612267777,"Limelight, 1-3 St Brides Way, Manchester",M16 9NW,Trafford,E08000009,53.461412,-2.261969
Limelight Health and Well-being Hub,NA,1-3769470093,1612267777,"Limelight, 1-3 St Brides Way, Manchester",M16 9NW,Trafford,E08000009,53.461412,-2.261969
Limelight Health and Well-being Hub,NA,1-3769470093,1612267777,"Limelight, 1-3 St Brides Way, Manchester",M16 9NW,Trafford,E08000009,53.461412,-2.261969
Limelight Health and Well-being Hub,NA,1-3769470093,1612267777,"Limelight, 1-3 St Brides Way, Manchester",M16 9NW,Trafford,E08000009,53.461412,-2.261969
Limelight Health and Well-being Hub,NA,1-3769470093,1612267777,"Limelight, 1-3 St Brides Way, Manchester",M16 9NW,Trafford,E08000009,53.461412,-2.261969
Limelight Health and Well-being Hub,NA,1-3769470093,1612267777,"Limelight, 1-3 St Brides Way, Manchester",M16 9NW,Trafford,E08000009,53.461412,-2.261969
Limelight Health and Well-being Hub,NA,1-3769470093,1612267777,"Limelight, 1-3 St Brides Way, Manchester",M16 9NW,Trafford,E08000009,53.461412,-2.261969
Limelight Health and Well-being Hub,NA,1-3769470093,1612267777,"Limelight, 1-3 St Brides Way, Manchester",M16 9NW,Trafford,E08000009,53.461412,-2.261969
Limelight Health and Well-being Hub,NA,1-3769470093,1612267777,"Limelight, 1-3 St Brides Way, Manchester",M16 9NW,Trafford,E08000009,53.461412,-2.261969
Limelight Health and Well-being Hub,NA,1-3769470093,1612267777,"Limelight, 1-3 St Brides Way, Manchester",M16 9NW,Trafford,E08000009,53.461412,-2.261969
Limelight Health and Well-being Hub,NA,1-3769470093,1612267777,"Limelight, 1-3 St Brides Way, Manchester",M16 9NW,Trafford,E08000009,53.461412,-2.261969
Limelight Health and Well-being Hub,NA,1-3769470093,1612267777,"Limelight, 1-3 St Brides Way, Manchester",M16 9NW,Trafford,E08000009,53.461412,-2.261969
Limelight Health and Well-being Hub,NA,1-3769470093,1612267777,"Limelight, 1-3 St Brides Way, Manchester",M16 9NW,Trafford,E08000009,53.461412,-2.261969
Limelight Health and Well-being Hub,NA,1-3769470093,1612267777,"Limelight, 1-3 St Brides Way, Manchester",M16 9NW,Trafford,E08000009,53.461412,-2.261969
Limelight Health and Well-being Hub,NA,1-3769470093,1612267777,"Limelight, 1-3 St Brides Way, Manchester",M16 9NW,Trafford,E08000009,53.461412,-2.261969
Limelight Health and Well-being Hub,NA,1-3769470093,1612267777,"Limelight, 1-3 St Brides Way, Manchester",M16 9NW,Trafford,E08000009,53.461412,-2.261969
Limelight Health and Well-being Hub,NA,1-3769470093,1612267777,"Limelight, 1-3 St Brides Way, Manchester",M16 9NW,Trafford,E08000009,53.461412,-2.261969
Limelight Health and Well-being Hub,NA,1-3769470093,1612267777,"Limelight, 1-3 St Brides Way, Manchester",M16 9NW,Trafford,E08000009,53.461412,-2.261969
Dr Richard Clare,Dr Richard George Clare,1-199787594,1619733499,"The Surgery, 12 Derbyshire Road South, Sale",M33 3JP,Trafford,E08000009,53.416957,-2.310144
Dr Richard Clare,Dr Richard George Clare,1-199787594,1619733499,"The Surgery, 12 Derbyshire Road South, Sale",M33 3JP,Trafford,E08000009,53.416957,-2.310144
Dr Richard Clare,Dr Richard George Clare,1-199787594,1619733499,"The Surgery, 12 Derbyshire Road South, Sale",M33 3JP,Trafford,E08000009,53.416957,-2.310144
Dr Richard Clare,Dr Richard George Clare,1-199787594,1619733499,"The Surgery, 12 Derbyshire Road South, Sale",M33 3JP,Trafford,E08000009,53.416957,-2.310144
Dr Richard Clare,Dr Richard George Clare,1-199787594,1619733499,"The Surgery, 12 Derbyshire Road South, Sale",M33 3JP,Trafford,E08000009,53.416957,-2.310144
Dr Richard Clare,Dr Richard George Clare,1-199787594,1619733499,"The Surgery, 12 Derbyshire Road South, Sale",M33 3JP,Trafford,E08000009,53.416957,-2.310144
Dr Richard Clare,Dr Richard George Clare,1-199787594,1619733499,"The Surgery, 12 Derbyshire Road South, Sale",M33 3JP,Trafford,E08000009,53.416957,-2.310144
Dr Richard Clare,Dr Richard George Clare,1-199787594,1619733499,"The Surgery, 12 Derbyshire Road South, Sale",M33 3JP,Trafford,E08000009,53.416957,-2.310144
Dr Richard Clare,Dr Richard George Clare,1-199787594,1619733499,"The Surgery, 12 Derbyshire Road South, Sale",M33 3JP,Trafford,E08000009,53.416957,-2.310144
Dr Richard Clare,Dr Richard George Clare,1-199787594,1619733499,"The Surgery, 12 Derbyshire Road South, Sale",M33 3JP,Trafford,E08000009,53.416957,-2.310144
Dr Richard Clare,Dr Richard George Clare,1-199787594,1619733499,"The Surgery, 12 Derbyshire Road South, Sale",M33 3JP,Trafford,E08000009,53.416957,-2.310144
Dr Richard Clare,Dr Richard George Clare,1-199787594,1619733499,"The Surgery, 12 Derbyshire Road South, Sale",M33 3JP,Trafford,E08000009,53.416957,-2.310144
Dr Richard Clare,Dr Richard George Clare,1-199787594,1619733499,"The Surgery, 12 Derbyshire Road South, Sale",M33 3JP,Trafford,E08000009,53.416957,-2.310144
Dr Richard Clare,Dr Richard George Clare,1-199787594,1619733499,"The Surgery, 12 Derbyshire Road South, Sale",M33 3JP,Trafford,E08000009,53.416957,-2.310144
Dr Richard Clare,Dr Richard George Clare,1-199787594,1619733499,"The Surgery, 12 Derbyshire Road South, Sale",M33 3JP,Trafford,E08000009,53.416957,-2.310144
Dr Richard Clare,Dr Richard George Clare,1-199787594,1619733499,"The Surgery, 12 Derbyshire Road South, Sale",M33 3JP,Trafford,E08000009,53.416957,-2.310144
Dr Richard Clare,Dr Richard George Clare,1-199787594,1619733499,"The Surgery, 12 Derbyshire Road South, Sale",M33 3JP,Trafford,E08000009,53.416957,-2.310144
Dr Richard Clare,Dr Richard George Clare,1-199787594,1619733499,"The Surgery, 12 Derbyshire Road South, Sale",M33 3JP,Trafford,E08000009,53.416957,-2.310144
Dr Richard Clare,Dr Richard George Clare,1-199787594,1619733499,"The Surgery, 12 Derbyshire Road South, Sale",M33 3JP,Trafford,E08000009,53.416957,-2.310144
Dr Richard Clare,Dr Richard George Clare,1-199787594,1619733499,"The Surgery, 12 Derbyshire Road South, Sale",M33 3JP,Trafford,E08000009,53.416957,-2.310144
Dr Richard Clare,Dr Richard George Clare,1-199787594,1619733499,"The Surgery, 12 Derbyshire Road South, Sale",M33 3JP,Trafford,E08000009,53.416957,-2.310144
Dr Sally Johnston,NA,1-199787730,1619629662,"34 Riddings Road, Timperley, Altrincham",WA15 6BP,Trafford,E08000009,53.404424,-2.331291
Dr Sally Johnston,NA,1-199787730,1619629662,"34 Riddings Road, Timperley, Altrincham",WA15 6BP,Trafford,E08000009,53.404424,-2.331291
Dr Sally Johnston,NA,1-199787730,1619629662,"34 Riddings Road, Timperley, Altrincham",WA15 6BP,Trafford,E08000009,53.404424,-2.331291
Dr Sally Johnston,NA,1-199787730,1619629662,"34 Riddings Road, Timperley, Altrincham",WA15 6BP,Trafford,E08000009,53.404424,-2.331291
Dr Sally Johnston,NA,1-199787730,1619629662,"34 Riddings Road, Timperley, Altrincham",WA15 6BP,Trafford,E08000009,53.404424,-2.331291
Dr Sally Johnston,NA,1-199787730,1619629662,"34 Riddings Road, Timperley, Altrincham",WA15 6BP,Trafford,E08000009,53.404424,-2.331291
Dr Sally Johnston,NA,1-199787730,1619629662,"34 Riddings Road, Timperley, Altrincham",WA15 6BP,Trafford,E08000009,53.404424,-2.331291
Dr Sally Johnston,NA,1-199787730,1619629662,"34 Riddings Road, Timperley, Altrincham",WA15 6BP,Trafford,E08000009,53.404424,-2.331291
Dr Sally Johnston,NA,1-199787730,1619629662,"34 Riddings Road, Timperley, Altrincham",WA15 6BP,Trafford,E08000009,53.404424,-2.331291
Dr Sally Johnston,NA,1-199787730,1619629662,"34 Riddings Road, Timperley, Altrincham",WA15 6BP,Trafford,E08000009,53.404424,-2.331291
Dr Sally Johnston,NA,1-199787730,1619629662,"34 Riddings Road, Timperley, Altrincham",WA15 6BP,Trafford,E08000009,53.404424,-2.331291
Dr Sally Johnston,NA,1-199787730,1619629662,"34 Riddings Road, Timperley, Altrincham",WA15 6BP,Trafford,E08000009,53.404424,-2.331291
Dr Sally Johnston,NA,1-199787730,1619629662,"34 Riddings Road, Timperley, Altrincham",WA15 6BP,Trafford,E08000009,53.404424,-2.331291
Dr Sally Johnston,NA,1-199787730,1619629662,"34 Riddings Road, Timperley, Altrincham",WA15 6BP,Trafford,E08000009,53.404424,-2.331291
Dr Sally Johnston,NA,1-199787730,1619629662,"34 Riddings Road, Timperley, Altrincham",WA15 6BP,Trafford,E08000009,53.404424,-2.331291
Dr Sally Johnston,NA,1-199787730,1619629662,"34 Riddings Road, Timperley, Altrincham",WA15 6BP,Trafford,E08000009,53.404424,-2.331291
Dr Sally Johnston,NA,1-199787730,1619629662,"34 Riddings Road, Timperley, Altrincham",WA15 6BP,Trafford,E08000009,53.404424,-2.331291
Dr Sally Johnston,NA,1-199787730,1619629662,"34 Riddings Road, Timperley, Altrincham",WA15 6BP,Trafford,E08000009,53.404424,-2.331291
Dr Sally Johnston,NA,1-199787730,1619629662,"34 Riddings Road, Timperley, Altrincham",WA15 6BP,Trafford,E08000009,53.404424,-2.331291
Dr Sally Johnston,NA,1-199787730,1619629662,"34 Riddings Road, Timperley, Altrincham",WA15 6BP,Trafford,E08000009,53.404424,-2.331291
Dr Sally Johnston,NA,1-199787730,1619629662,"34 Riddings Road, Timperley, Altrincham",WA15 6BP,Trafford,E08000009,53.404424,-2.331291
Dr Salam J Farhan,Partington Central Surgery,1-199787515,1617757032,"Partington Health Centre, Central Road, Partington, Manchester",M31 4FY,Trafford,E08000009,53.417204,-2.425413
Dr Salam J Farhan,Partington Central Surgery,1-199787515,1617757032,"Partington Health Centre, Central Road, Partington, Manchester",M31 4FY,Trafford,E08000009,53.417204,-2.425413
Dr Salam J Farhan,Partington Central Surgery,1-199787515,1617757032,"Partington Health Centre, Central Road, Partington, Manchester",M31 4FY,Trafford,E08000009,53.417204,-2.425413
Dr Salam J Farhan,Partington Central Surgery,1-199787515,1617757032,"Partington Health Centre, Central Road, Partington, Manchester",M31 4FY,Trafford,E08000009,53.417204,-2.425413
Dr Salam J Farhan,Partington Central Surgery,1-199787515,1617757032,"Partington Health Centre, Central Road, Partington, Manchester",M31 4FY,Trafford,E08000009,53.417204,-2.425413
Dr Salam J Farhan,Partington Central Surgery,1-199787515,1617757032,"Partington Health Centre, Central Road, Partington, Manchester",M31 4FY,Trafford,E08000009,53.417204,-2.425413
Dr Salam J Farhan,Partington Central Surgery,1-199787515,1617757032,"Partington Health Centre, Central Road, Partington, Manchester",M31 4FY,Trafford,E08000009,53.417204,-2.425413
Dr Salam J Farhan,Partington Central Surgery,1-199787515,1617757032,"Partington Health Centre, Central Road, Partington, Manchester",M31 4FY,Trafford,E08000009,53.417204,-2.425413
Dr Salam J Farhan,Partington Central Surgery,1-199787515,1617757032,"Partington Health Centre, Central Road, Partington, Manchester",M31 4FY,Trafford,E08000009,53.417204,-2.425413
Dr Salam J Farhan,Partington Central Surgery,1-199787515,1617757032,"Partington Health Centre, Central Road, Partington, Manchester",M31 4FY,Trafford,E08000009,53.417204,-2.425413
Dr Salam J Farhan,Partington Central Surgery,1-199787515,1617757032,"Partington Health Centre, Central Road, Partington, Manchester",M31 4FY,Trafford,E08000009,53.417204,-2.425413
Dr Salam J Farhan,Partington Central Surgery,1-199787515,1617757032,"Partington Health Centre, Central Road, Partington, Manchester",M31 4FY,Trafford,E08000009,53.417204,-2.425413
Dr Salam J Farhan,Partington Central Surgery,1-199787515,1617757032,"Partington Health Centre, Central Road, Partington, Manchester",M31 4FY,Trafford,E08000009,53.417204,-2.425413
Dr Salam J Farhan,Partington Central Surgery,1-199787515,1617757032,"Partington Health Centre, Central Road, Partington, Manchester",M31 4FY,Trafford,E08000009,53.417204,-2.425413
Dr Salam J Farhan,Partington Central Surgery,1-199787515,1617757032,"Partington Health Centre, Central Road, Partington, Manchester",M31 4FY,Trafford,E08000009,53.417204,-2.425413
Dr Salam J Farhan,Partington Central Surgery,1-199787515,1617757032,"Partington Health Centre, Central Road, Partington, Manchester",M31 4FY,Trafford,E08000009,53.417204,-2.425413
Dr Salam J Farhan,Partington Central Surgery,1-199787515,1617757032,"Partington Health Centre, Central Road, Partington, Manchester",M31 4FY,Trafford,E08000009,53.417204,-2.425413
Dr Salam J Farhan,Partington Central Surgery,1-199787515,1617757032,"Partington Health Centre, Central Road, Partington, Manchester",M31 4FY,Trafford,E08000009,53.417204,-2.425413
Dr Salam J Farhan,Partington Central Surgery,1-199787515,1617757032,"Partington Health Centre, Central Road, Partington, Manchester",M31 4FY,Trafford,E08000009,53.417204,-2.425413
Dr Salam J Farhan,Partington Central Surgery,1-199787515,1617757032,"Partington Health Centre, Central Road, Partington, Manchester",M31 4FY,Trafford,E08000009,53.417204,-2.425413
Dr Salam J Farhan,Partington Central Surgery,1-199787515,1617757032,"Partington Health Centre, Central Road, Partington, Manchester",M31 4FY,Trafford,E08000009,53.417204,-2.425413
Gloucester House Medical Centre,NA,1-199787691,1617487115,"17 Station Road, Urmston, Manchester",M41 9JS,Trafford,E08000009,53.447337,-2.352599
Gloucester House Medical Centre,NA,1-199787691,1617487115,"17 Station Road, Urmston, Manchester",M41 9JS,Trafford,E08000009,53.447337,-2.352599
Gloucester House Medical Centre,NA,1-199787691,1617487115,"17 Station Road, Urmston, Manchester",M41 9JS,Trafford,E08000009,53.447337,-2.352599
Gloucester House Medical Centre,NA,1-199787691,1617487115,"17 Station Road, Urmston, Manchester",M41 9JS,Trafford,E08000009,53.447337,-2.352599
Gloucester House Medical Centre,NA,1-199787691,1617487115,"17 Station Road, Urmston, Manchester",M41 9JS,Trafford,E08000009,53.447337,-2.352599
Gloucester House Medical Centre,NA,1-199787691,1617487115,"17 Station Road, Urmston, Manchester",M41 9JS,Trafford,E08000009,53.447337,-2.352599
Gloucester House Medical Centre,NA,1-199787691,1617487115,"17 Station Road, Urmston, Manchester",M41 9JS,Trafford,E08000009,53.447337,-2.352599
Gloucester House Medical Centre,NA,1-199787691,1617487115,"17 Station Road, Urmston, Manchester",M41 9JS,Trafford,E08000009,53.447337,-2.352599
Gloucester House Medical Centre,NA,1-199787691,1617487115,"17 Station Road, Urmston, Manchester",M41 9JS,Trafford,E08000009,53.447337,-2.352599
Gloucester House Medical Centre,NA,1-199787691,1617487115,"17 Station Road, Urmston, Manchester",M41 9JS,Trafford,E08000009,53.447337,-2.352599
Gloucester House Medical Centre,NA,1-199787691,1617487115,"17 Station Road, Urmston, Manchester",M41 9JS,Trafford,E08000009,53.447337,-2.352599
Gloucester House Medical Centre,NA,1-199787691,1617487115,"17 Station Road, Urmston, Manchester",M41 9JS,Trafford,E08000009,53.447337,-2.352599
Gloucester House Medical Centre,NA,1-199787691,1617487115,"17 Station Road, Urmston, Manchester",M41 9JS,Trafford,E08000009,53.447337,-2.352599
Gloucester House Medical Centre,NA,1-199787691,1617487115,"17 Station Road, Urmston, Manchester",M41 9JS,Trafford,E08000009,53.447337,-2.352599
Gloucester House Medical Centre,NA,1-199787691,1617487115,"17 Station Road, Urmston, Manchester",M41 9JS,Trafford,E08000009,53.447337,-2.352599
Gloucester House Medical Centre,NA,1-199787691,1617487115,"17 Station Road, Urmston, Manchester",M41 9JS,Trafford,E08000009,53.447337,-2.352599
Gloucester House Medical Centre,NA,1-199787691,1617487115,"17 Station Road, Urmston, Manchester",M41 9JS,Trafford,E08000009,53.447337,-2.352599
Gloucester House Medical Centre,NA,1-199787691,1617487115,"17 Station Road, Urmston, Manchester",M41 9JS,Trafford,E08000009,53.447337,-2.352599
Gloucester House Medical Centre,NA,1-199787691,1617487115,"17 Station Road, Urmston, Manchester",M41 9JS,Trafford,E08000009,53.447337,-2.352599
Gloucester House Medical Centre,NA,1-199787691,1617487115,"17 Station Road, Urmston, Manchester",M41 9JS,Trafford,E08000009,53.447337,-2.352599
Gloucester House Medical Centre,NA,1-199787691,1617487115,"17 Station Road, Urmston, Manchester",M41 9JS,Trafford,E08000009,53.447337,-2.352599
Dr Anoop Sahal,The Family surgery,1-199787662,1619299300,"94 Navigation Road, Altrincham",WA14 1LL,Trafford,E08000009,53.396194,-2.346055
Dr Anoop Sahal,The Family surgery,1-199787662,1619299300,"94 Navigation Road, Altrincham",WA14 1LL,Trafford,E08000009,53.396194,-2.346055
Dr Anoop Sahal,The Family surgery,1-199787662,1619299300,"94 Navigation Road, Altrincham",WA14 1LL,Trafford,E08000009,53.396194,-2.346055
Dr Anoop Sahal,The Family surgery,1-199787662,1619299300,"94 Navigation Road, Altrincham",WA14 1LL,Trafford,E08000009,53.396194,-2.346055
Dr Anoop Sahal,The Family surgery,1-199787662,1619299300,"94 Navigation Road, Altrincham",WA14 1LL,Trafford,E08000009,53.396194,-2.346055
Dr Anoop Sahal,The Family surgery,1-199787662,1619299300,"94 Navigation Road, Altrincham",WA14 1LL,Trafford,E08000009,53.396194,-2.346055
Dr Anoop Sahal,The Family surgery,1-199787662,1619299300,"94 Navigation Road, Altrincham",WA14 1LL,Trafford,E08000009,53.396194,-2.346055
Dr Anoop Sahal,The Family surgery,1-199787662,1619299300,"94 Navigation Road, Altrincham",WA14 1LL,Trafford,E08000009,53.396194,-2.346055
Dr Anoop Sahal,The Family surgery,1-199787662,1619299300,"94 Navigation Road, Altrincham",WA14 1LL,Trafford,E08000009,53.396194,-2.346055
Dr Anoop Sahal,The Family surgery,1-199787662,1619299300,"94 Navigation Road, Altrincham",WA14 1LL,Trafford,E08000009,53.396194,-2.346055
Dr Anoop Sahal,The Family surgery,1-199787662,1619299300,"94 Navigation Road, Altrincham",WA14 1LL,Trafford,E08000009,53.396194,-2.346055
Dr Anoop Sahal,The Family surgery,1-199787662,1619299300,"94 Navigation Road, Altrincham",WA14 1LL,Trafford,E08000009,53.396194,-2.346055
Dr Anoop Sahal,The Family surgery,1-199787662,1619299300,"94 Navigation Road, Altrincham",WA14 1LL,Trafford,E08000009,53.396194,-2.346055
Dr Anoop Sahal,The Family surgery,1-199787662,1619299300,"94 Navigation Road, Altrincham",WA14 1LL,Trafford,E08000009,53.396194,-2.346055
Dr Anoop Sahal,The Family surgery,1-199787662,1619299300,"94 Navigation Road, Altrincham",WA14 1LL,Trafford,E08000009,53.396194,-2.346055
Dr Anoop Sahal,The Family surgery,1-199787662,1619299300,"94 Navigation Road, Altrincham",WA14 1LL,Trafford,E08000009,53.396194,-2.346055
Dr Anoop Sahal,The Family surgery,1-199787662,1619299300,"94 Navigation Road, Altrincham",WA14 1LL,Trafford,E08000009,53.396194,-2.346055
Dr Anoop Sahal,The Family surgery,1-199787662,1619299300,"94 Navigation Road, Altrincham",WA14 1LL,Trafford,E08000009,53.396194,-2.346055
Dr Anoop Sahal,The Family surgery,1-199787662,1619299300,"94 Navigation Road, Altrincham",WA14 1LL,Trafford,E08000009,53.396194,-2.346055
Dr Anoop Sahal,The Family surgery,1-199787662,1619299300,"94 Navigation Road, Altrincham",WA14 1LL,Trafford,E08000009,53.396194,-2.346055
Dr Anoop Sahal,The Family surgery,1-199787662,1619299300,"94 Navigation Road, Altrincham",WA14 1LL,Trafford,E08000009,53.396194,-2.346055
Dr Masud Prodhan,Old Trafford Medical Practice,1-199787672,1618487563,"Seymour Grove Health Centre, Manchester",M16 0LW,Trafford,E08000009,53.458074,-2.275745
Dr Masud Prodhan,Old Trafford Medical Practice,1-199787672,1618487563,"Seymour Grove Health Centre, Manchester",M16 0LW,Trafford,E08000009,53.458074,-2.275745
Dr Masud Prodhan,Old Trafford Medical Practice,1-199787672,1618487563,"Seymour Grove Health Centre, Manchester",M16 0LW,Trafford,E08000009,53.458074,-2.275745
Dr Masud Prodhan,Old Trafford Medical Practice,1-199787672,1618487563,"Seymour Grove Health Centre, Manchester",M16 0LW,Trafford,E08000009,53.458074,-2.275745
Dr Masud Prodhan,Old Trafford Medical Practice,1-199787672,1618487563,"Seymour Grove Health Centre, Manchester",M16 0LW,Trafford,E08000009,53.458074,-2.275745
Dr Masud Prodhan,Old Trafford Medical Practice,1-199787672,1618487563,"Seymour Grove Health Centre, Manchester",M16 0LW,Trafford,E08000009,53.458074,-2.275745
Dr Masud Prodhan,Old Trafford Medical Practice,1-199787672,1618487563,"Seymour Grove Health Centre, Manchester",M16 0LW,Trafford,E08000009,53.458074,-2.275745
Dr Masud Prodhan,Old Trafford Medical Practice,1-199787672,1618487563,"Seymour Grove Health Centre, Manchester",M16 0LW,Trafford,E08000009,53.458074,-2.275745
Dr Masud Prodhan,Old Trafford Medical Practice,1-199787672,1618487563,"Seymour Grove Health Centre, Manchester",M16 0LW,Trafford,E08000009,53.458074,-2.275745
Dr Masud Prodhan,Old Trafford Medical Practice,1-199787672,1618487563,"Seymour Grove Health Centre, Manchester",M16 0LW,Trafford,E08000009,53.458074,-2.275745
Dr Masud Prodhan,Old Trafford Medical Practice,1-199787672,1618487563,"Seymour Grove Health Centre, Manchester",M16 0LW,Trafford,E08000009,53.458074,-2.275745
Dr Masud Prodhan,Old Trafford Medical Practice,1-199787672,1618487563,"Seymour Grove Health Centre, Manchester",M16 0LW,Trafford,E08000009,53.458074,-2.275745
Dr Masud Prodhan,Old Trafford Medical Practice,1-199787672,1618487563,"Seymour Grove Health Centre, Manchester",M16 0LW,Trafford,E08000009,53.458074,-2.275745
Dr Masud Prodhan,Old Trafford Medical Practice,1-199787672,1618487563,"Seymour Grove Health Centre, Manchester",M16 0LW,Trafford,E08000009,53.458074,-2.275745
Dr Masud Prodhan,Old Trafford Medical Practice,1-199787672,1618487563,"Seymour Grove Health Centre, Manchester",M16 0LW,Trafford,E08000009,53.458074,-2.275745
Dr Masud Prodhan,Old Trafford Medical Practice,1-199787672,1618487563,"Seymour Grove Health Centre, Manchester",M16 0LW,Trafford,E08000009,53.458074,-2.275745
Dr Masud Prodhan,Old Trafford Medical Practice,1-199787672,1618487563,"Seymour Grove Health Centre, Manchester",M16 0LW,Trafford,E08000009,53.458074,-2.275745
Dr Masud Prodhan,Old Trafford Medical Practice,1-199787672,1618487563,"Seymour Grove Health Centre, Manchester",M16 0LW,Trafford,E08000009,53.458074,-2.275745
Dr Masud Prodhan,Old Trafford Medical Practice,1-199787672,1618487563,"Seymour Grove Health Centre, Manchester",M16 0LW,Trafford,E08000009,53.458074,-2.275745
Dr Masud Prodhan,Old Trafford Medical Practice,1-199787672,1618487563,"Seymour Grove Health Centre, Manchester",M16 0LW,Trafford,E08000009,53.458074,-2.275745
Dr Masud Prodhan,Old Trafford Medical Practice,1-199787672,1618487563,"Seymour Grove Health Centre, Manchester",M16 0LW,Trafford,E08000009,53.458074,-2.275745
Dr Mahendra Patel,NA,1-199787447,1619802656,"Shay Lane, Hale Barns, Altrincham",WA15 8NZ,Trafford,E08000009,53.372189,-2.31556
Dr Mahendra Patel,NA,1-199787447,1619802656,"Shay Lane, Hale Barns, Altrincham",WA15 8NZ,Trafford,E08000009,53.372189,-2.31556
Dr Mahendra Patel,NA,1-199787447,1619802656,"Shay Lane, Hale Barns, Altrincham",WA15 8NZ,Trafford,E08000009,53.372189,-2.31556
Dr Mahendra Patel,NA,1-199787447,1619802656,"Shay Lane, Hale Barns, Altrincham",WA15 8NZ,Trafford,E08000009,53.372189,-2.31556
Dr Mahendra Patel,NA,1-199787447,1619802656,"Shay Lane, Hale Barns, Altrincham",WA15 8NZ,Trafford,E08000009,53.372189,-2.31556
Dr Mahendra Patel,NA,1-199787447,1619802656,"Shay Lane, Hale Barns, Altrincham",WA15 8NZ,Trafford,E08000009,53.372189,-2.31556
Dr Mahendra Patel,NA,1-199787447,1619802656,"Shay Lane, Hale Barns, Altrincham",WA15 8NZ,Trafford,E08000009,53.372189,-2.31556
Dr Mahendra Patel,NA,1-199787447,1619802656,"Shay Lane, Hale Barns, Altrincham",WA15 8NZ,Trafford,E08000009,53.372189,-2.31556
Dr Mahendra Patel,NA,1-199787447,1619802656,"Shay Lane, Hale Barns, Altrincham",WA15 8NZ,Trafford,E08000009,53.372189,-2.31556
Dr Mahendra Patel,NA,1-199787447,1619802656,"Shay Lane, Hale Barns, Altrincham",WA15 8NZ,Trafford,E08000009,53.372189,-2.31556
Dr Mahendra Patel,NA,1-199787447,1619802656,"Shay Lane, Hale Barns, Altrincham",WA15 8NZ,Trafford,E08000009,53.372189,-2.31556
Dr Mahendra Patel,NA,1-199787447,1619802656,"Shay Lane, Hale Barns, Altrincham",WA15 8NZ,Trafford,E08000009,53.372189,-2.31556
Dr Mahendra Patel,NA,1-199787447,1619802656,"Shay Lane, Hale Barns, Altrincham",WA15 8NZ,Trafford,E08000009,53.372189,-2.31556
Dr Mahendra Patel,NA,1-199787447,1619802656,"Shay Lane, Hale Barns, Altrincham",WA15 8NZ,Trafford,E08000009,53.372189,-2.31556
Dr Mahendra Patel,NA,1-199787447,1619802656,"Shay Lane, Hale Barns, Altrincham",WA15 8NZ,Trafford,E08000009,53.372189,-2.31556
Dr Mahendra Patel,NA,1-199787447,1619802656,"Shay Lane, Hale Barns, Altrincham",WA15 8NZ,Trafford,E08000009,53.372189,-2.31556
Dr Mahendra Patel,NA,1-199787447,1619802656,"Shay Lane, Hale Barns, Altrincham",WA15 8NZ,Trafford,E08000009,53.372189,-2.31556
Dr Mahendra Patel,NA,1-199787447,1619802656,"Shay Lane, Hale Barns, Altrincham",WA15 8NZ,Trafford,E08000009,53.372189,-2.31556
Dr Mahendra Patel,NA,1-199787447,1619802656,"Shay Lane, Hale Barns, Altrincham",WA15 8NZ,Trafford,E08000009,53.372189,-2.31556
Dr Mahendra Patel,NA,1-199787447,1619802656,"Shay Lane, Hale Barns, Altrincham",WA15 8NZ,Trafford,E08000009,53.372189,-2.31556
Dr Mahendra Patel,NA,1-199787447,1619802656,"Shay Lane, Hale Barns, Altrincham",WA15 8NZ,Trafford,E08000009,53.372189,-2.31556
Dr Devang Shah,Grove Medical Practice,1-199787750,1619039302,"169 Grove Lane, Timperley, Altrincham",WA15 6PH,Trafford,E08000009,53.397228,-2.323566
Dr Devang Shah,Grove Medical Practice,1-199787750,1619039302,"169 Grove Lane, Timperley, Altrincham",WA15 6PH,Trafford,E08000009,53.397228,-2.323566
Dr Devang Shah,Grove Medical Practice,1-199787750,1619039302,"169 Grove Lane, Timperley, Altrincham",WA15 6PH,Trafford,E08000009,53.397228,-2.323566
Dr Devang Shah,Grove Medical Practice,1-199787750,1619039302,"169 Grove Lane, Timperley, Altrincham",WA15 6PH,Trafford,E08000009,53.397228,-2.323566
Dr Devang Shah,Grove Medical Practice,1-199787750,1619039302,"169 Grove Lane, Timperley, Altrincham",WA15 6PH,Trafford,E08000009,53.397228,-2.323566
Dr Devang Shah,Grove Medical Practice,1-199787750,1619039302,"169 Grove Lane, Timperley, Altrincham",WA15 6PH,Trafford,E08000009,53.397228,-2.323566
Dr Devang Shah,Grove Medical Practice,1-199787750,1619039302,"169 Grove Lane, Timperley, Altrincham",WA15 6PH,Trafford,E08000009,53.397228,-2.323566
Dr Devang Shah,Grove Medical Practice,1-199787750,1619039302,"169 Grove Lane, Timperley, Altrincham",WA15 6PH,Trafford,E08000009,53.397228,-2.323566
Dr Devang Shah,Grove Medical Practice,1-199787750,1619039302,"169 Grove Lane, Timperley, Altrincham",WA15 6PH,Trafford,E08000009,53.397228,-2.323566
Dr Devang Shah,Grove Medical Practice,1-199787750,1619039302,"169 Grove Lane, Timperley, Altrincham",WA15 6PH,Trafford,E08000009,53.397228,-2.323566
Dr Devang Shah,Grove Medical Practice,1-199787750,1619039302,"169 Grove Lane, Timperley, Altrincham",WA15 6PH,Trafford,E08000009,53.397228,-2.323566
Dr Devang Shah,Grove Medical Practice,1-199787750,1619039302,"169 Grove Lane, Timperley, Altrincham",WA15 6PH,Trafford,E08000009,53.397228,-2.323566
Dr Devang Shah,Grove Medical Practice,1-199787750,1619039302,"169 Grove Lane, Timperley, Altrincham",WA15 6PH,Trafford,E08000009,53.397228,-2.323566
Dr Devang Shah,Grove Medical Practice,1-199787750,1619039302,"169 Grove Lane, Timperley, Altrincham",WA15 6PH,Trafford,E08000009,53.397228,-2.323566
Dr Devang Shah,Grove Medical Practice,1-199787750,1619039302,"169 Grove Lane, Timperley, Altrincham",WA15 6PH,Trafford,E08000009,53.397228,-2.323566
Dr Devang Shah,Grove Medical Practice,1-199787750,1619039302,"169 Grove Lane, Timperley, Altrincham",WA15 6PH,Trafford,E08000009,53.397228,-2.323566
Dr Devang Shah,Grove Medical Practice,1-199787750,1619039302,"169 Grove Lane, Timperley, Altrincham",WA15 6PH,Trafford,E08000009,53.397228,-2.323566
Dr Devang Shah,Grove Medical Practice,1-199787750,1619039302,"169 Grove Lane, Timperley, Altrincham",WA15 6PH,Trafford,E08000009,53.397228,-2.323566
Dr Devang Shah,Grove Medical Practice,1-199787750,1619039302,"169 Grove Lane, Timperley, Altrincham",WA15 6PH,Trafford,E08000009,53.397228,-2.323566
Dr Devang Shah,Grove Medical Practice,1-199787750,1619039302,"169 Grove Lane, Timperley, Altrincham",WA15 6PH,Trafford,E08000009,53.397228,-2.323566
Dr Devang Shah,Grove Medical Practice,1-199787750,1619039302,"169 Grove Lane, Timperley, Altrincham",WA15 6PH,Trafford,E08000009,53.397228,-2.323566
Timperley Health Centre - Westwood,NA,1-199787418,1619803751,"169 Grove Lane, Timperley, Altrincham",WA15 6PH,Trafford,E08000009,53.397228,-2.323566
Timperley Health Centre - Westwood,NA,1-199787418,1619803751,"169 Grove Lane, Timperley, Altrincham",WA15 6PH,Trafford,E08000009,53.397228,-2.323566
Timperley Health Centre - Westwood,NA,1-199787418,1619803751,"169 Grove Lane, Timperley, Altrincham",WA15 6PH,Trafford,E08000009,53.397228,-2.323566
Timperley Health Centre - Westwood,NA,1-199787418,1619803751,"169 Grove Lane, Timperley, Altrincham",WA15 6PH,Trafford,E08000009,53.397228,-2.323566
Timperley Health Centre - Westwood,NA,1-199787418,1619803751,"169 Grove Lane, Timperley, Altrincham",WA15 6PH,Trafford,E08000009,53.397228,-2.323566
Timperley Health Centre - Westwood,NA,1-199787418,1619803751,"169 Grove Lane, Timperley, Altrincham",WA15 6PH,Trafford,E08000009,53.397228,-2.323566
Timperley Health Centre - Westwood,NA,1-199787418,1619803751,"169 Grove Lane, Timperley, Altrincham",WA15 6PH,Trafford,E08000009,53.397228,-2.323566
Timperley Health Centre - Westwood,NA,1-199787418,1619803751,"169 Grove Lane, Timperley, Altrincham",WA15 6PH,Trafford,E08000009,53.397228,-2.323566
Timperley Health Centre - Westwood,NA,1-199787418,1619803751,"169 Grove Lane, Timperley, Altrincham",WA15 6PH,Trafford,E08000009,53.397228,-2.323566
Timperley Health Centre - Westwood,NA,1-199787418,1619803751,"169 Grove Lane, Timperley, Altrincham",WA15 6PH,Trafford,E08000009,53.397228,-2.323566
Timperley Health Centre - Westwood,NA,1-199787418,1619803751,"169 Grove Lane, Timperley, Altrincham",WA15 6PH,Trafford,E08000009,53.397228,-2.323566
Timperley Health Centre - Westwood,NA,1-199787418,1619803751,"169 Grove Lane, Timperley, Altrincham",WA15 6PH,Trafford,E08000009,53.397228,-2.323566
Timperley Health Centre - Westwood,NA,1-199787418,1619803751,"169 Grove Lane, Timperley, Altrincham",WA15 6PH,Trafford,E08000009,53.397228,-2.323566
Timperley Health Centre - Westwood,NA,1-199787418,1619803751,"169 Grove Lane, Timperley, Altrincham",WA15 6PH,Trafford,E08000009,53.397228,-2.323566
Timperley Health Centre - Westwood,NA,1-199787418,1619803751,"169 Grove Lane, Timperley, Altrincham",WA15 6PH,Trafford,E08000009,53.397228,-2.323566
Timperley Health Centre - Westwood,NA,1-199787418,1619803751,"169 Grove Lane, Timperley, Altrincham",WA15 6PH,Trafford,E08000009,53.397228,-2.323566
Timperley Health Centre - Westwood,NA,1-199787418,1619803751,"169 Grove Lane, Timperley, Altrincham",WA15 6PH,Trafford,E08000009,53.397228,-2.323566
Timperley Health Centre - Westwood,NA,1-199787418,1619803751,"169 Grove Lane, Timperley, Altrincham",WA15 6PH,Trafford,E08000009,53.397228,-2.323566
Timperley Health Centre - Westwood,NA,1-199787418,1619803751,"169 Grove Lane, Timperley, Altrincham",WA15 6PH,Trafford,E08000009,53.397228,-2.323566
Timperley Health Centre - Westwood,NA,1-199787418,1619803751,"169 Grove Lane, Timperley, Altrincham",WA15 6PH,Trafford,E08000009,53.397228,-2.323566
Timperley Health Centre - Westwood,NA,1-199787418,1619803751,"169 Grove Lane, Timperley, Altrincham",WA15 6PH,Trafford,E08000009,53.397228,-2.323566
The Village Surgery,NA,1-199787681,1619039010,"169 Grove Lane, Timperley, Altrincham",WA15 6PH,Trafford,E08000009,53.397228,-2.323566
The Village Surgery,NA,1-199787681,1619039010,"169 Grove Lane, Timperley, Altrincham",WA15 6PH,Trafford,E08000009,53.397228,-2.323566
The Village Surgery,NA,1-199787681,1619039010,"169 Grove Lane, Timperley, Altrincham",WA15 6PH,Trafford,E08000009,53.397228,-2.323566
The Village Surgery,NA,1-199787681,1619039010,"169 Grove Lane, Timperley, Altrincham",WA15 6PH,Trafford,E08000009,53.397228,-2.323566
The Village Surgery,NA,1-199787681,1619039010,"169 Grove Lane, Timperley, Altrincham",WA15 6PH,Trafford,E08000009,53.397228,-2.323566
The Village Surgery,NA,1-199787681,1619039010,"169 Grove Lane, Timperley, Altrincham",WA15 6PH,Trafford,E08000009,53.397228,-2.323566
The Village Surgery,NA,1-199787681,1619039010,"169 Grove Lane, Timperley, Altrincham",WA15 6PH,Trafford,E08000009,53.397228,-2.323566
The Village Surgery,NA,1-199787681,1619039010,"169 Grove Lane, Timperley, Altrincham",WA15 6PH,Trafford,E08000009,53.397228,-2.323566
The Village Surgery,NA,1-199787681,1619039010,"169 Grove Lane, Timperley, Altrincham",WA15 6PH,Trafford,E08000009,53.397228,-2.323566
The Village Surgery,NA,1-199787681,1619039010,"169 Grove Lane, Timperley, Altrincham",WA15 6PH,Trafford,E08000009,53.397228,-2.323566
The Village Surgery,NA,1-199787681,1619039010,"169 Grove Lane, Timperley, Altrincham",WA15 6PH,Trafford,E08000009,53.397228,-2.323566
The Village Surgery,NA,1-199787681,1619039010,"169 Grove Lane, Timperley, Altrincham",WA15 6PH,Trafford,E08000009,53.397228,-2.323566
The Village Surgery,NA,1-199787681,1619039010,"169 Grove Lane, Timperley, Altrincham",WA15 6PH,Trafford,E08000009,53.397228,-2.323566
The Village Surgery,NA,1-199787681,1619039010,"169 Grove Lane, Timperley, Altrincham",WA15 6PH,Trafford,E08000009,53.397228,-2.323566
The Village Surgery,NA,1-199787681,1619039010,"169 Grove Lane, Timperley, Altrincham",WA15 6PH,Trafford,E08000009,53.397228,-2.323566
The Village Surgery,NA,1-199787681,1619039010,"169 Grove Lane, Timperley, Altrincham",WA15 6PH,Trafford,E08000009,53.397228,-2.323566
The Village Surgery,NA,1-199787681,1619039010,"169 Grove Lane, Timperley, Altrincham",WA15 6PH,Trafford,E08000009,53.397228,-2.323566
The Village Surgery,NA,1-199787681,1619039010,"169 Grove Lane, Timperley, Altrincham",WA15 6PH,Trafford,E08000009,53.397228,-2.323566
The Village Surgery,NA,1-199787681,1619039010,"169 Grove Lane, Timperley, Altrincham",WA15 6PH,Trafford,E08000009,53.397228,-2.323566
The Village Surgery,NA,1-199787681,1619039010,"169 Grove Lane, Timperley, Altrincham",WA15 6PH,Trafford,E08000009,53.397228,-2.323566
The Village Surgery,NA,1-199787681,1619039010,"169 Grove Lane, Timperley, Altrincham",WA15 6PH,Trafford,E08000009,53.397228,-2.323566
Shay Lane Medical Centre - Kelman,"Drs Kelman,Cranston&Naylor",1-199787428,1619803835,"Shay Lane, Hale Barns, Altrincham",WA15 8NZ,Trafford,E08000009,53.372189,-2.31556
Shay Lane Medical Centre - Kelman,"Drs Kelman,Cranston&Naylor",1-199787428,1619803835,"Shay Lane, Hale Barns, Altrincham",WA15 8NZ,Trafford,E08000009,53.372189,-2.31556
Shay Lane Medical Centre - Kelman,"Drs Kelman,Cranston&Naylor",1-199787428,1619803835,"Shay Lane, Hale Barns, Altrincham",WA15 8NZ,Trafford,E08000009,53.372189,-2.31556
Shay Lane Medical Centre - Kelman,"Drs Kelman,Cranston&Naylor",1-199787428,1619803835,"Shay Lane, Hale Barns, Altrincham",WA15 8NZ,Trafford,E08000009,53.372189,-2.31556
Shay Lane Medical Centre - Kelman,"Drs Kelman,Cranston&Naylor",1-199787428,1619803835,"Shay Lane, Hale Barns, Altrincham",WA15 8NZ,Trafford,E08000009,53.372189,-2.31556
Shay Lane Medical Centre - Kelman,"Drs Kelman,Cranston&Naylor",1-199787428,1619803835,"Shay Lane, Hale Barns, Altrincham",WA15 8NZ,Trafford,E08000009,53.372189,-2.31556
Shay Lane Medical Centre - Kelman,"Drs Kelman,Cranston&Naylor",1-199787428,1619803835,"Shay Lane, Hale Barns, Altrincham",WA15 8NZ,Trafford,E08000009,53.372189,-2.31556
Shay Lane Medical Centre - Kelman,"Drs Kelman,Cranston&Naylor",1-199787428,1619803835,"Shay Lane, Hale Barns, Altrincham",WA15 8NZ,Trafford,E08000009,53.372189,-2.31556
Shay Lane Medical Centre - Kelman,"Drs Kelman,Cranston&Naylor",1-199787428,1619803835,"Shay Lane, Hale Barns, Altrincham",WA15 8NZ,Trafford,E08000009,53.372189,-2.31556
Shay Lane Medical Centre - Kelman,"Drs Kelman,Cranston&Naylor",1-199787428,1619803835,"Shay Lane, Hale Barns, Altrincham",WA15 8NZ,Trafford,E08000009,53.372189,-2.31556
Shay Lane Medical Centre - Kelman,"Drs Kelman,Cranston&Naylor",1-199787428,1619803835,"Shay Lane, Hale Barns, Altrincham",WA15 8NZ,Trafford,E08000009,53.372189,-2.31556
Shay Lane Medical Centre - Kelman,"Drs Kelman,Cranston&Naylor",1-199787428,1619803835,"Shay Lane, Hale Barns, Altrincham",WA15 8NZ,Trafford,E08000009,53.372189,-2.31556
Shay Lane Medical Centre - Kelman,"Drs Kelman,Cranston&Naylor",1-199787428,1619803835,"Shay Lane, Hale Barns, Altrincham",WA15 8NZ,Trafford,E08000009,53.372189,-2.31556
Shay Lane Medical Centre - Kelman,"Drs Kelman,Cranston&Naylor",1-199787428,1619803835,"Shay Lane, Hale Barns, Altrincham",WA15 8NZ,Trafford,E08000009,53.372189,-2.31556
Shay Lane Medical Centre - Kelman,"Drs Kelman,Cranston&Naylor",1-199787428,1619803835,"Shay Lane, Hale Barns, Altrincham",WA15 8NZ,Trafford,E08000009,53.372189,-2.31556
Shay Lane Medical Centre - Kelman,"Drs Kelman,Cranston&Naylor",1-199787428,1619803835,"Shay Lane, Hale Barns, Altrincham",WA15 8NZ,Trafford,E08000009,53.372189,-2.31556
Shay Lane Medical Centre - Kelman,"Drs Kelman,Cranston&Naylor",1-199787428,1619803835,"Shay Lane, Hale Barns, Altrincham",WA15 8NZ,Trafford,E08000009,53.372189,-2.31556
Shay Lane Medical Centre - Kelman,"Drs Kelman,Cranston&Naylor",1-199787428,1619803835,"Shay Lane, Hale Barns, Altrincham",WA15 8NZ,Trafford,E08000009,53.372189,-2.31556
Shay Lane Medical Centre - Kelman,"Drs Kelman,Cranston&Naylor",1-199787428,1619803835,"Shay Lane, Hale Barns, Altrincham",WA15 8NZ,Trafford,E08000009,53.372189,-2.31556
Shay Lane Medical Centre - Kelman,"Drs Kelman,Cranston&Naylor",1-199787428,1619803835,"Shay Lane, Hale Barns, Altrincham",WA15 8NZ,Trafford,E08000009,53.372189,-2.31556
Shay Lane Medical Centre - Kelman,"Drs Kelman,Cranston&Naylor",1-199787428,1619803835,"Shay Lane, Hale Barns, Altrincham",WA15 8NZ,Trafford,E08000009,53.372189,-2.31556
Park Medical Practice,NA,1-199787388,1619733485,"119 Park Road, Timperley, Altrincham",WA15 6QQ,Trafford,E08000009,53.401899,-2.327843
Park Medical Practice,NA,1-199787388,1619733485,"119 Park Road, Timperley, Altrincham",WA15 6QQ,Trafford,E08000009,53.401899,-2.327843
Park Medical Practice,NA,1-199787388,1619733485,"119 Park Road, Timperley, Altrincham",WA15 6QQ,Trafford,E08000009,53.401899,-2.327843
Park Medical Practice,NA,1-199787388,1619733485,"119 Park Road, Timperley, Altrincham",WA15 6QQ,Trafford,E08000009,53.401899,-2.327843
Park Medical Practice,NA,1-199787388,1619733485,"119 Park Road, Timperley, Altrincham",WA15 6QQ,Trafford,E08000009,53.401899,-2.327843
Park Medical Practice,NA,1-199787388,1619733485,"119 Park Road, Timperley, Altrincham",WA15 6QQ,Trafford,E08000009,53.401899,-2.327843
Park Medical Practice,NA,1-199787388,1619733485,"119 Park Road, Timperley, Altrincham",WA15 6QQ,Trafford,E08000009,53.401899,-2.327843
Park Medical Practice,NA,1-199787388,1619733485,"119 Park Road, Timperley, Altrincham",WA15 6QQ,Trafford,E08000009,53.401899,-2.327843
Park Medical Practice,NA,1-199787388,1619733485,"119 Park Road, Timperley, Altrincham",WA15 6QQ,Trafford,E08000009,53.401899,-2.327843
Park Medical Practice,NA,1-199787388,1619733485,"119 Park Road, Timperley, Altrincham",WA15 6QQ,Trafford,E08000009,53.401899,-2.327843
Park Medical Practice,NA,1-199787388,1619733485,"119 Park Road, Timperley, Altrincham",WA15 6QQ,Trafford,E08000009,53.401899,-2.327843
Park Medical Practice,NA,1-199787388,1619733485,"119 Park Road, Timperley, Altrincham",WA15 6QQ,Trafford,E08000009,53.401899,-2.327843
Park Medical Practice,NA,1-199787388,1619733485,"119 Park Road, Timperley, Altrincham",WA15 6QQ,Trafford,E08000009,53.401899,-2.327843
Park Medical Practice,NA,1-199787388,1619733485,"119 Park Road, Timperley, Altrincham",WA15 6QQ,Trafford,E08000009,53.401899,-2.327843
Park Medical Practice,NA,1-199787388,1619733485,"119 Park Road, Timperley, Altrincham",WA15 6QQ,Trafford,E08000009,53.401899,-2.327843
Park Medical Practice,NA,1-199787388,1619733485,"119 Park Road, Timperley, Altrincham",WA15 6QQ,Trafford,E08000009,53.401899,-2.327843
Park Medical Practice,NA,1-199787388,1619733485,"119 Park Road, Timperley, Altrincham",WA15 6QQ,Trafford,E08000009,53.401899,-2.327843
Park Medical Practice,NA,1-199787388,1619733485,"119 Park Road, Timperley, Altrincham",WA15 6QQ,Trafford,E08000009,53.401899,-2.327843
Park Medical Practice,NA,1-199787388,1619733485,"119 Park Road, Timperley, Altrincham",WA15 6QQ,Trafford,E08000009,53.401899,-2.327843
Park Medical Practice,NA,1-199787388,1619733485,"119 Park Road, Timperley, Altrincham",WA15 6QQ,Trafford,E08000009,53.401899,-2.327843
Park Medical Practice,NA,1-199787388,1619733485,"119 Park Road, Timperley, Altrincham",WA15 6QQ,Trafford,E08000009,53.401899,-2.327843
Delamere Medical Practice,NA,1-199787505,1618640200,"Delamere Avenue, Stretford, Manchester",M32 0DF,Trafford,E08000009,53.450887,-2.307365
Delamere Medical Practice,NA,1-199787505,1618640200,"Delamere Avenue, Stretford, Manchester",M32 0DF,Trafford,E08000009,53.450887,-2.307365
Delamere Medical Practice,NA,1-199787505,1618640200,"Delamere Avenue, Stretford, Manchester",M32 0DF,Trafford,E08000009,53.450887,-2.307365
Delamere Medical Practice,NA,1-199787505,1618640200,"Delamere Avenue, Stretford, Manchester",M32 0DF,Trafford,E08000009,53.450887,-2.307365
Delamere Medical Practice,NA,1-199787505,1618640200,"Delamere Avenue, Stretford, Manchester",M32 0DF,Trafford,E08000009,53.450887,-2.307365
Delamere Medical Practice,NA,1-199787505,1618640200,"Delamere Avenue, Stretford, Manchester",M32 0DF,Trafford,E08000009,53.450887,-2.307365
Delamere Medical Practice,NA,1-199787505,1618640200,"Delamere Avenue, Stretford, Manchester",M32 0DF,Trafford,E08000009,53.450887,-2.307365
Delamere Medical Practice,NA,1-199787505,1618640200,"Delamere Avenue, Stretford, Manchester",M32 0DF,Trafford,E08000009,53.450887,-2.307365
Delamere Medical Practice,NA,1-199787505,1618640200,"Delamere Avenue, Stretford, Manchester",M32 0DF,Trafford,E08000009,53.450887,-2.307365
Delamere Medical Practice,NA,1-199787505,1618640200,"Delamere Avenue, Stretford, Manchester",M32 0DF,Trafford,E08000009,53.450887,-2.307365
Delamere Medical Practice,NA,1-199787505,1618640200,"Delamere Avenue, Stretford, Manchester",M32 0DF,Trafford,E08000009,53.450887,-2.307365
Delamere Medical Practice,NA,1-199787505,1618640200,"Delamere Avenue, Stretford, Manchester",M32 0DF,Trafford,E08000009,53.450887,-2.307365
Delamere Medical Practice,NA,1-199787505,1618640200,"Delamere Avenue, Stretford, Manchester",M32 0DF,Trafford,E08000009,53.450887,-2.307365
Delamere Medical Practice,NA,1-199787505,1618640200,"Delamere Avenue, Stretford, Manchester",M32 0DF,Trafford,E08000009,53.450887,-2.307365
Delamere Medical Practice,NA,1-199787505,1618640200,"Delamere Avenue, Stretford, Manchester",M32 0DF,Trafford,E08000009,53.450887,-2.307365
Delamere Medical Practice,NA,1-199787505,1618640200,"Delamere Avenue, Stretford, Manchester",M32 0DF,Trafford,E08000009,53.450887,-2.307365
Delamere Medical Practice,NA,1-199787505,1618640200,"Delamere Avenue, Stretford, Manchester",M32 0DF,Trafford,E08000009,53.450887,-2.307365
Delamere Medical Practice,NA,1-199787505,1618640200,"Delamere Avenue, Stretford, Manchester",M32 0DF,Trafford,E08000009,53.450887,-2.307365
Delamere Medical Practice,NA,1-199787505,1618640200,"Delamere Avenue, Stretford, Manchester",M32 0DF,Trafford,E08000009,53.450887,-2.307365
Delamere Medical Practice,NA,1-199787505,1618640200,"Delamere Avenue, Stretford, Manchester",M32 0DF,Trafford,E08000009,53.450887,-2.307365
Delamere Medical Practice,NA,1-199787505,1618640200,"Delamere Avenue, Stretford, Manchester",M32 0DF,Trafford,E08000009,53.450887,-2.307365
Conway Road Medical Practice,NA,1-199787604,1619731151,"Conway Road Health Centre, 80a Conway Road, Sale",M33 2TB,Trafford,E08000009,53.417873,-2.303561
Conway Road Medical Practice,NA,1-199787604,1619731151,"Conway Road Health Centre, 80a Conway Road, Sale",M33 2TB,Trafford,E08000009,53.417873,-2.303561
Conway Road Medical Practice,NA,1-199787604,1619731151,"Conway Road Health Centre, 80a Conway Road, Sale",M33 2TB,Trafford,E08000009,53.417873,-2.303561
Conway Road Medical Practice,NA,1-199787604,1619731151,"Conway Road Health Centre, 80a Conway Road, Sale",M33 2TB,Trafford,E08000009,53.417873,-2.303561
Conway Road Medical Practice,NA,1-199787604,1619731151,"Conway Road Health Centre, 80a Conway Road, Sale",M33 2TB,Trafford,E08000009,53.417873,-2.303561
Conway Road Medical Practice,NA,1-199787604,1619731151,"Conway Road Health Centre, 80a Conway Road, Sale",M33 2TB,Trafford,E08000009,53.417873,-2.303561
Conway Road Medical Practice,NA,1-199787604,1619731151,"Conway Road Health Centre, 80a Conway Road, Sale",M33 2TB,Trafford,E08000009,53.417873,-2.303561
Conway Road Medical Practice,NA,1-199787604,1619731151,"Conway Road Health Centre, 80a Conway Road, Sale",M33 2TB,Trafford,E08000009,53.417873,-2.303561
Conway Road Medical Practice,NA,1-199787604,1619731151,"Conway Road Health Centre, 80a Conway Road, Sale",M33 2TB,Trafford,E08000009,53.417873,-2.303561
Conway Road Medical Practice,NA,1-199787604,1619731151,"Conway Road Health Centre, 80a Conway Road, Sale",M33 2TB,Trafford,E08000009,53.417873,-2.303561
Conway Road Medical Practice,NA,1-199787604,1619731151,"Conway Road Health Centre, 80a Conway Road, Sale",M33 2TB,Trafford,E08000009,53.417873,-2.303561
Conway Road Medical Practice,NA,1-199787604,1619731151,"Conway Road Health Centre, 80a Conway Road, Sale",M33 2TB,Trafford,E08000009,53.417873,-2.303561
Conway Road Medical Practice,NA,1-199787604,1619731151,"Conway Road Health Centre, 80a Conway Road, Sale",M33 2TB,Trafford,E08000009,53.417873,-2.303561
Conway Road Medical Practice,NA,1-199787604,1619731151,"Conway Road Health Centre, 80a Conway Road, Sale",M33 2TB,Trafford,E08000009,53.417873,-2.303561
Conway Road Medical Practice,NA,1-199787604,1619731151,"Conway Road Health Centre, 80a Conway Road, Sale",M33 2TB,Trafford,E08000009,53.417873,-2.303561
Conway Road Medical Practice,NA,1-199787604,1619731151,"Conway Road Health Centre, 80a Conway Road, Sale",M33 2TB,Trafford,E08000009,53.417873,-2.303561
Conway Road Medical Practice,NA,1-199787604,1619731151,"Conway Road Health Centre, 80a Conway Road, Sale",M33 2TB,Trafford,E08000009,53.417873,-2.303561
Conway Road Medical Practice,NA,1-199787604,1619731151,"Conway Road Health Centre, 80a Conway Road, Sale",M33 2TB,Trafford,E08000009,53.417873,-2.303561
Conway Road Medical Practice,NA,1-199787604,1619731151,"Conway Road Health Centre, 80a Conway Road, Sale",M33 2TB,Trafford,E08000009,53.417873,-2.303561
Conway Road Medical Practice,NA,1-199787604,1619731151,"Conway Road Health Centre, 80a Conway Road, Sale",M33 2TB,Trafford,E08000009,53.417873,-2.303561
Conway Road Medical Practice,NA,1-199787604,1619731151,"Conway Road Health Centre, 80a Conway Road, Sale",M33 2TB,Trafford,E08000009,53.417873,-2.303561
Partington Family Practice,NA,1-199787555,1617757033,"Partington Health Centre, Central Road, Partington, Manchester",M31 4FY,Trafford,E08000009,53.417204,-2.425413
Partington Family Practice,NA,1-199787555,1617757033,"Partington Health Centre, Central Road, Partington, Manchester",M31 4FY,Trafford,E08000009,53.417204,-2.425413
Partington Family Practice,NA,1-199787555,1617757033,"Partington Health Centre, Central Road, Partington, Manchester",M31 4FY,Trafford,E08000009,53.417204,-2.425413
Partington Family Practice,NA,1-199787555,1617757033,"Partington Health Centre, Central Road, Partington, Manchester",M31 4FY,Trafford,E08000009,53.417204,-2.425413
Partington Family Practice,NA,1-199787555,1617757033,"Partington Health Centre, Central Road, Partington, Manchester",M31 4FY,Trafford,E08000009,53.417204,-2.425413
Partington Family Practice,NA,1-199787555,1617757033,"Partington Health Centre, Central Road, Partington, Manchester",M31 4FY,Trafford,E08000009,53.417204,-2.425413
Partington Family Practice,NA,1-199787555,1617757033,"Partington Health Centre, Central Road, Partington, Manchester",M31 4FY,Trafford,E08000009,53.417204,-2.425413
Partington Family Practice,NA,1-199787555,1617757033,"Partington Health Centre, Central Road, Partington, Manchester",M31 4FY,Trafford,E08000009,53.417204,-2.425413
Partington Family Practice,NA,1-199787555,1617757033,"Partington Health Centre, Central Road, Partington, Manchester",M31 4FY,Trafford,E08000009,53.417204,-2.425413
Partington Family Practice,NA,1-199787555,1617757033,"Partington Health Centre, Central Road, Partington, Manchester",M31 4FY,Trafford,E08000009,53.417204,-2.425413
Partington Family Practice,NA,1-199787555,1617757033,"Partington Health Centre, Central Road, Partington, Manchester",M31 4FY,Trafford,E08000009,53.417204,-2.425413
Partington Family Practice,NA,1-199787555,1617757033,"Partington Health Centre, Central Road, Partington, Manchester",M31 4FY,Trafford,E08000009,53.417204,-2.425413
Partington Family Practice,NA,1-199787555,1617757033,"Partington Health Centre, Central Road, Partington, Manchester",M31 4FY,Trafford,E08000009,53.417204,-2.425413
Partington Family Practice,NA,1-199787555,1617757033,"Partington Health Centre, Central Road, Partington, Manchester",M31 4FY,Trafford,E08000009,53.417204,-2.425413
Partington Family Practice,NA,1-199787555,1617757033,"Partington Health Centre, Central Road, Partington, Manchester",M31 4FY,Trafford,E08000009,53.417204,-2.425413
Partington Family Practice,NA,1-199787555,1617757033,"Partington Health Centre, Central Road, Partington, Manchester",M31 4FY,Trafford,E08000009,53.417204,-2.425413
Partington Family Practice,NA,1-199787555,1617757033,"Partington Health Centre, Central Road, Partington, Manchester",M31 4FY,Trafford,E08000009,53.417204,-2.425413
Partington Family Practice,NA,1-199787555,1617757033,"Partington Health Centre, Central Road, Partington, Manchester",M31 4FY,Trafford,E08000009,53.417204,-2.425413
Partington Family Practice,NA,1-199787555,1617757033,"Partington Health Centre, Central Road, Partington, Manchester",M31 4FY,Trafford,E08000009,53.417204,-2.425413
Partington Family Practice,NA,1-199787555,1617757033,"Partington Health Centre, Central Road, Partington, Manchester",M31 4FY,Trafford,E08000009,53.417204,-2.425413
Partington Family Practice,NA,1-199787555,1617757033,"Partington Health Centre, Central Road, Partington, Manchester",M31 4FY,Trafford,E08000009,53.417204,-2.425413
Firsway Health Centre,NA,1-199787535,1619050310,"121 Firsway, Sale",M33 4BR,Trafford,E08000009,53.421289,-2.355468
Firsway Health Centre,NA,1-199787535,1619050310,"121 Firsway, Sale",M33 4BR,Trafford,E08000009,53.421289,-2.355468
Firsway Health Centre,NA,1-199787535,1619050310,"121 Firsway, Sale",M33 4BR,Trafford,E08000009,53.421289,-2.355468
Firsway Health Centre,NA,1-199787535,1619050310,"121 Firsway, Sale",M33 4BR,Trafford,E08000009,53.421289,-2.355468
Firsway Health Centre,NA,1-199787535,1619050310,"121 Firsway, Sale",M33 4BR,Trafford,E08000009,53.421289,-2.355468
Firsway Health Centre,NA,1-199787535,1619050310,"121 Firsway, Sale",M33 4BR,Trafford,E08000009,53.421289,-2.355468
Firsway Health Centre,NA,1-199787535,1619050310,"121 Firsway, Sale",M33 4BR,Trafford,E08000009,53.421289,-2.355468
Firsway Health Centre,NA,1-199787535,1619050310,"121 Firsway, Sale",M33 4BR,Trafford,E08000009,53.421289,-2.355468
Firsway Health Centre,NA,1-199787535,1619050310,"121 Firsway, Sale",M33 4BR,Trafford,E08000009,53.421289,-2.355468
Firsway Health Centre,NA,1-199787535,1619050310,"121 Firsway, Sale",M33 4BR,Trafford,E08000009,53.421289,-2.355468
Firsway Health Centre,NA,1-199787535,1619050310,"121 Firsway, Sale",M33 4BR,Trafford,E08000009,53.421289,-2.355468
Firsway Health Centre,NA,1-199787535,1619050310,"121 Firsway, Sale",M33 4BR,Trafford,E08000009,53.421289,-2.355468
Firsway Health Centre,NA,1-199787535,1619050310,"121 Firsway, Sale",M33 4BR,Trafford,E08000009,53.421289,-2.355468
Firsway Health Centre,NA,1-199787535,1619050310,"121 Firsway, Sale",M33 4BR,Trafford,E08000009,53.421289,-2.355468
Firsway Health Centre,NA,1-199787535,1619050310,"121 Firsway, Sale",M33 4BR,Trafford,E08000009,53.421289,-2.355468
Firsway Health Centre,NA,1-199787535,1619050310,"121 Firsway, Sale",M33 4BR,Trafford,E08000009,53.421289,-2.355468
Firsway Health Centre,NA,1-199787535,1619050310,"121 Firsway, Sale",M33 4BR,Trafford,E08000009,53.421289,-2.355468
Firsway Health Centre,NA,1-199787535,1619050310,"121 Firsway, Sale",M33 4BR,Trafford,E08000009,53.421289,-2.355468
Firsway Health Centre,NA,1-199787535,1619050310,"121 Firsway, Sale",M33 4BR,Trafford,E08000009,53.421289,-2.355468
Firsway Health Centre,NA,1-199787535,1619050310,"121 Firsway, Sale",M33 4BR,Trafford,E08000009,53.421289,-2.355468
Firsway Health Centre,NA,1-199787535,1619050310,"121 Firsway, Sale",M33 4BR,Trafford,E08000009,53.421289,-2.355468
Boundary House Medical Centre,NA,1-199787466,1619729999,"Boundary House,, 462, Northenden Road,, Sale",M33 2RH,Trafford,E08000009,53.415635,-2.288936
Boundary House Medical Centre,NA,1-199787466,1619729999,"Boundary House,, 462, Northenden Road,, Sale",M33 2RH,Trafford,E08000009,53.415635,-2.288936
Boundary House Medical Centre,NA,1-199787466,1619729999,"Boundary House,, 462, Northenden Road,, Sale",M33 2RH,Trafford,E08000009,53.415635,-2.288936
Boundary House Medical Centre,NA,1-199787466,1619729999,"Boundary House,, 462, Northenden Road,, Sale",M33 2RH,Trafford,E08000009,53.415635,-2.288936
Boundary House Medical Centre,NA,1-199787466,1619729999,"Boundary House,, 462, Northenden Road,, Sale",M33 2RH,Trafford,E08000009,53.415635,-2.288936
Boundary House Medical Centre,NA,1-199787466,1619729999,"Boundary House,, 462, Northenden Road,, Sale",M33 2RH,Trafford,E08000009,53.415635,-2.288936
Boundary House Medical Centre,NA,1-199787466,1619729999,"Boundary House,, 462, Northenden Road,, Sale",M33 2RH,Trafford,E08000009,53.415635,-2.288936
Boundary House Medical Centre,NA,1-199787466,1619729999,"Boundary House,, 462, Northenden Road,, Sale",M33 2RH,Trafford,E08000009,53.415635,-2.288936
Boundary House Medical Centre,NA,1-199787466,1619729999,"Boundary House,, 462, Northenden Road,, Sale",M33 2RH,Trafford,E08000009,53.415635,-2.288936
Boundary House Medical Centre,NA,1-199787466,1619729999,"Boundary House,, 462, Northenden Road,, Sale",M33 2RH,Trafford,E08000009,53.415635,-2.288936
Boundary House Medical Centre,NA,1-199787466,1619729999,"Boundary House,, 462, Northenden Road,, Sale",M33 2RH,Trafford,E08000009,53.415635,-2.288936
Boundary House Medical Centre,NA,1-199787466,1619729999,"Boundary House,, 462, Northenden Road,, Sale",M33 2RH,Trafford,E08000009,53.415635,-2.288936
Boundary House Medical Centre,NA,1-199787466,1619729999,"Boundary House,, 462, Northenden Road,, Sale",M33 2RH,Trafford,E08000009,53.415635,-2.288936
Boundary House Medical Centre,NA,1-199787466,1619729999,"Boundary House,, 462, Northenden Road,, Sale",M33 2RH,Trafford,E08000009,53.415635,-2.288936
Boundary House Medical Centre,NA,1-199787466,1619729999,"Boundary House,, 462, Northenden Road,, Sale",M33 2RH,Trafford,E08000009,53.415635,-2.288936
Boundary House Medical Centre,NA,1-199787466,1619729999,"Boundary House,, 462, Northenden Road,, Sale",M33 2RH,Trafford,E08000009,53.415635,-2.288936
Boundary House Medical Centre,NA,1-199787466,1619729999,"Boundary House,, 462, Northenden Road,, Sale",M33 2RH,Trafford,E08000009,53.415635,-2.288936
Boundary House Medical Centre,NA,1-199787466,1619729999,"Boundary House,, 462, Northenden Road,, Sale",M33 2RH,Trafford,E08000009,53.415635,-2.288936
Boundary House Medical Centre,NA,1-199787466,1619729999,"Boundary House,, 462, Northenden Road,, Sale",M33 2RH,Trafford,E08000009,53.415635,-2.288936
Boundary House Medical Centre,NA,1-199787466,1619729999,"Boundary House,, 462, Northenden Road,, Sale",M33 2RH,Trafford,E08000009,53.415635,-2.288936
Boundary House Medical Centre,NA,1-199787466,1619729999,"Boundary House,, 462, Northenden Road,, Sale",M33 2RH,Trafford,E08000009,53.415635,-2.288936
Bodmin Road Health Centre,Dr PMA Simpson and Partners,1-199787495,1619624625,"Bodmin Road,, Sale",M33 5JH,Trafford,E08000009,53.428123,-2.351718
Bodmin Road Health Centre,Dr PMA Simpson and Partners,1-199787495,1619624625,"Bodmin Road,, Sale",M33 5JH,Trafford,E08000009,53.428123,-2.351718
Bodmin Road Health Centre,Dr PMA Simpson and Partners,1-199787495,1619624625,"Bodmin Road,, Sale",M33 5JH,Trafford,E08000009,53.428123,-2.351718
Bodmin Road Health Centre,Dr PMA Simpson and Partners,1-199787495,1619624625,"Bodmin Road,, Sale",M33 5JH,Trafford,E08000009,53.428123,-2.351718
Bodmin Road Health Centre,Dr PMA Simpson and Partners,1-199787495,1619624625,"Bodmin Road,, Sale",M33 5JH,Trafford,E08000009,53.428123,-2.351718
Bodmin Road Health Centre,Dr PMA Simpson and Partners,1-199787495,1619624625,"Bodmin Road,, Sale",M33 5JH,Trafford,E08000009,53.428123,-2.351718
Bodmin Road Health Centre,Dr PMA Simpson and Partners,1-199787495,1619624625,"Bodmin Road,, Sale",M33 5JH,Trafford,E08000009,53.428123,-2.351718
Bodmin Road Health Centre,Dr PMA Simpson and Partners,1-199787495,1619624625,"Bodmin Road,, Sale",M33 5JH,Trafford,E08000009,53.428123,-2.351718
Bodmin Road Health Centre,Dr PMA Simpson and Partners,1-199787495,1619624625,"Bodmin Road,, Sale",M33 5JH,Trafford,E08000009,53.428123,-2.351718
Bodmin Road Health Centre,Dr PMA Simpson and Partners,1-199787495,1619624625,"Bodmin Road,, Sale",M33 5JH,Trafford,E08000009,53.428123,-2.351718
Bodmin Road Health Centre,Dr PMA Simpson and Partners,1-199787495,1619624625,"Bodmin Road,, Sale",M33 5JH,Trafford,E08000009,53.428123,-2.351718
Bodmin Road Health Centre,Dr PMA Simpson and Partners,1-199787495,1619624625,"Bodmin Road,, Sale",M33 5JH,Trafford,E08000009,53.428123,-2.351718
Bodmin Road Health Centre,Dr PMA Simpson and Partners,1-199787495,1619624625,"Bodmin Road,, Sale",M33 5JH,Trafford,E08000009,53.428123,-2.351718
Bodmin Road Health Centre,Dr PMA Simpson and Partners,1-199787495,1619624625,"Bodmin Road,, Sale",M33 5JH,Trafford,E08000009,53.428123,-2.351718
Bodmin Road Health Centre,Dr PMA Simpson and Partners,1-199787495,1619624625,"Bodmin Road,, Sale",M33 5JH,Trafford,E08000009,53.428123,-2.351718
Bodmin Road Health Centre,Dr PMA Simpson and Partners,1-199787495,1619624625,"Bodmin Road,, Sale",M33 5JH,Trafford,E08000009,53.428123,-2.351718
Bodmin Road Health Centre,Dr PMA Simpson and Partners,1-199787495,1619624625,"Bodmin Road,, Sale",M33 5JH,Trafford,E08000009,53.428123,-2.351718
Bodmin Road Health Centre,Dr PMA Simpson and Partners,1-199787495,1619624625,"Bodmin Road,, Sale",M33 5JH,Trafford,E08000009,53.428123,-2.351718
Bodmin Road Health Centre,Dr PMA Simpson and Partners,1-199787495,1619624625,"Bodmin Road,, Sale",M33 5JH,Trafford,E08000009,53.428123,-2.351718
Bodmin Road Health Centre,Dr PMA Simpson and Partners,1-199787495,1619624625,"Bodmin Road,, Sale",M33 5JH,Trafford,E08000009,53.428123,-2.351718
Bodmin Road Health Centre,Dr PMA Simpson and Partners,1-199787495,1619624625,"Bodmin Road,, Sale",M33 5JH,Trafford,E08000009,53.428123,-2.351718
Altrincham Medical Practice,NA,1-199787398,1619282424,"Lloyd House, 7 Lloyd Street, Altrincham",WA14 2DD,Trafford,E08000009,53.38451,-2.351614
Altrincham Medical Practice,NA,1-199787398,1619282424,"Lloyd House, 7 Lloyd Street, Altrincham",WA14 2DD,Trafford,E08000009,53.38451,-2.351614
Altrincham Medical Practice,NA,1-199787398,1619282424,"Lloyd House, 7 Lloyd Street, Altrincham",WA14 2DD,Trafford,E08000009,53.38451,-2.351614
Altrincham Medical Practice,NA,1-199787398,1619282424,"Lloyd House, 7 Lloyd Street, Altrincham",WA14 2DD,Trafford,E08000009,53.38451,-2.351614
Altrincham Medical Practice,NA,1-199787398,1619282424,"Lloyd House, 7 Lloyd Street, Altrincham",WA14 2DD,Trafford,E08000009,53.38451,-2.351614
Altrincham Medical Practice,NA,1-199787398,1619282424,"Lloyd House, 7 Lloyd Street, Altrincham",WA14 2DD,Trafford,E08000009,53.38451,-2.351614
Altrincham Medical Practice,NA,1-199787398,1619282424,"Lloyd House, 7 Lloyd Street, Altrincham",WA14 2DD,Trafford,E08000009,53.38451,-2.351614
Altrincham Medical Practice,NA,1-199787398,1619282424,"Lloyd House, 7 Lloyd Street, Altrincham",WA14 2DD,Trafford,E08000009,53.38451,-2.351614
Altrincham Medical Practice,NA,1-199787398,1619282424,"Lloyd House, 7 Lloyd Street, Altrincham",WA14 2DD,Trafford,E08000009,53.38451,-2.351614
Altrincham Medical Practice,NA,1-199787398,1619282424,"Lloyd House, 7 Lloyd Street, Altrincham",WA14 2DD,Trafford,E08000009,53.38451,-2.351614
Altrincham Medical Practice,NA,1-199787398,1619282424,"Lloyd House, 7 Lloyd Street, Altrincham",WA14 2DD,Trafford,E08000009,53.38451,-2.351614
Altrincham Medical Practice,NA,1-199787398,1619282424,"Lloyd House, 7 Lloyd Street, Altrincham",WA14 2DD,Trafford,E08000009,53.38451,-2.351614
Altrincham Medical Practice,NA,1-199787398,1619282424,"Lloyd House, 7 Lloyd Street, Altrincham",WA14 2DD,Trafford,E08000009,53.38451,-2.351614
Altrincham Medical Practice,NA,1-199787398,1619282424,"Lloyd House, 7 Lloyd Street, Altrincham",WA14 2DD,Trafford,E08000009,53.38451,-2.351614
Altrincham Medical Practice,NA,1-199787398,1619282424,"Lloyd House, 7 Lloyd Street, Altrincham",WA14 2DD,Trafford,E08000009,53.38451,-2.351614
Altrincham Medical Practice,NA,1-199787398,1619282424,"Lloyd House, 7 Lloyd Street, Altrincham",WA14 2DD,Trafford,E08000009,53.38451,-2.351614
Altrincham Medical Practice,NA,1-199787398,1619282424,"Lloyd House, 7 Lloyd Street, Altrincham",WA14 2DD,Trafford,E08000009,53.38451,-2.351614
Altrincham Medical Practice,NA,1-199787398,1619282424,"Lloyd House, 7 Lloyd Street, Altrincham",WA14 2DD,Trafford,E08000009,53.38451,-2.351614
Altrincham Medical Practice,NA,1-199787398,1619282424,"Lloyd House, 7 Lloyd Street, Altrincham",WA14 2DD,Trafford,E08000009,53.38451,-2.351614
Altrincham Medical Practice,NA,1-199787398,1619282424,"Lloyd House, 7 Lloyd Street, Altrincham",WA14 2DD,Trafford,E08000009,53.38451,-2.351614
Altrincham Medical Practice,NA,1-199787398,1619282424,"Lloyd House, 7 Lloyd Street, Altrincham",WA14 2DD,Trafford,E08000009,53.38451,-2.351614
Washway Road Medical Centre,NA,1-199787475,1619624354,"67 Washway Road, Sale",M33 7SS,Trafford,E08000009,53.4224,-2.328392
Washway Road Medical Centre,NA,1-199787475,1619624354,"67 Washway Road, Sale",M33 7SS,Trafford,E08000009,53.4224,-2.328392
Washway Road Medical Centre,NA,1-199787475,1619624354,"67 Washway Road, Sale",M33 7SS,Trafford,E08000009,53.4224,-2.328392
Washway Road Medical Centre,NA,1-199787475,1619624354,"67 Washway Road, Sale",M33 7SS,Trafford,E08000009,53.4224,-2.328392
Washway Road Medical Centre,NA,1-199787475,1619624354,"67 Washway Road, Sale",M33 7SS,Trafford,E08000009,53.4224,-2.328392
Washway Road Medical Centre,NA,1-199787475,1619624354,"67 Washway Road, Sale",M33 7SS,Trafford,E08000009,53.4224,-2.328392
Washway Road Medical Centre,NA,1-199787475,1619624354,"67 Washway Road, Sale",M33 7SS,Trafford,E08000009,53.4224,-2.328392
Washway Road Medical Centre,NA,1-199787475,1619624354,"67 Washway Road, Sale",M33 7SS,Trafford,E08000009,53.4224,-2.328392
Washway Road Medical Centre,NA,1-199787475,1619624354,"67 Washway Road, Sale",M33 7SS,Trafford,E08000009,53.4224,-2.328392
Washway Road Medical Centre,NA,1-199787475,1619624354,"67 Washway Road, Sale",M33 7SS,Trafford,E08000009,53.4224,-2.328392
Washway Road Medical Centre,NA,1-199787475,1619624354,"67 Washway Road, Sale",M33 7SS,Trafford,E08000009,53.4224,-2.328392
Washway Road Medical Centre,NA,1-199787475,1619624354,"67 Washway Road, Sale",M33 7SS,Trafford,E08000009,53.4224,-2.328392
Washway Road Medical Centre,NA,1-199787475,1619624354,"67 Washway Road, Sale",M33 7SS,Trafford,E08000009,53.4224,-2.328392
Washway Road Medical Centre,NA,1-199787475,1619624354,"67 Washway Road, Sale",M33 7SS,Trafford,E08000009,53.4224,-2.328392
Washway Road Medical Centre,NA,1-199787475,1619624354,"67 Washway Road, Sale",M33 7SS,Trafford,E08000009,53.4224,-2.328392
Washway Road Medical Centre,NA,1-199787475,1619624354,"67 Washway Road, Sale",M33 7SS,Trafford,E08000009,53.4224,-2.328392
Washway Road Medical Centre,NA,1-199787475,1619624354,"67 Washway Road, Sale",M33 7SS,Trafford,E08000009,53.4224,-2.328392
Washway Road Medical Centre,NA,1-199787475,1619624354,"67 Washway Road, Sale",M33 7SS,Trafford,E08000009,53.4224,-2.328392
Washway Road Medical Centre,NA,1-199787475,1619624354,"67 Washway Road, Sale",M33 7SS,Trafford,E08000009,53.4224,-2.328392
Washway Road Medical Centre,NA,1-199787475,1619624354,"67 Washway Road, Sale",M33 7SS,Trafford,E08000009,53.4224,-2.328392
Washway Road Medical Centre,NA,1-199787475,1619624354,"67 Washway Road, Sale",M33 7SS,Trafford,E08000009,53.4224,-2.328392
St Johns Medical Centre,NA,1-199787633,1619285522,"St Johns Road, Altrincham",WA14 2NW,Trafford,E08000009,53.38276,-2.353809
St Johns Medical Centre,NA,1-199787633,1619285522,"St Johns Road, Altrincham",WA14 2NW,Trafford,E08000009,53.38276,-2.353809
St Johns Medical Centre,NA,1-199787633,1619285522,"St Johns Road, Altrincham",WA14 2NW,Trafford,E08000009,53.38276,-2.353809
St Johns Medical Centre,NA,1-199787633,1619285522,"St Johns Road, Altrincham",WA14 2NW,Trafford,E08000009,53.38276,-2.353809
St Johns Medical Centre,NA,1-199787633,1619285522,"St Johns Road, Altrincham",WA14 2NW,Trafford,E08000009,53.38276,-2.353809
St Johns Medical Centre,NA,1-199787633,1619285522,"St Johns Road, Altrincham",WA14 2NW,Trafford,E08000009,53.38276,-2.353809
St Johns Medical Centre,NA,1-199787633,1619285522,"St Johns Road, Altrincham",WA14 2NW,Trafford,E08000009,53.38276,-2.353809
St Johns Medical Centre,NA,1-199787633,1619285522,"St Johns Road, Altrincham",WA14 2NW,Trafford,E08000009,53.38276,-2.353809
St Johns Medical Centre,NA,1-199787633,1619285522,"St Johns Road, Altrincham",WA14 2NW,Trafford,E08000009,53.38276,-2.353809
St Johns Medical Centre,NA,1-199787633,1619285522,"St Johns Road, Altrincham",WA14 2NW,Trafford,E08000009,53.38276,-2.353809
St Johns Medical Centre,NA,1-199787633,1619285522,"St Johns Road, Altrincham",WA14 2NW,Trafford,E08000009,53.38276,-2.353809
St Johns Medical Centre,NA,1-199787633,1619285522,"St Johns Road, Altrincham",WA14 2NW,Trafford,E08000009,53.38276,-2.353809
St Johns Medical Centre,NA,1-199787633,1619285522,"St Johns Road, Altrincham",WA14 2NW,Trafford,E08000009,53.38276,-2.353809
St Johns Medical Centre,NA,1-199787633,1619285522,"St Johns Road, Altrincham",WA14 2NW,Trafford,E08000009,53.38276,-2.353809
St Johns Medical Centre,NA,1-199787633,1619285522,"St Johns Road, Altrincham",WA14 2NW,Trafford,E08000009,53.38276,-2.353809
St Johns Medical Centre,NA,1-199787633,1619285522,"St Johns Road, Altrincham",WA14 2NW,Trafford,E08000009,53.38276,-2.353809
St Johns Medical Centre,NA,1-199787633,1619285522,"St Johns Road, Altrincham",WA14 2NW,Trafford,E08000009,53.38276,-2.353809
St Johns Medical Centre,NA,1-199787633,1619285522,"St Johns Road, Altrincham",WA14 2NW,Trafford,E08000009,53.38276,-2.353809
St Johns Medical Centre,NA,1-199787633,1619285522,"St Johns Road, Altrincham",WA14 2NW,Trafford,E08000009,53.38276,-2.353809
St Johns Medical Centre,NA,1-199787633,1619285522,"St Johns Road, Altrincham",WA14 2NW,Trafford,E08000009,53.38276,-2.353809
St Johns Medical Centre,NA,1-199787633,1619285522,"St Johns Road, Altrincham",WA14 2NW,Trafford,E08000009,53.38276,-2.353809
Davyhulme Medical Centre,NA,1-199787437,1617485559,"130 Broadway, Davyhulme, Urmston, Manchester",M41 7WJ,Trafford,E08000009,53.459483,-2.366782
Davyhulme Medical Centre,NA,1-199787437,1617485559,"130 Broadway, Davyhulme, Urmston, Manchester",M41 7WJ,Trafford,E08000009,53.459483,-2.366782
Davyhulme Medical Centre,NA,1-199787437,1617485559,"130 Broadway, Davyhulme, Urmston, Manchester",M41 7WJ,Trafford,E08000009,53.459483,-2.366782
Davyhulme Medical Centre,NA,1-199787437,1617485559,"130 Broadway, Davyhulme, Urmston, Manchester",M41 7WJ,Trafford,E08000009,53.459483,-2.366782
Davyhulme Medical Centre,NA,1-199787437,1617485559,"130 Broadway, Davyhulme, Urmston, Manchester",M41 7WJ,Trafford,E08000009,53.459483,-2.366782
Davyhulme Medical Centre,NA,1-199787437,1617485559,"130 Broadway, Davyhulme, Urmston, Manchester",M41 7WJ,Trafford,E08000009,53.459483,-2.366782
Davyhulme Medical Centre,NA,1-199787437,1617485559,"130 Broadway, Davyhulme, Urmston, Manchester",M41 7WJ,Trafford,E08000009,53.459483,-2.366782
Davyhulme Medical Centre,NA,1-199787437,1617485559,"130 Broadway, Davyhulme, Urmston, Manchester",M41 7WJ,Trafford,E08000009,53.459483,-2.366782
Davyhulme Medical Centre,NA,1-199787437,1617485559,"130 Broadway, Davyhulme, Urmston, Manchester",M41 7WJ,Trafford,E08000009,53.459483,-2.366782
Davyhulme Medical Centre,NA,1-199787437,1617485559,"130 Broadway, Davyhulme, Urmston, Manchester",M41 7WJ,Trafford,E08000009,53.459483,-2.366782
Davyhulme Medical Centre,NA,1-199787437,1617485559,"130 Broadway, Davyhulme, Urmston, Manchester",M41 7WJ,Trafford,E08000009,53.459483,-2.366782
Davyhulme Medical Centre,NA,1-199787437,1617485559,"130 Broadway, Davyhulme, Urmston, Manchester",M41 7WJ,Trafford,E08000009,53.459483,-2.366782
Davyhulme Medical Centre,NA,1-199787437,1617485559,"130 Broadway, Davyhulme, Urmston, Manchester",M41 7WJ,Trafford,E08000009,53.459483,-2.366782
Davyhulme Medical Centre,NA,1-199787437,1617485559,"130 Broadway, Davyhulme, Urmston, Manchester",M41 7WJ,Trafford,E08000009,53.459483,-2.366782
Davyhulme Medical Centre,NA,1-199787437,1617485559,"130 Broadway, Davyhulme, Urmston, Manchester",M41 7WJ,Trafford,E08000009,53.459483,-2.366782
Davyhulme Medical Centre,NA,1-199787437,1617485559,"130 Broadway, Davyhulme, Urmston, Manchester",M41 7WJ,Trafford,E08000009,53.459483,-2.366782
Davyhulme Medical Centre,NA,1-199787437,1617485559,"130 Broadway, Davyhulme, Urmston, Manchester",M41 7WJ,Trafford,E08000009,53.459483,-2.366782
Davyhulme Medical Centre,NA,1-199787437,1617485559,"130 Broadway, Davyhulme, Urmston, Manchester",M41 7WJ,Trafford,E08000009,53.459483,-2.366782
Davyhulme Medical Centre,NA,1-199787437,1617485559,"130 Broadway, Davyhulme, Urmston, Manchester",M41 7WJ,Trafford,E08000009,53.459483,-2.366782
Davyhulme Medical Centre,NA,1-199787437,1617485559,"130 Broadway, Davyhulme, Urmston, Manchester",M41 7WJ,Trafford,E08000009,53.459483,-2.366782
Davyhulme Medical Centre,NA,1-199787437,1617485559,"130 Broadway, Davyhulme, Urmston, Manchester",M41 7WJ,Trafford,E08000009,53.459483,-2.366782
Dr BN Macdonald & Partners,Barrington Medical Centre,1-199787623,1619289621,"68 Barrington Road, Altrincham",WA14 1JB,Trafford,E08000009,53.395191,-2.35098
Dr BN Macdonald & Partners,Barrington Medical Centre,1-199787623,1619289621,"68 Barrington Road, Altrincham",WA14 1JB,Trafford,E08000009,53.395191,-2.35098
Dr BN Macdonald & Partners,Barrington Medical Centre,1-199787623,1619289621,"68 Barrington Road, Altrincham",WA14 1JB,Trafford,E08000009,53.395191,-2.35098
Dr BN Macdonald & Partners,Barrington Medical Centre,1-199787623,1619289621,"68 Barrington Road, Altrincham",WA14 1JB,Trafford,E08000009,53.395191,-2.35098
Dr BN Macdonald & Partners,Barrington Medical Centre,1-199787623,1619289621,"68 Barrington Road, Altrincham",WA14 1JB,Trafford,E08000009,53.395191,-2.35098
Dr BN Macdonald & Partners,Barrington Medical Centre,1-199787623,1619289621,"68 Barrington Road, Altrincham",WA14 1JB,Trafford,E08000009,53.395191,-2.35098
Dr BN Macdonald & Partners,Barrington Medical Centre,1-199787623,1619289621,"68 Barrington Road, Altrincham",WA14 1JB,Trafford,E08000009,53.395191,-2.35098
Dr BN Macdonald & Partners,Barrington Medical Centre,1-199787623,1619289621,"68 Barrington Road, Altrincham",WA14 1JB,Trafford,E08000009,53.395191,-2.35098
Dr BN Macdonald & Partners,Barrington Medical Centre,1-199787623,1619289621,"68 Barrington Road, Altrincham",WA14 1JB,Trafford,E08000009,53.395191,-2.35098
Dr BN Macdonald & Partners,Barrington Medical Centre,1-199787623,1619289621,"68 Barrington Road, Altrincham",WA14 1JB,Trafford,E08000009,53.395191,-2.35098
Dr BN Macdonald & Partners,Barrington Medical Centre,1-199787623,1619289621,"68 Barrington Road, Altrincham",WA14 1JB,Trafford,E08000009,53.395191,-2.35098
Dr BN Macdonald & Partners,Barrington Medical Centre,1-199787623,1619289621,"68 Barrington Road, Altrincham",WA14 1JB,Trafford,E08000009,53.395191,-2.35098
Dr BN Macdonald & Partners,Barrington Medical Centre,1-199787623,1619289621,"68 Barrington Road, Altrincham",WA14 1JB,Trafford,E08000009,53.395191,-2.35098
Dr BN Macdonald & Partners,Barrington Medical Centre,1-199787623,1619289621,"68 Barrington Road, Altrincham",WA14 1JB,Trafford,E08000009,53.395191,-2.35098
Dr BN Macdonald & Partners,Barrington Medical Centre,1-199787623,1619289621,"68 Barrington Road, Altrincham",WA14 1JB,Trafford,E08000009,53.395191,-2.35098
Dr BN Macdonald & Partners,Barrington Medical Centre,1-199787623,1619289621,"68 Barrington Road, Altrincham",WA14 1JB,Trafford,E08000009,53.395191,-2.35098
Dr BN Macdonald & Partners,Barrington Medical Centre,1-199787623,1619289621,"68 Barrington Road, Altrincham",WA14 1JB,Trafford,E08000009,53.395191,-2.35098
Dr BN Macdonald & Partners,Barrington Medical Centre,1-199787623,1619289621,"68 Barrington Road, Altrincham",WA14 1JB,Trafford,E08000009,53.395191,-2.35098
Dr BN Macdonald & Partners,Barrington Medical Centre,1-199787623,1619289621,"68 Barrington Road, Altrincham",WA14 1JB,Trafford,E08000009,53.395191,-2.35098
Dr BN Macdonald & Partners,Barrington Medical Centre,1-199787623,1619289621,"68 Barrington Road, Altrincham",WA14 1JB,Trafford,E08000009,53.395191,-2.35098
Dr BN Macdonald & Partners,Barrington Medical Centre,1-199787623,1619289621,"68 Barrington Road, Altrincham",WA14 1JB,Trafford,E08000009,53.395191,-2.35098
Flixton Road Medical Centre,NA,1-199787574,1617482021,"132 Flixton Road, Urmston, Manchester",M41 5BG,Trafford,E08000009,53.448267,-2.362664
Flixton Road Medical Centre,NA,1-199787574,1617482021,"132 Flixton Road, Urmston, Manchester",M41 5BG,Trafford,E08000009,53.448267,-2.362664
Flixton Road Medical Centre,NA,1-199787574,1617482021,"132 Flixton Road, Urmston, Manchester",M41 5BG,Trafford,E08000009,53.448267,-2.362664
Flixton Road Medical Centre,NA,1-199787574,1617482021,"132 Flixton Road, Urmston, Manchester",M41 5BG,Trafford,E08000009,53.448267,-2.362664
Flixton Road Medical Centre,NA,1-199787574,1617482021,"132 Flixton Road, Urmston, Manchester",M41 5BG,Trafford,E08000009,53.448267,-2.362664
Flixton Road Medical Centre,NA,1-199787574,1617482021,"132 Flixton Road, Urmston, Manchester",M41 5BG,Trafford,E08000009,53.448267,-2.362664
Flixton Road Medical Centre,NA,1-199787574,1617482021,"132 Flixton Road, Urmston, Manchester",M41 5BG,Trafford,E08000009,53.448267,-2.362664
Flixton Road Medical Centre,NA,1-199787574,1617482021,"132 Flixton Road, Urmston, Manchester",M41 5BG,Trafford,E08000009,53.448267,-2.362664
Flixton Road Medical Centre,NA,1-199787574,1617482021,"132 Flixton Road, Urmston, Manchester",M41 5BG,Trafford,E08000009,53.448267,-2.362664
Flixton Road Medical Centre,NA,1-199787574,1617482021,"132 Flixton Road, Urmston, Manchester",M41 5BG,Trafford,E08000009,53.448267,-2.362664
Flixton Road Medical Centre,NA,1-199787574,1617482021,"132 Flixton Road, Urmston, Manchester",M41 5BG,Trafford,E08000009,53.448267,-2.362664
Flixton Road Medical Centre,NA,1-199787574,1617482021,"132 Flixton Road, Urmston, Manchester",M41 5BG,Trafford,E08000009,53.448267,-2.362664
Flixton Road Medical Centre,NA,1-199787574,1617482021,"132 Flixton Road, Urmston, Manchester",M41 5BG,Trafford,E08000009,53.448267,-2.362664
Flixton Road Medical Centre,NA,1-199787574,1617482021,"132 Flixton Road, Urmston, Manchester",M41 5BG,Trafford,E08000009,53.448267,-2.362664
Flixton Road Medical Centre,NA,1-199787574,1617482021,"132 Flixton Road, Urmston, Manchester",M41 5BG,Trafford,E08000009,53.448267,-2.362664
Flixton Road Medical Centre,NA,1-199787574,1617482021,"132 Flixton Road, Urmston, Manchester",M41 5BG,Trafford,E08000009,53.448267,-2.362664
Flixton Road Medical Centre,NA,1-199787574,1617482021,"132 Flixton Road, Urmston, Manchester",M41 5BG,Trafford,E08000009,53.448267,-2.362664
Flixton Road Medical Centre,NA,1-199787574,1617482021,"132 Flixton Road, Urmston, Manchester",M41 5BG,Trafford,E08000009,53.448267,-2.362664
Flixton Road Medical Centre,NA,1-199787574,1617482021,"132 Flixton Road, Urmston, Manchester",M41 5BG,Trafford,E08000009,53.448267,-2.362664
Flixton Road Medical Centre,NA,1-199787574,1617482021,"132 Flixton Road, Urmston, Manchester",M41 5BG,Trafford,E08000009,53.448267,-2.362664
Flixton Road Medical Centre,NA,1-199787574,1617482021,"132 Flixton Road, Urmston, Manchester",M41 5BG,Trafford,E08000009,53.448267,-2.362664
West Timperley Medical Centre,NA,1-199787485,1619291515,"21 Dawson Road, West Timperley, Altrincham",WA14 5PF,Trafford,E08000009,53.402699,-2.353117
West Timperley Medical Centre,NA,1-199787485,1619291515,"21 Dawson Road, West Timperley, Altrincham",WA14 5PF,Trafford,E08000009,53.402699,-2.353117
West Timperley Medical Centre,NA,1-199787485,1619291515,"21 Dawson Road, West Timperley, Altrincham",WA14 5PF,Trafford,E08000009,53.402699,-2.353117
West Timperley Medical Centre,NA,1-199787485,1619291515,"21 Dawson Road, West Timperley, Altrincham",WA14 5PF,Trafford,E08000009,53.402699,-2.353117
West Timperley Medical Centre,NA,1-199787485,1619291515,"21 Dawson Road, West Timperley, Altrincham",WA14 5PF,Trafford,E08000009,53.402699,-2.353117
West Timperley Medical Centre,NA,1-199787485,1619291515,"21 Dawson Road, West Timperley, Altrincham",WA14 5PF,Trafford,E08000009,53.402699,-2.353117
West Timperley Medical Centre,NA,1-199787485,1619291515,"21 Dawson Road, West Timperley, Altrincham",WA14 5PF,Trafford,E08000009,53.402699,-2.353117
West Timperley Medical Centre,NA,1-199787485,1619291515,"21 Dawson Road, West Timperley, Altrincham",WA14 5PF,Trafford,E08000009,53.402699,-2.353117
West Timperley Medical Centre,NA,1-199787485,1619291515,"21 Dawson Road, West Timperley, Altrincham",WA14 5PF,Trafford,E08000009,53.402699,-2.353117
West Timperley Medical Centre,NA,1-199787485,1619291515,"21 Dawson Road, West Timperley, Altrincham",WA14 5PF,Trafford,E08000009,53.402699,-2.353117
West Timperley Medical Centre,NA,1-199787485,1619291515,"21 Dawson Road, West Timperley, Altrincham",WA14 5PF,Trafford,E08000009,53.402699,-2.353117
West Timperley Medical Centre,NA,1-199787485,1619291515,"21 Dawson Road, West Timperley, Altrincham",WA14 5PF,Trafford,E08000009,53.402699,-2.353117
West Timperley Medical Centre,NA,1-199787485,1619291515,"21 Dawson Road, West Timperley, Altrincham",WA14 5PF,Trafford,E08000009,53.402699,-2.353117
West Timperley Medical Centre,NA,1-199787485,1619291515,"21 Dawson Road, West Timperley, Altrincham",WA14 5PF,Trafford,E08000009,53.402699,-2.353117
West Timperley Medical Centre,NA,1-199787485,1619291515,"21 Dawson Road, West Timperley, Altrincham",WA14 5PF,Trafford,E08000009,53.402699,-2.353117
West Timperley Medical Centre,NA,1-199787485,1619291515,"21 Dawson Road, West Timperley, Altrincham",WA14 5PF,Trafford,E08000009,53.402699,-2.353117
West Timperley Medical Centre,NA,1-199787485,1619291515,"21 Dawson Road, West Timperley, Altrincham",WA14 5PF,Trafford,E08000009,53.402699,-2.353117
West Timperley Medical Centre,NA,1-199787485,1619291515,"21 Dawson Road, West Timperley, Altrincham",WA14 5PF,Trafford,E08000009,53.402699,-2.353117
West Timperley Medical Centre,NA,1-199787485,1619291515,"21 Dawson Road, West Timperley, Altrincham",WA14 5PF,Trafford,E08000009,53.402699,-2.353117
West Timperley Medical Centre,NA,1-199787485,1619291515,"21 Dawson Road, West Timperley, Altrincham",WA14 5PF,Trafford,E08000009,53.402699,-2.353117
West Timperley Medical Centre,NA,1-199787485,1619291515,"21 Dawson Road, West Timperley, Altrincham",WA14 5PF,Trafford,E08000009,53.402699,-2.353117
Gorse Hill Medical Centre,NA,1-199787652,1618642496,"879 Chester Road, Stretford, Manchester",M32 0RN,Trafford,E08000009,53.455651,-2.296647
Gorse Hill Medical Centre,NA,1-199787652,1618642496,"879 Chester Road, Stretford, Manchester",M32 0RN,Trafford,E08000009,53.455651,-2.296647
Gorse Hill Medical Centre,NA,1-199787652,1618642496,"879 Chester Road, Stretford, Manchester",M32 0RN,Trafford,E08000009,53.455651,-2.296647
Gorse Hill Medical Centre,NA,1-199787652,1618642496,"879 Chester Road, Stretford, Manchester",M32 0RN,Trafford,E08000009,53.455651,-2.296647
Gorse Hill Medical Centre,NA,1-199787652,1618642496,"879 Chester Road, Stretford, Manchester",M32 0RN,Trafford,E08000009,53.455651,-2.296647
Gorse Hill Medical Centre,NA,1-199787652,1618642496,"879 Chester Road, Stretford, Manchester",M32 0RN,Trafford,E08000009,53.455651,-2.296647
Gorse Hill Medical Centre,NA,1-199787652,1618642496,"879 Chester Road, Stretford, Manchester",M32 0RN,Trafford,E08000009,53.455651,-2.296647
Gorse Hill Medical Centre,NA,1-199787652,1618642496,"879 Chester Road, Stretford, Manchester",M32 0RN,Trafford,E08000009,53.455651,-2.296647
Gorse Hill Medical Centre,NA,1-199787652,1618642496,"879 Chester Road, Stretford, Manchester",M32 0RN,Trafford,E08000009,53.455651,-2.296647
Gorse Hill Medical Centre,NA,1-199787652,1618642496,"879 Chester Road, Stretford, Manchester",M32 0RN,Trafford,E08000009,53.455651,-2.296647
Gorse Hill Medical Centre,NA,1-199787652,1618642496,"879 Chester Road, Stretford, Manchester",M32 0RN,Trafford,E08000009,53.455651,-2.296647
Gorse Hill Medical Centre,NA,1-199787652,1618642496,"879 Chester Road, Stretford, Manchester",M32 0RN,Trafford,E08000009,53.455651,-2.296647
Gorse Hill Medical Centre,NA,1-199787652,1618642496,"879 Chester Road, Stretford, Manchester",M32 0RN,Trafford,E08000009,53.455651,-2.296647
Gorse Hill Medical Centre,NA,1-199787652,1618642496,"879 Chester Road, Stretford, Manchester",M32 0RN,Trafford,E08000009,53.455651,-2.296647
Gorse Hill Medical Centre,NA,1-199787652,1618642496,"879 Chester Road, Stretford, Manchester",M32 0RN,Trafford,E08000009,53.455651,-2.296647
Gorse Hill Medical Centre,NA,1-199787652,1618642496,"879 Chester Road, Stretford, Manchester",M32 0RN,Trafford,E08000009,53.455651,-2.296647
Gorse Hill Medical Centre,NA,1-199787652,1618642496,"879 Chester Road, Stretford, Manchester",M32 0RN,Trafford,E08000009,53.455651,-2.296647
Gorse Hill Medical Centre,NA,1-199787652,1618642496,"879 Chester Road, Stretford, Manchester",M32 0RN,Trafford,E08000009,53.455651,-2.296647
Gorse Hill Medical Centre,NA,1-199787652,1618642496,"879 Chester Road, Stretford, Manchester",M32 0RN,Trafford,E08000009,53.455651,-2.296647
Gorse Hill Medical Centre,NA,1-199787652,1618642496,"879 Chester Road, Stretford, Manchester",M32 0RN,Trafford,E08000009,53.455651,-2.296647
Gorse Hill Medical Centre,NA,1-199787652,1618642496,"879 Chester Road, Stretford, Manchester",M32 0RN,Trafford,E08000009,53.455651,-2.296647
Lostock Medical Centre,NA,1-199787701,1618651100,"431 Barton Road, Stretford, Manchester",M32 9PA,Trafford,E08000009,53.45458,-2.328128
Lostock Medical Centre,NA,1-199787701,1618651100,"431 Barton Road, Stretford, Manchester",M32 9PA,Trafford,E08000009,53.45458,-2.328128
Lostock Medical Centre,NA,1-199787701,1618651100,"431 Barton Road, Stretford, Manchester",M32 9PA,Trafford,E08000009,53.45458,-2.328128
Lostock Medical Centre,NA,1-199787701,1618651100,"431 Barton Road, Stretford, Manchester",M32 9PA,Trafford,E08000009,53.45458,-2.328128
Lostock Medical Centre,NA,1-199787701,1618651100,"431 Barton Road, Stretford, Manchester",M32 9PA,Trafford,E08000009,53.45458,-2.328128
Lostock Medical Centre,NA,1-199787701,1618651100,"431 Barton Road, Stretford, Manchester",M32 9PA,Trafford,E08000009,53.45458,-2.328128
Lostock Medical Centre,NA,1-199787701,1618651100,"431 Barton Road, Stretford, Manchester",M32 9PA,Trafford,E08000009,53.45458,-2.328128
Lostock Medical Centre,NA,1-199787701,1618651100,"431 Barton Road, Stretford, Manchester",M32 9PA,Trafford,E08000009,53.45458,-2.328128
Lostock Medical Centre,NA,1-199787701,1618651100,"431 Barton Road, Stretford, Manchester",M32 9PA,Trafford,E08000009,53.45458,-2.328128
Lostock Medical Centre,NA,1-199787701,1618651100,"431 Barton Road, Stretford, Manchester",M32 9PA,Trafford,E08000009,53.45458,-2.328128
Lostock Medical Centre,NA,1-199787701,1618651100,"431 Barton Road, Stretford, Manchester",M32 9PA,Trafford,E08000009,53.45458,-2.328128
Lostock Medical Centre,NA,1-199787701,1618651100,"431 Barton Road, Stretford, Manchester",M32 9PA,Trafford,E08000009,53.45458,-2.328128
Lostock Medical Centre,NA,1-199787701,1618651100,"431 Barton Road, Stretford, Manchester",M32 9PA,Trafford,E08000009,53.45458,-2.328128
Lostock Medical Centre,NA,1-199787701,1618651100,"431 Barton Road, Stretford, Manchester",M32 9PA,Trafford,E08000009,53.45458,-2.328128
Lostock Medical Centre,NA,1-199787701,1618651100,"431 Barton Road, Stretford, Manchester",M32 9PA,Trafford,E08000009,53.45458,-2.328128
Lostock Medical Centre,NA,1-199787701,1618651100,"431 Barton Road, Stretford, Manchester",M32 9PA,Trafford,E08000009,53.45458,-2.328128
Lostock Medical Centre,NA,1-199787701,1618651100,"431 Barton Road, Stretford, Manchester",M32 9PA,Trafford,E08000009,53.45458,-2.328128
Lostock Medical Centre,NA,1-199787701,1618651100,"431 Barton Road, Stretford, Manchester",M32 9PA,Trafford,E08000009,53.45458,-2.328128
Lostock Medical Centre,NA,1-199787701,1618651100,"431 Barton Road, Stretford, Manchester",M32 9PA,Trafford,E08000009,53.45458,-2.328128
Lostock Medical Centre,NA,1-199787701,1618651100,"431 Barton Road, Stretford, Manchester",M32 9PA,Trafford,E08000009,53.45458,-2.328128
Lostock Medical Centre,NA,1-199787701,1618651100,"431 Barton Road, Stretford, Manchester",M32 9PA,Trafford,E08000009,53.45458,-2.328128
North Trafford Group Practice,NA,1-199787711,1618655556,"864 866 Chester Road, Stretford, Manchester",M32 0PA,Trafford,E08000009,53.453882,-2.299481
North Trafford Group Practice,NA,1-199787711,1618655556,"864 866 Chester Road, Stretford, Manchester",M32 0PA,Trafford,E08000009,53.453882,-2.299481
North Trafford Group Practice,NA,1-199787711,1618655556,"864 866 Chester Road, Stretford, Manchester",M32 0PA,Trafford,E08000009,53.453882,-2.299481
North Trafford Group Practice,NA,1-199787711,1618655556,"864 866 Chester Road, Stretford, Manchester",M32 0PA,Trafford,E08000009,53.453882,-2.299481
North Trafford Group Practice,NA,1-199787711,1618655556,"864 866 Chester Road, Stretford, Manchester",M32 0PA,Trafford,E08000009,53.453882,-2.299481
North Trafford Group Practice,NA,1-199787711,1618655556,"864 866 Chester Road, Stretford, Manchester",M32 0PA,Trafford,E08000009,53.453882,-2.299481
North Trafford Group Practice,NA,1-199787711,1618655556,"864 866 Chester Road, Stretford, Manchester",M32 0PA,Trafford,E08000009,53.453882,-2.299481
North Trafford Group Practice,NA,1-199787711,1618655556,"864 866 Chester Road, Stretford, Manchester",M32 0PA,Trafford,E08000009,53.453882,-2.299481
North Trafford Group Practice,NA,1-199787711,1618655556,"864 866 Chester Road, Stretford, Manchester",M32 0PA,Trafford,E08000009,53.453882,-2.299481
North Trafford Group Practice,NA,1-199787711,1618655556,"864 866 Chester Road, Stretford, Manchester",M32 0PA,Trafford,E08000009,53.453882,-2.299481
North Trafford Group Practice,NA,1-199787711,1618655556,"864 866 Chester Road, Stretford, Manchester",M32 0PA,Trafford,E08000009,53.453882,-2.299481
North Trafford Group Practice,NA,1-199787711,1618655556,"864 866 Chester Road, Stretford, Manchester",M32 0PA,Trafford,E08000009,53.453882,-2.299481
North Trafford Group Practice,NA,1-199787711,1618655556,"864 866 Chester Road, Stretford, Manchester",M32 0PA,Trafford,E08000009,53.453882,-2.299481
North Trafford Group Practice,NA,1-199787711,1618655556,"864 866 Chester Road, Stretford, Manchester",M32 0PA,Trafford,E08000009,53.453882,-2.299481
North Trafford Group Practice,NA,1-199787711,1618655556,"864 866 Chester Road, Stretford, Manchester",M32 0PA,Trafford,E08000009,53.453882,-2.299481
North Trafford Group Practice,NA,1-199787711,1618655556,"864 866 Chester Road, Stretford, Manchester",M32 0PA,Trafford,E08000009,53.453882,-2.299481
North Trafford Group Practice,NA,1-199787711,1618655556,"864 866 Chester Road, Stretford, Manchester",M32 0PA,Trafford,E08000009,53.453882,-2.299481
North Trafford Group Practice,NA,1-199787711,1618655556,"864 866 Chester Road, Stretford, Manchester",M32 0PA,Trafford,E08000009,53.453882,-2.299481
North Trafford Group Practice,NA,1-199787711,1618655556,"864 866 Chester Road, Stretford, Manchester",M32 0PA,Trafford,E08000009,53.453882,-2.299481
North Trafford Group Practice,NA,1-199787711,1618655556,"864 866 Chester Road, Stretford, Manchester",M32 0PA,Trafford,E08000009,53.453882,-2.299481
North Trafford Group Practice,NA,1-199787711,1618655556,"864 866 Chester Road, Stretford, Manchester",M32 0PA,Trafford,E08000009,53.453882,-2.299481
