id,name,address,postcode,area_code,area_name,lon,lat
6065,Heald Place Primary School,"entrance on Parkfield Street, Rusholme, Manchester",M14 7PE,E08000003,Manchester,-2.230923,53.452039
6047,Arawak Walton Housing Association,"Sycamore Court, 144 Sandal Street, Manchester",M40 7BS,E08000003,Manchester,-2.205117,53.490296
6163,English Martyr's Parish Centre,"Alexandra Road South, Whalley Range, Manchester",M16 8GF,E08000003,Manchester,-2.251054,53.446686
5896,Wilbraham Primary School,"Platt Lane, Fallowfield, Manchester",M14 7FB,E08000003,Manchester,-2.237369,53.44684
5752,Ukrainian Cultural Centre,"31 Smedley Lane, Cheetham, Manchester",M8 8XB,E08000003,Manchester,-2.232127,53.504250999999996
6006,St Peters Church,"Stockport Road/Barlow Road, Levenshulme, Manchester",M19 3BS,E08000003,Manchester,-2.19117,53.445449000000004
5621,Victoria Square,"Community Room, Oldham Road, Manchester",M4 5DX,E08000003,Manchester,-2.229267,53.485704
5804,Wilbraham St Ninians Church,"Egerton Road South, Chorlton-Cum-Hardy, Manchester",M21 0XJ,E08000003,Manchester,-2.269116,53.441056
5900,Union Chapel,"Wellington Road, entrance on Waller Avenue, Fallowfield, Manchester",M14 6EQ,E08000003,Manchester,-2.223191,53.442077
6015,Northmoor Road Methodist Church,"Northmoor Road, Longsight, Manchester",M12 5RT,E08000003,Manchester,-2.192541,53.455712
6138,St Johns CE Primary School,"Clarence Road, Longsight, Manchester",M13 0YE,E08000003,Manchester,-2.206529,53.458304
5801,Community Centre,"23 Mersey Bank Avenue, Barlow Moor, Manchester",M21 7NT,E08000003,Manchester,-2.262092,53.422555
5881,Christ Church Parish Hall,"Princess Road, entrance on Darley Avenue, West Didsbury, Manchester",M20 2ZD,E08000003,Manchester,-2.255864,53.422731
5828,Crumpsall Lane Primary School - Nursery,"Crumpsall Lane, Manchester",M8 5SR,E08000003,Manchester,-2.238958,53.517873
6141,St Lukes Parish Hall,"Brownley Road, Benchill, Wythenshawe, Manchester",M22 4PT,E08000003,Manchester,-2.255046,53.389295
5884,St James and Emmanuel Church Parish Centre,"6 Barlow Moor Road, Didsbury, Manchester",M20 6TR,E08000003,Manchester,-2.233736,53.418569
6009,St Marks Church,"Barlow Road, Levenshulme, Manchester",M19 3HP,E08000003,Manchester,-2.179036,53.445738
5773,Chorlton Library,"Manchester Road, Chorlton, Manchester",M21 9PN,E08000003,Manchester,-2.279043,53.444269
5927,Abbey Hey Primary Academy,"Abbey Hey Lane, Gorton, Manchester",M18 8PF,E08000003,Manchester,-2.165392,53.46413
5820,Clayton Sure Start Childrens Centre,"101 North Road, Clayton, Manchester",M11 4NE,E08000003,Manchester,-2.180346,53.484898
6169,Manley Park Primary School,"York Avenue, Whalley Range, Manchester",M16 0AS,E08000003,Manchester,-2.268342,53.449597
5854,St Cuthbert's RC Primary School,"Heyscroft Road, Withington, Manchester",M20 4UZ,E08000003,Manchester,-2.221425,53.429703
5857,Didsbury Baptist Church,"Beaver Road / School Lane, Didsbury, Manchester",M20 6SX,E08000003,Manchester,-2.228901,53.417662
5841,GMT Whitehouse Club,"193 Middleton Road, Crumpsall, Manchester",M8 4JZ,E08000003,Manchester,-2.249399,53.52382
5682,Sandilands Primary School,"Infant Department, Wendover Road, Brooklands, Manchester",M23 9JX,E08000003,Manchester,-2.308835,53.402462
5776,Chorlton Unitarian Church,"Wilbraham Road, entrance via Car Park, Manchester",M21 9LB,E08000003,Manchester,-2.285507,53.442834
5915,Old Hall Drive Academy,"Old Hall Drive, Gorton, Manchester",M18 7FU,E08000003,Manchester,-2.170639,53.458109
6107,St Christophers Parish Hall,"Moorgate Avenue, Withington, Manchester",M20 1HE,E08000003,Manchester,-2.245978,53.433304
5975,Temporary Building,"Riverdale Road, Blackley, Manchester",M9 8JX,E08000003,Manchester,-2.235595,53.526068
6132,38 Meldon Road,"Anson Estate, Rusholme, Manchester",M13 0TR,E08000003,Manchester,-2.203902,53.450587
5798,Barlow Hall Primary School,"Darley Avenue, Chorton-cum-Hardy, Manchester",M21 7JG,E08000003,Manchester,-2.269786,53.427993
5982,St Wilfrid's Enterprise Centre,"Royce Road, Hulme, Manchester",M15 5BJ,E08000003,Manchester,-2.253399,53.468811
5755,Cheetham CE Community Academy,"Halliwell Lane, Cheetham, Manchester",M8 9FR,E08000003,Manchester,-2.24555,53.507685
6145,Crossacres Primary School,"Crossacres Road, Wythenshawe, Manchester",M22 5AD,E08000003,Manchester,-2.245303,53.386682
5738,St Mary's C.E. Primary School,"St Mary's Road, Moston, Manchester",M40 0DF,E08000003,Manchester,-2.178658,53.517007
6190,St Marks URC,"Oatlands Road, Woodhouse Park, Manchester",M22 1AH,E08000003,Manchester,-2.267716,53.376342
6193,St Anthony's Parish Centre,"Portway, Manchester",M22 0WR,E08000003,Manchester,-2.259032,53.372127
5960,Glenbrook Road Hall,"Glenbrook Road, Higher Blackley, Manchester",M9 0PQ,E08000003,Manchester,-2.239941,53.534436
5906,Owens Park,"293 Wilmslow Road, Fallowfield, Manchester",M14 6HX,E08000003,Manchester,-2.217371,53.443292
5664,Sacred Heart Catholic Primary School,"Floatshall Road, Baguley, Manchester",M23 1HP,E08000003,Manchester,-2.289483,53.396524
6027,Belle Vue Leisure Centre,"Kirkmanshulme Lane, Longsight, Manchester",M12 4TF,E08000003,Manchester,-2.191432,53.460289
5890,Didsbury United Reformed Church,"Parkfield Road South, Didsbury, Manchester",M20 6DA,E08000003,Manchester,-2.238809,53.421687
6129,Birch Community Centre,"Brighton Grove, entrance on Danes Road, Rusholme, Manchester",M14 5JT,E08000003,Manchester,-2.2156,53.450405
6044,The Stirling Centre,"Scotland Hall Road, Manchester",M40 2AZ,E08000003,Manchester,-2.180201,53.49324
5848,Castlefield Hotel,"Liverpool Road, Manchester",M3 4JR,E08000003,Manchester,-2.25688,53.476516
5694,Church of the Nazarene,"Wendover Road, Brooklands, Manchester",M23 9FN,E08000003,Manchester,-2.304567,53.405044
5994,Levenshulme Baptist Church,"Elmsworth Avenue, Manchester",M19 3NS,E08000003,Manchester,-2.185181,53.442816
6160,Our Lady's RC Primary School,"Whalley Road, Whalley Range, Manchester",M16 8AW,E08000003,Manchester,-2.265457,53.452911
6330,Hulme Hall,"Oxford Place, Victoria Park, Manchester",M14 5RR,E08000003,Manchester,-2.223498,53.457581
6184,Woodhouse Park Lifestyle Centre,"Portway, Woodhouse Park, Manchester",M22 1QW,E08000003,Manchester,-2.273337,53.373911
6119,Manchester College,"Shena Simon Campus, Whitworth Street, (entrance on Chorlton Street), Manchester",M1 3HB,E08000003,Manchester,-2.234824,53.476678
5676,Word Of Life Community Church,"formerly known as St Francis Community Centre, Chalford Road, Newall Green, Manchester",M23 2RD,E08000003,Manchester,-2.283163,53.384692
5749,Moston Fields Primary School,"Croft Hill Road / Tyndall Avenue, Moston, Manchester",M40 9PP,E08000003,Manchester,-2.193966,53.517038
5712,Westcroft Community Centre,"26 Westcroft Road, Burnage, Manchester",M20 6EF,E08000003,Manchester,-2.215681,53.42477
5838,Cravenwood Primary Academy,"Cravenwood Road, Crumpsall, Manchester",M8 5AE,E08000003,Manchester,-2.241529,53.513913
5758,Unity Community Primary School,"formely known as Cheetwood Centre, 41 Allesley Drive, Manchester",M7 4YE,E08000003,Manchester,-2.249223,53.501556
5969,Plant Hill Adult Learning Centre,"Plant Hill Road, Higher Blackley, Manchester",M9 0WQ,E08000003,Manchester,-2.22249,53.529679
5720,Crosslee Primary School,"Crosslee Road, Blackley, Manchester",M9 6TG,E08000003,Manchester,-2.196436,53.529446
5659,Royal Oak Community Centre,"Brookcot Road, Manchester",M23 1DY,E08000003,Manchester,-2.290356,53.398787
5673,Newall Green Primary School,"Firbank Road, Manchester",M23 2YH,E08000003,Manchester,-2.27942,53.387083
5887,Ivy Manchester Church,"Barlow Moor Road, Didsbury, Manchester",M20 2GP,E08000003,Manchester,-2.238375,53.41954
5644,St Joseph's RC Primary School,"Nursery Annexe, entrance on Daisy Bank Road, Longsight, Manchester",M13 0BT,E08000003,Manchester,-2.208961,53.459684
6059,Whalley Range Methodist Church,"51 Withington Road, Moss Side, Manchester",M16 7EX,E08000003,Manchester,-2.258035,53.455741
5912,Divine Mercy RC Primary School,"20 Blue Moon Way, Moss Side, Manchester",M14 7SH,E08000003,Manchester,-2.235824,53.450788
5788,St Werburgh's Church Hall,"St Werburghs Road, Manchester",M21 0TJ,E08000003,Manchester,-2.267753,53.444592
5629,CE School of the Resurrection,"Pilgrim Drive, Beswick, Manchester",M11 3TQ,E08000003,Manchester,-2.200666,53.479671
5785,St John's Parish Centre,"Chequers Road, Chorlton-Cum-Hardy, Manchester",M21 9DX,E08000003,Manchester,-2.278858,53.439029
6098,Jimmy Egans Boxing Academy,"Royalthorn Road, Benchill, Manchester",M22 8AD,E08000003,Manchester,-2.260669,53.394119
6113,Withington Girlsâ€™ School,"100 Wellington Road, Fallowfield, Manchester",M14 6BL,E08000003,Manchester,-2.22518,53.439502
5869,East Didsbury Methodist Church Hall,"496 Parrs Wood Road, East Didsbury, Manchester",M20 5QQ,E08000003,Manchester,-2.226179,53.40671
5647,Coverdale Baptist Church,"Morbourne Close, Ardwick, Manchester",M12 4FG,E08000003,Manchester,-2.214481,53.467377
5656,Active Lifestyle Centre,"Denmark Road, Moss Side, Manchester",M15 6FG,E08000003,Manchester,-2.233332,53.4605
5726,Chain Bar Methodist Hall,"Nina Drive, Moston, Manchester",M40 5RT,E08000003,Manchester,-2.178433,53.524405
5834,St Thomas with St Mark Church,"Junction of Chataway Road, and Hazelbottom Road, Lower Crumpsall, Manchester",M8 5UX,E08000003,Manchester,-2.224686,53.511366
5976,Bowker Vale Primary School,"Middleton Road, Crumpsall, Manchester",M8 4NB,E08000003,Manchester,-2.244919,53.531631
5706,St Bernard's Parish Centre,"Burnage Lane, Manchester",M19 1DR,E08000003,Manchester,-2.201526,53.429494
6123,Central Hall,"Oldham Street, Manchester",M1 1JQ,E08000003,Manchester,-2.236058,53.481898
5667,Baguley Hall Primary School,"Ackworth Drive, Baguley, Manchester",M23 1LB,E08000003,Manchester,-2.285933,53.394142
5797,Chorlton Park Primary School,"Mauldeth Road West, Manchester",M21 7HH,E08000003,Manchester,-2.270316,53.433269
5878,Fielden Campus,"The Manchester College, Barlow Moor Road, West Didsbury, Manchester",M20 2PQ,E08000003,Manchester,-2.247432,53.421841
6050,Our Lady's Parish Centre,"Raby Street, Moss Side, Manchester",M16 7JQ,E08000003,Manchester,-2.2477,53.457641
6104,West View Court,"Community Room, West View Road, Northenden, Manchester",M22 4LQ,E08000003,Manchester,-2.248743,53.404256
5924,Gorton North Sure Start Centre (St James Site),"Stelling Street, Gorton, Manchester",M18 8LW,E08000003,Manchester,-2.171237,53.464409
5817,St Clement`s Church,"Ashton Old Road, Manchester",M11 1HF,E08000003,Manchester,-2.158918,53.473082
6062,The Phil Martin Centre,"137-139 Princess Road, Moss Side, Manchester",M14 4RE,E08000003,Manchester,-2.244746,53.454663
5679,Newall Green Baptist Church,"Tuffley Road, Newall Green, Manchester",M23 2SW,E08000003,Manchester,-2.282786,53.382212
6021,St Agnes CE Primary School,"Hamilton Road, Longsight, Manchester",M13 0PE,E08000003,Manchester,-2.200998,53.454215
5997,St Andrew's Scout HQ,"Kirk Road, Levenshulme, Manchester",M19 2RH,E08000003,Manchester,-2.183722,53.436167
5770,Oswald Road Primary School,"Oswald Road, entrance off Nicolas Road, Chorlton, Manchester",M21 9PL,E08000003,Manchester,-2.279215,53.445267
6080,Broadhurst Primary School,"Williams Road, Moston, Manchester",M40 0BX,E08000003,Manchester,-2.179389,53.507982
5717,Acacias Primary School,"Alexandra Drive, Burnage, Manchester",M19 2WW,E08000003,Manchester,-2.199168,53.436591
5779,Brookburn Primary School,"Brookburn Road, Chorlton-Cum-Hardy, Manchester",M21 8EH,E08000003,Manchester,-2.282676,53.435783
5921,Gorton Library,"Garratt Way, Gorton, Manchester",M18 8HE,E08000003,Manchester,-2.176031,53.461982
6116,Withington Adult Education Centre,"Near Withington Baths, 24A Burton Road, Withington, Manchester",M20 3ED,E08000003,Manchester,-2.231167,53.433262
6083,Moston Methodist Church,"corner of Ilkley Street and Moston Lane, Moston, Manchester",M40 9PA,E08000003,Manchester,-2.194344,53.513936
5688,St Aidan's Centre,"230a Wythenshawe Road, entrance on Northolt Road, Northern Moor, Manchester",M23 0PH,E08000003,Manchester,-2.285109,53.408049
5650,St Luke's Church and Neighbourhood Centre,"Guide Post Road, Ardwick, Manchester",M13 9HP,E08000003,Manchester,-2.215629,53.465261
5641,Armitage CE Primary School,"Rostron Avenue, off Bennett Street, Ardwick, Manchester",M12 5NP,E08000003,Manchester,-2.205898,53.467896
6071,Moston Children's Centre,"Adrian Street, Moston, Manchester",M40 5EA,E08000003,Manchester,-2.192775,53.507206
5936,Mount Carmel RC Primary School,"Nursery Block, Hunt Street, off Russett Road, Blackley, Manchester",M9 8BL,E08000003,Manchester,-2.215182,53.516543
5872,Christ Church UR Church,"Parrs Wood Road, Corner of Fog Lane, Didsbury, Manchester",M20 6EE,E08000003,Manchester,-2.217721,53.423463
5767,Park Inn Hotel,"4 Cheetham Hill Road, Cheetham, Manchester",M4 4EW,E08000003,Manchester,-2.241059,53.489546
5945,St Augustine's CE Primary School,"St Augustine Street, Monsall, Manchester",M40 8PL,E08000003,Manchester,-2.211282,53.499427
5635,Medlock Primary School,"Wadeson Road, Chorlton-on-Medlock, Manchester",M13 9UJ,E08000003,Manchester,-2.224542,53.469786
5918,Emmanuel Church Hall,"Blackwin Street, West Gorton, Manchester",M12 5LD,E08000003,Manchester,-2.188604,53.467664
5866,Broad Oak Primary School,"Broad Oak Lane, East Didsbury, Manchester",M20 5QB,E08000003,Manchester,-2.227511,53.402528
5732,St Margaret Mary's Church Hall,"St Margaret's Road, New Moston, Manchester",M40 0JE,E08000003,Manchester,-2.172328,53.525403
6144,Wythenshawe Campus - Manchester College,"Brownley Road, Wythenshawe, Manchester",M22 9UH,E08000003,Manchester,-2.255632,53.386597
6035,Abbott Primary School,"Livesey Street, Collyhurst, Manchester",M40 7PR,E08000003,Manchester,-2.226913,53.490715
5875,South Manchester Family Church,"Kingsburn Hall, 814 Burnage Lane, Manchester",M19 1RS,E08000003,Manchester,-2.213904,53.418382
5903,St Kentigerns RC Primary School,"Bethnall Drive, Fallowfield, Manchester",M14 7ED,E08000003,Manchester,-2.235838,53.442286
5653,Elizabeth Gaskell's House,"84 Plymouth Grove, Manchester",M13 9LW,E08000003,Manchester,-2.221798,53.463706
5979,New Hope Fellowship Church,"Tatton Street, Hulme, Manchester",M15 4EQ,E08000003,Manchester,-2.263269,53.469185
5714,The Klondyke,"Formally Levenshulme Bowling & Social Club, Burnage Range, Levenshulme, Manchester",M19 2HQ,E08000003,Manchester,-2.196461,53.443553
5735,Vasa Club,"Whitemoss Road, Blackley, Manchester",M9 6EF,E08000003,Manchester,-2.2061,53.528109
6018,United Church of God Assembly,"1 Rushford Street, Longsight, Manchester",M12 4UG,E08000003,Manchester,-2.196568,53.457071
5957,Pike Fold Community School,"Old Market Street, Blackley, Manchester",M9 8QP,E08000003,Manchester,-2.223766,53.522648
5729,Joy Community Church,"formerly known as St Marks Church Hall, Booth Hall Road, Charlestown, Manchester",M9 7BL,E08000003,Manchester,-2.192264,53.524312
5831,St Matthew's Parish Hall,"Cleveland Road, Crumpsall, Manchester",M8 4QU,E08000003,Manchester,-2.232575,53.520016
5837,St Anne's Parish Hall,"Crescent Avenue, Crumpsall, Manchester",M8 5UD,E08000003,Manchester,-2.236986,53.513239
5991,Wesleyan Holiness Centre,"150 Boundary Lane, Hulme, Manchester",M15 6NW,E08000003,Manchester,-2.239995,53.463931
6053,Greenheys Centre,"Upper Lloyd Street, Moss Side, Manchester",M14 4HZ,E08000003,Manchester,-2.236146,53.457009
5851,Anthony Burgess Foundation,"Chorlton Mill, 3 Cambridge Street, Manchester",M1 5BY,E08000003,Manchester,-2.243464,53.472598
5963,Higher Blackley Education Village,"Our Lady's High School, Alworth Road, Blackley, Manchester",M9 0RP,E08000003,Manchester,-2.218631,53.536041
5814,St Barnabas CE Academy,"Parkhouse Street, Openshaw, Manchester",M11 2JX,E08000003,Manchester,-2.177049,53.474782
6068,St Luke's Social Club,"Sulby Street, off Lightbowne Road, Moston, Manchester",M40 5HR,E08000003,Manchester,-2.189952,53.509835
5685,Wythenshawe Town FC Social Club,"Timpson Road, Manchester",M23 9LL,E08000003,Manchester,-2.29875,53.399178
5807,Ravensbury School,"Tartan Street, Clayton, Manchester",M11 4EG,E08000003,Manchester,-2.185872,53.487263
5893,Cavendish Primary School,"Cavendish Road, West Didsbury, Manchester",M20 1JG,E08000003,Manchester,-2.241527,53.428648
5933,Aspinal Methodist Church,"Reddish Lane, Gorton, Manchester",M18 7JH,E08000003,Manchester,-2.159746,53.456731
5988,Union Hall Evangelical Church,"Stretford Road, Hulme, Manchester",M15 6DY,E08000003,Manchester,-2.243755,53.468256
5863,Didsbury CE Primary School,"Elm Grove, Didsbury, Manchester",M20 6RL,E08000003,Manchester,-2.230998,53.415914
5966,E-Act Blackley Academy,"Victoria Avenue, Blackley, Manchester",M9 0RD,E08000003,Manchester,-2.214122,53.533461
5761,St Chad's RC Primary School,"Balmfield Street, Cheetham, Manchester",M8 0SP,E08000003,Manchester,-2.238696,53.50093
6074,Broadway Leisure Centre,"Broadway, New Moston, Manchester",M40 3LN,E08000003,Manchester,-2.16724,53.520503
6032,Newton Heath Library,"Old Church Street, Newton Heath, Manchester",M40 2JB,E08000003,Manchester,-2.182935,53.501505
6024,Gorton Primary School,"Mount Road, Manchester",M18 7GR,E08000003,Manchester,-2.181355,53.452763
5909,The Armitage Sports Centre,"Moseley Road, Manchester",M14 6HE,E08000003,Manchester,-2.21298,53.444316
5723,St John Bosco RC Primary School,"Hall Moss Road, Blackley, Manchester",M9 7AT,E08000003,Manchester,-2.195505,53.526994
6135,Birchfields Primary School,"Lytham Road, Fallowfield, Manchester",M14 6PL,E08000003,Manchester,-2.205503,53.445389
5794,Chorlton Central Church,"Barlow Moor Road, Chorlton-Cum-Hardy, Manchester",M21 8BF,E08000003,Manchester,-2.2743,53.439543
5741,St Mary`s Church,"47 Nuthurst Road, Manchester",M40 0EW,E08000003,Manchester,-2.176341,53.51817
5860,St Catherine's Community Centre,"School Lane, Didsbury, Manchester",M20 6HS,E08000003,Manchester,-2.221882,53.416255
6101,Wythenshawe Cricket Club,"Longley Lane, Northenden, Manchester",M22 4JF,E08000003,Manchester,-2.257961,53.403868
5691,Lawton Moor Methodist Church,"Button Lane, Northern Moor, Manchester",M23 0ND,E08000003,Manchester,-2.287649,53.412205
5700,Burnage United Reformed Church Hall,"111 Burnage Lane, Burnage, Manchester",M19 2WH,E08000003,Manchester,-2.199947,53.436013
5811,Higher Openshaw Community School,"Saunton Road, Manchester",M11 1AJ,E08000003,Manchester,-2.17037,53.477309
5638,St Luke's C of E Primary School,"Langport Avenue, Longsight, Manchester",M12 4NG,E08000003,Manchester,-2.210224,53.465488
6092,Benchill Community Centre,"Benchill Road, Benchill, Wythenshawe, Manchester",M22 8EJ,E08000003,Manchester,-2.266306,53.393657
6199,The Romper Public House,"Wilmslow Old Road, Cheshire",WA15 8XJ,E08000003,Manchester,-2.288852,53.358962
5746,Miners Community Art and Music Centre,"Teddington Road, Manchester",M40 0DJ,E08000003,Manchester,-2.176124,53.516822
5942,Harpurhey Neighbourhood Project,"Carisbrook Street, entrance off Conran Street, Harpurhey, Manchester",M9 5UX,E08000003,Manchester,-2.215942,53.508668
5616,Church of the Apostle's,"Ridgeway Street, Ancoats, Manchester",M40 7FY,E08000003,Manchester,-2.215132,53.485802
6056,Claremont Primary School,"entrance via Kippax Street, Moss Side, Manchester",M14 7NA,E08000003,Manchester,-2.234345,53.452975
6029,Community Library near Victoria Mill,"Lower Vickers Street, Manchester",M40 7LJ,E08000003,Manchester,-2.214292,53.489633
5709,Temporary Building,"Albion Inn Car Park, 576 Burnage Lane, Burnage, Manchester",M19 1NA,E08000003,Manchester,-2.211179,53.421209
6095,Northenden Community School,"Bazley Road, Northenden, Manchester",M22 4FL,E08000003,Manchester,-2.259709,53.409267
6196,Ringway Primary School,"Rossett Avenue, Cornishway, Wythenshawe, Manchester",M22 0WW,E08000003,Manchester,-2.260794,53.370299
5782,St Clement's Church,"Edge Lane, Chorlton, Manchester",M21 9AE,E08000003,Manchester,-2.284273,53.440498
5844,Allotments Pavilion,"Hoddesdon St cul-de-sac, off Hazelbottom Road, Lower Crumpsall, Manchester",M8 0GQ,E08000003,Manchester,-2.226782,53.508978
6086,Wellspring Community Church,"formely Sharon Pentecostal Church, Brendon Avenue, Harpurhey, Manchester",M40 9DN,E08000003,Manchester,-2.195031,53.509351
6178,Ladybarn Community Centre,"Royle Street, Fallowfield, Manchester",M14 6RN,E08000003,Manchester,-2.214964,53.437973
5626,Ashbury Meadow Childrens Centre,"Rylance Street, Beswick, Manchester",M11 3NA,E08000003,Manchester,-2.206387,53.478681
6077,Scout Hut,"Eastwood Road, New Moston, Manchester",M40 3TE,E08000003,Manchester,-2.159687,53.517133
5954,Parish Church of Saint John the Evangelist,"100 Ashley Lane, Manchester",M9 4NT,E08000003,Manchester,-2.201197,53.509617
6175,St Chad's Church Hall,"St Chads Road, Withington, Manchester",M20 4WH,E08000003,Manchester,-2.216091,53.434369
6089,Moston Lane Primary School,"Nursery Annexe, Whitman Street, Moston, Manchester",M9 4NY,E08000003,Manchester,-2.202586,53.512511
5951,Manchester Youth Zone,"931 Rochdale Road, Harpurhey, Manchester",M9 8AE,E08000003,Manchester,-2.213197,53.514587
6151,St Richards Church Hall,"Leominster Drive, Peel Hall, Manchester",M22 5DL,E08000003,Manchester,-2.247865,53.37998
5670,St Martin's Church Hall,"Blackcarr Road, Baguley, Manchester",M23 1LX,E08000003,Manchester,-2.278898,53.392262
5764,Trinity United Church Hall,"entrance Cheetham Hill Road, Cheetham, Manchester",M8 9LG,E08000003,Manchester,-2.240974,53.509087
6041,Christ The King Primary School,"Culcheth Lane, Newton Heath, Manchester",M40 1LU,E08000003,Manchester,-2.176059,53.497614
6038,Brighter Beginnings Day Nursery,"formerly known as Newton Heath Sure Start, Great Newton Street, off Droylsden Road, Manchester",M40 1WT,E08000003,Manchester,-2.17566,53.499538
6181,Gandhi Hall,"Brunswick Road, Withington, Manchester",M20 4QB,E08000003,Manchester,-2.223158,53.432837
6187,Manchester Enterprise Academy,"Simonsway, Wythenshawe, Manchester",M22 9RH,E08000003,Manchester,-2.272103,53.380763
6166,St Margaret's C of E Primary School,"Withington Road, Whalley Range, Manchester",M16 8FQ,E08000003,Manchester,-2.258689,53.4495
5697,Rackhouse Primary School,"Yarmouth Drive, Wythenshawe, Manchester",M23 0BT,E08000003,Manchester,-2.278636,53.409691
5825,Seymour Road Academy,"Nursery Department, Seymour Road South, Clayton, Manchester",M11 4PR,E08000003,Manchester,-2.170786,53.483465
5985,Hulme Hall,"also known as Claremont Resource Centre, Rolls Crescent, Hulme, Manchester",M15 5FS,E08000003,Manchester,-2.249989,53.465214
5948,Saviour Church,"Eggington Street, Manchester",M40 7RN,E08000003,Manchester,-2.22404,53.497909
6110,Old Moat Primary School,"entrance on Hough Road, Withington, Manchester",M20 3FN,E08000003,Manchester,-2.237,53.43459
6157,St Andrew's Church,"Brownley Road, Wythenshawe, Manchester",M22 0DW,E08000003,Manchester,-2.259077,53.377098
5972,St Andrew's Hall,"Longhurst Road, Higher Blackley, Manchester",M9 8NS,E08000003,Manchester,-2.231346,53.532476
5791,Loreto High School,"Nell Lane, Chorlton, Manchester",M21 7SW,E08000003,Manchester,-2.263533,53.434067
6148,Haveley Hey Community School,"The Bridge Nursery, Gladeside Road, Benchill, Manchester",M22 9QY,E08000003,Manchester,-2.267629,53.384171
5930,Active Me Studios,"194-196 Abbey Hey Lane, Gorton, Manchester",M18 8TW,E08000003,Manchester,-2.155901,53.467783
5939,Holy Trinity Church Hall,"Goodman Street, Blackley, Manchester",M9 4BW,E08000003,Manchester,-2.206296,53.515741
6003,Crowcroft Park Primary School,"Northmoor Road, entrance on Stovell Avenue, Longsight, Manchester",M12 5SY,E08000003,Manchester,-2.189814,53.451986
6012,Levenshulme Inspire,"747 Stockport Road, Manchester",M19 3AR,E08000003,Manchester,-2.191513,53.448019
5632,St Anne's Church,"Carruthers Street, Ancoats, Manchester",M4 7EQ,E08000003,Manchester,-2.217113,53.481626
5846,Central Library,"St Peters Square, Manchester",M2 5PD,E08000003,Manchester,-2.244594,53.477944
6172,Whalley Range High School For Girls,"Wilbraham Road, Whalley Range, Manchester",M16 8GW,E08000003,Manchester,-2.247011,53.44274
6154,Brownley Green Baptist Church,"Crossacres Road, Manchester",M22 9TB,E08000003,Manchester,-2.257998,53.382628
6000,Alma Park Primary School,"Errwood Road, Manchester",M19 2PF,E08000003,Manchester,-2.192311,53.441474
5822,Clayton Methodist Church Hall,"North Road, Clayton, Manchester",M11 4LE,E08000003,Manchester,-2.170238,53.485758
4055,Community Room,"15 Springbank, Brentwood, Salford",M6 8RH,E08000006,Salford,-2.299923,53.491004
4064,St George Knanaya Church,"Highgate Lane, Little Hulton",M38 9SZ,E08000006,Salford,-2.433858,53.535768
4169,Wharton & Cleggs Lane Methodist Church Hall,"Cleggs Lane, Little Hulton",M38 9RW,E08000006,Salford,-2.420246,53.534152
3906,Community House,"89 Heath Avenue, Salford",M7 1NY,E08000006,Salford,-2.268705,53.492687
4223,Alder Brook Primary Partnership Centre,"(Ex Alder Park Primary), Walnut Road, Winton, Eccles",M30 8LE,E08000006,Salford,-2.373069,53.494555
3926,St Boniface School,"(Nursery Unit), Yew Street, Salford",M7 2HL,E08000006,Salford,-2.266697,53.501797
4232,Westwood Park Community Centre,"Grasmere Crescent, Winton",M30 8DN,E08000006,Salford,-2.369388,53.492526
4238,The Hollies,"Moorfield Close, Swinton",M27 0FN,E08000006,Salford,-2.354171,53.504041
4000,Youth Offending Service,"St Simon Street, Salford",M3 7ES,E08000006,Salford,-2.25797,53.489726
4112,St Mark's Primary School,"(Nursery Unit), Queensway, Clifton, Swinton",M27 8QE,E08000006,Salford,-2.328923,53.520302
4180,Temporary Building,"Bracken Avenue, Walkden",M28 3FY,E08000006,Salford,-2.387041,53.524235
3943,Irlam and Cadishead Leisure Centre,"Liverpool Road, Irlam",M44 6BR,E08000006,Salford,-2.420939,53.444051
3997,The Friars Primary School,"Cannon Street, Salford",M3 7EU,E08000006,Salford,-2.259063,53.488985
3994,St Thomas's Church,"Ford Lane, Salford",M6 6PE,E08000006,Salford,-2.284892,53.492649
3929,Wesley Methodist Church,"Lords Street, Cadishead",M44 5EH,E08000006,Salford,-2.444257,53.425099
4075,Little Hulton Library,"Longshaw Drive, Little Hulton",M28 0AZ,E08000006,Salford,-2.421154,53.529657
4187,James Brindley Primary School,"Parr Fold Avenue, Walkden, Worsley",M28 7HE,E08000006,Salford,-2.403538,53.514212
3903,Bridgewater Park/Boothstown Junior Football Club,Amberhill Way,M28 1UP,E08000006,Salford,-2.420741,53.498711
3918,Temporary Building,"St John's Street, Salford",M7 2EA,E08000006,Salford,-2.262013,53.504962
4130,Swinton and Pendlebury Leisure Centre,"Cromwell Road, Pendlebury",M27 9SZ,E08000006,Salford,-2.343715,53.516161
4206,Temporary Building,"Bishop Road, Salford",M6 8PX,E08000006,Salford,-2.319428,53.493263
4181,Guild Hall Community Centre,"Guild Avenue, Walkden",M28 3AS,E08000006,Salford,-2.398675,53.521491
3932,Dale House,"The Meadows, New Moss Road, Cadishead",M44 5AP,E08000006,Salford,-2.437495,53.428981
3870,The Lancastrian Organ Theatre Trust,"Alexandra Road, Eccles",M30 7HJ,E08000006,Salford,-2.362013,53.477771
3976,Unitarian Church Hall,"Monton Green, Eccles",M30 9LL,E08000006,Salford,-2.352598,53.492604
4207,Elmwood Church,"240 Eccles Old Road, Salford",M6 8AG,E08000006,Salford,-2.32157,53.489473
4096,Helly Hansen Watersports Centre,"15 The Quays, Salford",M50 3SQ,E08000006,Salford,-2.288003,53.471231
4214,Mary Magdalene Church,"Westbourne Road, Winton, Eccles",M30 8DE,E08000006,Salford,-2.36726,53.492119
4159,Bethesda Church Hall,"Junction of Eccles Road/Worsley Road, Swinton",M27 5SW,E08000006,Salford,-2.338299,53.506415
4072,Bethany Family Worship Centre,"Kenyon Way, Little Hulton",M38 0EN,E08000006,Salford,-2.431469,53.524901
3897,The Boundary Stone,"Bridgewater Road, Worsley",M28 1AD,E08000010,Wigan,-2.423242,53.509075
4226,Barton Moss Primary School,"Trippier Road, Peel Green, Eccles",M30 7PT,E08000006,Salford,-2.38031,53.476744
4166,Swinton Gateway Centre,"Chorley Road, Swinton",M27 6BP,E08000006,Salford,-2.342204,53.512236
4039,Willow Tree Primary School,"Greenland Street, Salford",M6 5TJ,E08000006,Salford,-2.296358,53.485476
3951,Masonic Hall,"Hospital Road, Pendlebury",M27 4EY,E08000006,Salford,-2.319269,53.508148
3919,Broughton Hub,"Rigby Street, Salford",M7 4BQ,E08000006,Salford,-2.259764,53.507025
4197,The Canterbury Centre,"Canterbury Gardens, 640 Eccles New Road, Salford",M5 5AG,E08000006,Salford,-2.329822,53.484624
3980,Irlam Community Centre,"Locklands Lane/Ferryhill Road, Irlam",M44 6RB,E08000006,Salford,-2.419114,53.446817
4163,Humphrey Booth Resource Centre,"Worsley Road, Swinton",M27 5WW,E08000006,Salford,-2.333919,53.507371
4042,Holy Family RC Primary School,"3 Lower Seedley Road, Salford",M6 5WX,E08000006,Salford,-2.291677,53.488749
4190,Walkden Methodist Church,"Manchester Road East, Walkden",M38 9AN,E08000006,Salford,-2.411605,53.52683
3874,Castle Community Centre,"Lewis Street, Eccles",M30 0PU,E08000006,Salford,-2.352402,53.479921
4140,St Charles Primary School,"Emlyn Street, Off Moorside Road, Swinton",M27 9PD,E08000006,Salford,-2.352957,53.512215
3986,Boundary Road Methodist Church,"Boundary Road, Irlam",M44 6HD,E08000006,Salford,-2.410654,53.454747
4081,Hilton Lane Primary School,"Madams Wood Road, Worsley",M28 0JY,E08000006,Salford,-2.41756,53.524735
4045,Pendleton Gateway Centre,"1 Broadwalk, Salford",M6 5FX,E08000006,Salford,-2.284742,53.488361
4182,Temporary Building,"Christ the King School, Holly Avenue, Walkden",M28 3DW,E08000006,Salford,-2.390737,53.521059
3967,Monton Methodist Church,"Park Road, Monton, Eccles",M30 9JG,E08000006,Salford,-2.349509,53.492676
4196,Temporary Building,"Cemetery Road, Salford",M5 5WG,E08000006,Salford,-2.301235,53.480493
4229,Peel Green House,"Liverpool Road, Peel Green, Eccles",M30 7LP,E08000006,Salford,-2.371679,53.476996
3936,Irlam Catholic Club,"Liverpool Road, Irlam",M44 5BE,E08000006,Salford,-2.428565,53.437435
4235,Barclays Community Centre,"Cook Street, Eccles",M30 8QG,E08000006,Salford,-2.362273,53.483514
4185,Temporary Building,"Birch Road, Walkden",M28 7FJ,E08000006,Salford,-2.39096,53.517373
4239,Worsley Court House,"Worsley Road, Worsley",M28 2PB,E08000006,Salford,-2.381317,53.499895
4030,Binoh Centre,"115 Leicester Road, Salford",M7 4GP,E08000006,Salford,-2.251685,53.512597
3888,Boothstown Community Centre,"Standfield Drive, Boothstown",M28 1NB,E08000006,Salford,-2.417572,53.504484
4049,The Advent Centre,"Lindinis Avenue, Salford",M6 5AB,E08000006,Salford,-2.279691,53.483341
3915,Riverview Primary School,"1 Wheaters Street, Salford",M7 1QZ,E08000006,Salford,-2.264292,53.493666
3864,St Michaels Church,"Liverpool Road, Eccles",M30 7LP,E08000006,Salford,-2.371679,53.476996
4203,Chandos Sports and Social Club,"Chandos Grove, (Dodd Street Entrance), Salford",M5 5LJ,E08000006,Salford,-2.30252,53.485325
3877,Eccles Gateway Centre,"28 Barton Lane, Eccles",M30 0TU,E08000006,Salford,-2.339314,53.48253
4104,Agecroft Fire Station,"Bolton Road, Pendlebury",M27 8XS,E08000006,Salford,-2.310408,53.504666
3912,St James' Church Parish Hall,"Great Cheetham Street East, Salford",M7 4UH,E08000006,Salford,-2.252085,53.503743
3881,Barton Village Community Centre,"Enfield Close, Eccles",M30 0QD,E08000006,Salford,-2.354315,53.478001
3909,Marlborough Road,"Academy, Dudley Street, Salford",M7 4XD,E08000006,Salford,-2.249819,53.5055
4058,Mount Chapel Church,"32 Eccles Old Road, Salford",M6 7AF,E08000006,Salford,-2.29327,53.492297
4186,Temporary Building,"Junction of Edge Fold Road/Broadway, Worsley",M28 7GE,E08000006,Salford,-2.396969,53.514926
4234,Temporary Building,"Junction of Hiley Road/Brookhouse Avenue, Eccles",M30 7PB,E08000006,Salford,-2.376208,53.477961
4200,Weaste & Seedley Social Club,"Weaste Lane, Salford",M5 5JL,E08000006,Salford,-2.308359,53.486343
4015,St Aidans Church,"Littleton Road, Salford",M7 3SE,E08000006,Salford,-2.278113,53.502274
4006,The Beacon Centre,"London Street, Salford",M6 6QT,E08000006,Salford,-2.278564,53.49519
4172,Bridgewater Youth Club,"Bridgewater Street, Little Hulton",M38 9WD,E08000006,Salford,-2.409238,53.529851
4220,Winton Library,"Old Parrin Lane, Eccles",M30 8BY,E08000006,Salford,-2.368322,53.489741
4025,Brentnall Primary School,"Northumberland Street, Salford",M7 4RP,E08000006,Salford,-2.259742,53.508356
3884,Temporary Building,"Trident Road, Eccles",M30 7WF,E08000006,Salford,-2.382008,53.472891
3958,Duncan Mathieson Scout Hall,"Odessa Avenue, Salford",M6 8LG,E08000006,Salford,-2.323461,53.496451
4009,Summerville Primary School,"Summerville Road, Salford",M6 7HB,E08000006,Salford,-2.303075,53.499741
3970,The Deans Football Club,"Salisbury Road, Eccles",M30 9BG,E08000006,Salford,-2.3322600000000002,53.493848
4249,Temporary Building,"Lay-By, Worsley Brow, Worsley",M28 2WH,E08000006,Salford,-2.38612,53.504266
3922,St Clement's Church Hall,"Ellis Street, Salford",M8 9TZ,E08000006,Salford,-2.253934,53.49571
4175,St John (Ellesmere),"Community Centre, Algernon Road, Walkden",M28 3RE,E08000006,Salford,-2.40365,53.530974
4156,Swinton Football Club,"Barton Road, Swinton",M27 5LJ,E08000006,Salford,-2.327503,53.506516
3961,The Height Library,"King Street, Salford",M6 7GY,E08000006,Salford,-2.308953,53.499645
4126,Mossfield Primary School,"Mossfield Road, Pendlebury",M27 6EH,E08000006,Salford,-2.339169,53.519059
4087,Islington Community Centre,"Canon Hussey Court, Islington Way, Salford",M3 5HZ,E08000006,Salford,-2.262052,53.481943
4084,Salford Lads and Girls Club,"St. Ignatius Walk, Salford",M5 3RX,E08000006,Salford,-2.274704,53.476485
3950,Pendleton College,"Dronfield Road, Salford",M6 7FR,E08000006,Salford,-2.305317,53.494936
3900,Ellenbrook Primary School,"Longwall Avenue, Worsley",M28 7PS,E08000006,Salford,-2.408381,53.50997
3921,St Boniface Social Club,"Lower Broughton Road, Salford",M7 2JX,E08000006,Salford,-2.268025,53.497219
4193,Temporary Building,"Mesne Lea Primary School, Henniker Street, Walkden",M28 7FG,E08000006,Salford,-2.394046,53.51542
3885,Christ Church Primary School,"Nelson Street, Eccles",M30 0GZ,E08000006,Salford,-2.355253,53.483895
4099,Sacred Trinity Church,"Chapel Street, Salford",M3 5DW,E08000006,Salford,-2.250327,53.484806
3939,St Mary's Primary School,"Buckingham Road, Cadishead",M44 5HG,E08000006,Salford,-2.448519,53.42823
4109,St Thomas Church,"Delamere Avenue, Clifton, Swinton",M27 8GL,E08000006,Salford,-2.323278,53.519805
4211,Holy Cross Church Hall,"Aldred Street, Eccles",M30 8PS,E08000006,Salford,-2.36129,53.481396
4115,Clifton Community Centre,"6 Wynne Avenue, Clifton",M27 8FU,E08000006,Salford,-2.334156,53.524349
3973,Connect Church,"(Mather Avenue Entrance), 1 Old Wellington Road, Eccles",M30 0UG,E08000006,Salford,-2.342772,53.485298
4103,Temporary Building,"Rechar Way (Off Agecroft Road), Pendlebury",M27 8WA,E08000006,Salford,-2.302482,53.509513
4153,Carr and Hume Estate Agents,"Folly Lane, Swinton",M27 0DD,E08000006,Salford,-2.349928,53.497861
4146,St Mary's RC Primary School,"Milner Street, Swinton",M27 4AS,E08000006,Salford,-2.331853,53.511197
3979,Temporary Building,"Car Park, John William Street, Eccles",M30 0BL,E08000006,Salford,-2.33763,53.484827
4019,St Pauls Church,"Moor Lane, Salford",M7 3WX,E08000006,Salford,-2.270396,53.514534
4033,Langworthy Cornerstone,"451 Liverpool Street, Salford",M6 5QQ,E08000006,Salford,-2.296843,53.483785
4134,Fletcher Hall,"Vicarage Road, Swinton",M27 0WA,E08000006,Salford,-2.342964,53.511111
3990,St Sebastian's,"Community Centre, 1 Douglas Green, Salford",M6 6ET,E08000006,Salford,-2.281946,53.498587
4108,Kings Church,"431 Bolton Road, Pendlebury",M27 8TD,E08000006,Salford,-2.322925,53.513001
4143,Clifton Primary School,"Wroe Street, Clifton, Swinton",M27 6PF,E08000006,Salford,-2.336852,53.523578
3989,Temporary Building,"Lay-By, Seaford Road/Greyhound Drive, Salford",M6 6ER,E08000006,Salford,-2.27246,53.497658
4137,All Saints Church,"Charles Street, Swinton",M27 9UQ,E08000006,Salford,-2.347256,53.515728
4246,Worsley Road United Reformed Church,"Worsley Road, Swinton",M27 0AG,E08000006,Salford,-2.350289,53.503244
4093,Hawkshaw Court,"Howard Street, Salford",M5 4SD,E08000006,Salford,-2.28492,53.478708
3964,Eccles Masonic Hall,"Half Edge Lane, Eccles",M30 9BA,E08000006,Salford,-2.33153,53.489176
3983,Moorfield Primary School,"Acorn Centre, Cutnook Lane, Irlam",M44 6GX,E08000006,Salford,-2.417361,53.453825
4067,Dukesgate Academy,"Earlesdon Crescent, Little Hulton, Worsley",M38 9HF,E08000006,Salford,-2.420238,53.536221
4152,KD Sports Centre,"Albion Street, Swinton",M27 4FG,E08000006,Salford,-2.326357,53.512434
4003,Brunswick House,"62 Broad Street, Salford",M6 5BZ,E08000006,Salford,-2.283358,53.491034
4245,Beesley Green,"Community Centre, Greenleach Lane, Worsley",M28 2QW,E08000006,Salford,-2.381288,53.510151
4123,Pendlebury Social Club,"609 Bolton Road, Pendlebury",M27 4EJ,E08000006,Salford,-2.330335,53.517691
4070,Streetgate Community Centre,"Streetgate, Little Hulton",M38 9UR,E08000006,Salford,-2.424272,53.532216
4242,Holy Rood Church Hall,"Moorside Road, Swinton",M27 0HJ,E08000006,Salford,-2.355343,53.507193
4052,Affinity Sutton Centre,"Doveridge Gardens/Seedley Road, Salford",M6 7LY,E08000006,Salford,-2.290578,53.490964
4124,Wardley Community Centre,"30 Ash Drive, Wardley, Swinton",M27 9RS,E08000006,Salford,-2.357315,53.519393
4079,Former Armitage Social Club,"Madamswood Road, Little Hulton",M28 0JU,E08000006,Salford,-2.421641,53.524189
3894,Boothstown Methodist Church,"Chaddock Lane, Worsley",M28 1DD,E08000006,Salford,-2.425062,53.504161
4036,Clarendon Leisure Centre,"Liverpool Street, Salford",M5 4HU,E08000006,Salford,-2.284643,53.482376
4118,Clifton Neighbourhood Centre,"Manchester Road, Clifton",M27 6PP,E08000006,Salford,-2.340811,53.528232
4179,Walkden Gateway Centre,"Smith Street, Walkden",M28 3EZ,E08000006,Salford,-2.398541,53.524898
4090,St Clement's Church,"Groves Avenue, Salford",M5 3LQ,E08000006,Salford,-2.276623,53.472731
7835,Guywood Centre,"21 Guywood Lane, Romiley, Stockport",SK6 4AN,E08000007,Stockport,-2.088667,53.415035
7945,Davenport Methodist Church,"Garners Lane, Stockport",SK3 8QS,E08000007,Stockport,-2.16237,53.390725
7837,1st Romiley Scout Group,"Heys Avenue, Romilley, Stockport",SK6 4HY,E08000007,Stockport,-2.073173,53.416475
8016,West Heatons Tennis Club,"Princes Road, Stockport",SK4 3NQ,E08000007,Stockport,-2.195368,53.421892
7898,All Hallows Church,"222 Councillor Lane, Cheadle, Stockport",SK8 2JG,E08000007,Stockport,-2.18959,53.388275
7989,1ST Norbury Scout Group,"School Street, Hazel Grove, Stockport",SK7 4RA,E08000007,Stockport,-2.117912,53.376538
8127,St Johns Church,"Marple Road, Offerton, Stockport",SK2 5TX,E08000007,Stockport,-2.116976,53.39714
8171,All Saints Church,"All Saints Road, Heaton Norris, Stockport",SK4 1NL,E08000007,Stockport,-2.16625,53.421721
7937,Chelwood Baptist Church,"Adswood Road, Cheadle Hulme, Stockport",SK8 5QA,E08000007,Stockport,-2.178652,53.386611
7846,Westmorland Primary School,"Drama Room, Westmorland Drive, Brinnington, Stockport",SK5 8HH,E08000007,Stockport,-2.136771,53.430801
8118,High Lane Primary School,"Andrew Lane, High Lane, Stockport",SK6 8JQ,E08000007,Stockport,-2.070007,53.367318
8020,Heaton Moor Library,"Balmoral Road Entrance, Heaton Moor, Stockport",SK4 3LD,E08000007,Stockport,-2.190725,53.416677
7926,The Methodist Church Schoolroom,"Station Road, Cheadle Hulme, Cheadle, Stockport",SK8 7AL,E08000007,Stockport,-2.181833,53.374553
7849,St Luke`s Parish Hall,"Northumberland Road, Brinnington, Stockport",SK5 8LS,E08000007,Stockport,-2.135408,53.427926
8206,Great Moor Junior School,"Southwood Road, Great Moor, Stockport",SK2 7DG,E08000007,Stockport,-2.138318,53.388202
8227,Cheadle Heath Sports Club,"New Function Room, Norbeck Avenue, Cheadle, Stockport",SK8 2ET,E08000007,Stockport,-2.190768,53.396183
7922,St James R.C High School,"St James Way, Cheadle Hulme, Cheadle",SK8 6PZ,E08000007,Stockport,-2.198329,53.359848
8146,St Joseph`s Catholic Primary School,"Reddish, Higginson Road, Off Gorton Road, Reddish, Stockport",SK5 6BG,E08000007,Stockport,-2.161754,53.438455
7806,Queens Arms,"2 Higher Bents Lane, Bredbury, Stockport",SK6 2TN,E08000007,Stockport,-2.116397,53.432557
7930,Bridge Hall Community Centre,"Siddington Avenue, Bridge Hall, Stockport",SK3 8NR,E08000007,Stockport,-2.172504,53.394252
8031,Heaton Moor United Church,"Stanley Road, Heaton Moor, Stockport",SK4 4HL,E08000007,Stockport,-2.184995,53.420686
8094,Visitors Centre,"Etherow Country Park, Compstall",SK6 5JD,E08000007,Stockport,-2.052679,53.41529
8068,St Andrew`s Community Church Hall,"Hall Street, Stockport",SK1 4DA,E08000007,Stockport,-2.146986,53.407823
8071,Stockport Sunday School,"Compass Point, Nangreave Road, Stockport",SK2 6DQ,E08000007,Stockport,-2.143293,53.396628
7962,Lark Hill Nursery School,"Northgate Road, Edgeley, Stockport",SK3 9PH,E08000007,Stockport,-2.177841,53.404725
8109,Guide Hut,"Brickbridge Road, Marple, Stockport",SK6 7BQ,E08000007,Stockport,-2.059807,53.391575
8048,Heaton Mersey Methodist Church,"Cavendish Road, Heaton Mersey, Stockport",SK4 3DP,E08000007,Stockport,-2.201002,53.413766
8115,High Lane Village Hall,"Windlehurst Road, High Lane, Stockport",SK6 8AB,E08000007,Stockport,-2.078649,53.367349
8182,The Triangle Church (Lancashire Hill S. S.),"Sandy Lane, South Reddish, Stockport",SK5 7NZ,E08000007,Stockport,-2.159367,53.419941
8075,Quaker Meeting House,"2 Cooper Street, Stockport",SK1 3DW,E08000007,Stockport,-2.154275,53.401585
8008,Outwood Primary School,"Outwood Road, Heald Green, Cheadle",SK8 3ND,E08000007,Stockport,-2.218986,53.362131
8027,St Thomas the Apostle Church,"Wellington Road North, Heaton Chapel, Stockport",SK4 4QG,E08000007,Stockport,-2.178678,53.428964
7822,Community Room,"Bredbury Library, George Lane, Bredbury, Stockport",SK6 1DJ,E08000007,Stockport,-2.101442,53.416722
7826,The Hub,"(formerly the Highgate Centre), Bents Avenue, Bredbury, Stockport",SK6 2LF,E08000007,Stockport,-2.106756,53.417304
7879,Gatley Primary School,"Hawthorn Road, Gatley, Cheadle",SK8 4NB,E08000007,Stockport,-2.237415,53.390356
8124,St Pauls Church Schoolroom,"Strines Road, Strines, Marple, Stockport",SK6 7GB,E08000007,Stockport,-2.043746,53.37507
7934,Edgeley Library,"Edgeley Road, Edgeley, Stockport",SK3 9NB,E08000007,Stockport,-2.172922,53.400921
7807,St Barnabas Church Hall,"Osborne Street, Bredbury, Stockport",SK6 2DA,E08000007,Stockport,-2.125366,53.416441
7919,Thorn Grove Primary School,"Woodstock Avenue, Cheadle Hulme, Cheadle",SK8 7LD,E08000007,Stockport,-2.190453,53.362567
7877,Mobile Polling Station,"Cambridge Road, Cheadle",SK8 4AE,E08000007,Stockport,-2.23271,53.39326
7908,Emmanuel C of E Church-Main Building,"Bruntwood Lane, Cheadle",SK8 6BE,E08000007,Stockport,-2.210098,53.372924
8159,Reddish Northend Football Club,"Mike Doyle Centre, Browning Road, Reddish, Stockport",SK5 6JW,E08000007,Stockport,-2.166547,53.447499
7955,Learning Support Service,"Cheadle Heath Centre, Edgeley Road, Stockport",SK3 0RJ,E08000007,Stockport,-2.19166,53.400461
7956,Alexandra Park Primary School,"Bombay Road, Edgeley, Stockport",SK3 9RF,E08000007,Stockport,-2.176585,53.399387
8195,Scout HQ,"Rear Of, Trinity Methodist Church, Bramhall Lane, Stockport",SK3 8TP,E08000007,Stockport,-2.153666,53.383024
8065,1ST Offerton Scout Group,"Behind St Albans Parish Hall, Off Offerton Lane, Offerton, Stockport",SK2 5AG,E08000007,Stockport,-2.132487,53.40348
8228,Mobile Polling Station,"Brecon Towers, Blackberry Lane, Brinnington, Stockport",SK5 8JW,E08000007,Stockport,-2.133096,53.434589
8062,Union United Reformed Church,"Maitland Street, Stockport",SK1 4ND,E08000007,Stockport,-2.144284,53.400411
7959,Salvation Army Church,"121 Stockport Road, Cheadle Heath, Stockport",SK3 0JE,E08000007,Stockport,-2.187895,53.403135
8155,St Agnes` Church,"Gorton Road, St Agnes Street, Reddish, Stockport",SK5 6QU,E08000007,Stockport,-2.157273,53.451988
7832,St Chads Church,"Lounge Area, Church Lane, Romiley, Stockport",SK6 4AA,E08000007,Stockport,-2.090272,53.412841
8135,Offerton Community Centre,"Mallowdale Road, Offerton, Stockport",SK2 5NX,E08000007,Stockport,-2.121277,53.391214
8078,Rose Hill Primary School,"Elmfield Drive Rose Hill, Marple, Stockport",SK6 6DW,E08000007,Stockport,-2.074538,53.397104
8000,Etchells Primary School,"East Avenue Finney Lane, Heald Green, Cheadle",SK8 3DL,E08000007,Stockport,-2.219003,53.371246
8088,Mellor Sports Club,"Longhurst Lane, Mellor, Stockport",SK6 5PN,E08000007,Stockport,-2.038201,53.393085
7970,Our Lady`s Catholic Primary School,"Old Chapel Street, Edgeley, Stockport",SK3 9HX,E08000007,Stockport,-2.163695,53.403073
7789,Bramhall Village Club,"Lumb Lane, Bramhall, Stockport",SK7 1LR,E08000007,Stockport,-2.159267,53.35703
8052,Heaton Mersey Sports & Social Club,"Harwood Road, Heaton Mersey, Stockport",SK4 3AW,E08000007,Stockport,-2.209872,53.412689
7758,Nevill Road Junior School,"Nevill Road, Bramhall, Stockport",SK7 3ET,E08000007,Stockport,-2.16327,53.37831
7815,Woodley Civic Hall,"Hyde Road, Woodley, Stockport",SK6 1QG,E08000007,Stockport,-2.103583,53.424783
7855,The Pavilion,"Heaton Norris Park, Love Lane, Off Parsonage Street, Southdown Close, Stockport",SK4 1JA,E08000007,Stockport,-2.163802,53.415216
7874,Trinity Methodist/United Reform Church,"Massie Street, Cheadle, Stockport",SK8 1DU,E08000007,Stockport,-2.215548,53.392429
7992,3RD Hazel Grove Scout Hq,"Macclesfield Road, Near Haddon Road, Hazel Grove, Stockport",SK7 6BD,E08000007,Stockport,-2.113422,53.372067
8121,Brookside Primary School,"Ashbourne Drive, High Lane, Stockport",SK6 8DB,E08000007,Stockport,-2.068284,53.360776
7941,Adswood Community Centre,"213, Garners Lane, Adswood, Stockport",SK3 8QJ,E08000007,Stockport,-2.167145,53.38901
7792,Woodford Community Centre,"Chester Road, Woodford, Stockport",SK7 1PS,E08000007,Stockport,-2.170271,53.339865
8045,1ST Heaton Norris Scout Group,"Locksley Close, Heaton Norris, Stockport",SK4 2LW,E08000007,Stockport,-2.17732,53.41339
7884,Kingsway School (Lower),"Broadway Campus, High Grove Road, Gatley",SK8 4QX,E08000007,Stockport,-2.226631,53.386979
8112,Hawk Green Reading Room,"Upper Hibbert Lane, Hawk Green, Stockport",SK6 7HX,E08000007,Stockport,-2.064474,53.385335
7973,Norbury Hall Primary School,"Shepley Drive, Hazel Grove, Stockport",SK7 6LE,E08000007,Stockport,-2.120774,53.373138
7829,Overdale Childrens Centre,"Powicke Drive, Romiley, Stockport",SK6 3EF,E08000007,Stockport,-2.107202,53.409079
7859,Elim Church,"Mottram Street, (Off Middle Hillgate), Stockport",SK1 3PA,E08000007,Stockport,-2.155177,53.405835
7819,Woodley Primary School,"Sherwood Road, Woodley, Stockport",SK6 1LH,E08000007,Stockport,-2.092605,53.427463
8101,Marple United Reformed Church,"Hibbert Lane, Marple, Stockport",SK6 7NN,E08000007,Stockport,-2.065703,53.392633
7986,The Civic Hall - Hazel Grove,"London Road, Hazel Grove, Stockport",SK7 4DF,E08000007,Stockport,-2.120612,53.379413
8084,Ludworth and Mellor Womens Institute,"Lower Fold, Marple Bridge, Stockport",SK6 5DX,E08000007,Stockport,-2.051975,53.405215
8149,Christ Church Schoolroom,"Gorton Road, Reddish, Stockport",SK5 6EQ,E08000007,Stockport,-2.158907,53.442
7798,Hursthead Infant School,"Kirkstead Road, Cheadle Hulme",SK8 7PZ,E08000007,Stockport,-2.181284,53.361907
7780,Centenary Hall,"Benja Fold, Off Ack Lane East, Stockport",SK7 2BX,E08000007,Stockport,-2.16625,53.360104
8144,Reddish Library,"Gorton Road, Reddish, Stockport",SK5 6UG,E08000007,Stockport,-2.158377,53.441183
8011,Mobile Polling Station,"At Junction Of, Bradgate Avenue, And Bradshaw Hall Lane, Heald Green",SK8 3AG,E08000007,Stockport,-2.214398,53.370193
7966,Edgeley Community Church,"Edgeley Road, Edgeley, Stockport",SK3 9NB,E08000007,Stockport,-2.172922,53.400921
7918,Emmanuel C of E Church - Main Building,"Bruntwood Lane, Cheadle, Stockport",SK8 6BE,E08000007,Stockport,-2.210098,53.372924
8178,Reddish Vale Family Centre,"(Next to Reddish Vale Nursery School), Reddish Vale Road, Reddish, Stockport",SK5 7EU,E08000007,Stockport,-2.156204,53.435541
7862,Kimberley Street Day Centre,"Shaw Heath Recreation Ground, Kimberley Street, Off Lowfield Road, Stockport",SK3 8EB,E08000007,Stockport,-2.161918,53.398329
8132,Warren Wood Primary School,"Turnstone Road, Offerton, Stockport",SK2 5XU,E08000007,Stockport,-2.105129,53.392011
7767,Brownie Hut,"Bramhall Green Roundabout, Behind Bridge News, Bridge Lane, Bramhall",SK7 3AB,E08000007,Stockport,-2.157436,53.374012
7982,Hazel Grove Methodist Church,"Wesley street, Hazel Grove, Stockport",SK7 4JQ,E08000007,Stockport,-2.118903,53.381095
7996,Heald Green Methodist Church,"Brown Lane, Heald Green, Stockport",SK8 3RR,E08000007,Stockport,-2.23711,53.373332
7895,St Cuthberts Church,"Cuthbert Road, Cheadle",SK8 2DT,E08000007,Stockport,-2.205477,53.396456
7887,The Bowling Pavilion,"Gatley Recreation Ground, Northenden Road, Gatley, Stockport",SK8 4EL,E08000007,Stockport,-2.239358,53.393606
8209,Moorfield Primary School,"Lyndhurst Avenue, Hazel Grove, Stockport",SK7 5HP,E08000007,Stockport,-2.13337,53.373152
8141,Dial Park Hall,"Alfreton Road, Off Dial Park Road, Offerton, Stockport",SK2 5PB,E08000007,Stockport,-2.119869,53.388373
7764,St Michaels Scout Centre,"St Michaels Avenue, Bramhall, Stockport",SK7 2PG,E08000007,Stockport,-2.16323,53.363982
8198,St Saviour`s Parish Hall,"Gladstone Street, Great Moor, Stockport",SK2 7HB,E08000007,Stockport,-2.134635,53.388386
7979,St.Simon`s Catholic Primary School,"Bosden Avenue, Off Bosdenfold Avenue, Hazel Grove, Stockport",SK7 4LH,E08000007,Stockport,-2.114187,53.382709
7881,Kingsway School (Upper),"Foxland Road, Cheadle, Stockport",SK8 4QX,E08000007,Stockport,-2.226631,53.386979
8185,St Mary`s Church Hall,"St. Mary`s Drive, South Reddish, Stockport",SK5 7AX,E08000007,Stockport,-2.15582,53.429303
8038,St Martins Church Hall,"112 Crescent Park, Norris Bank, Stockport",SK4 2JE,E08000007,Stockport,-2.180354,53.412172
8081,Marple Senior Citizens Hall,"Memorial Park, Marple, Stockport",SK6 6BA,E08000007,Stockport,-2.06225,53.396248
8042,Mersey Vale Primary School,"Valley Road, Heaton Mersey, Stockport",SK4 2BZ,E08000007,Stockport,-2.191548,53.408991
8037,Mobile Polling Station,"Adjacent to Marbury Green, Stockport",SK4 5NL,E08000007,Stockport,-2.172507,53.43577
8175,Broadstone Hall Primary School,"Broadstone Hall Road South, Heaton Chapel, Stockport",SK4 5JD,E08000007,Stockport,-2.166722,53.430763
7786,Moss Hey Primary School,"Eskdale Avenue, Bramhall, Stockport",SK7 1DS,E08000007,Stockport,-2.176658,53.355154
7905,Ladybridge Park Residents Club,"Edenbridge Road, Cheadle Hulme, Stockport",SK8 5PX,E08000007,Stockport,-2.183891,53.384752
7852,Crescent Road Hall,"Crescent Road, Off Carrington Road, Stockport",SK1 2QQ,E08000007,Stockport,-2.140475,53.417394
8059,Woodbank Community Centre,"Turncroft Lane, Stockport",SK1 4BN,E08000007,Stockport,-2.139161,53.40687
7811,St Mark`s Parish Hall,"Redhouse Lane, Bredbury, Stockport",SK6 1BX,E08000007,Stockport,-2.105342,53.423372
8056,Emmanuel Community Church,"55 Green Lane, Heaton Moor, Stockport",SK4 3LH,E08000007,Stockport,-2.184768,53.416903
7944,Mobile Polling Station,"Car Park, Davenport Playing Fields, Highfield Close, Stockport",SK3 8UB,E08000007,Stockport,-2.157258,53.386687
7773,2ND Bramhall Scout Headquarters,"Fir Road, Bramhall, Stockport",SK7 2NP,E08000007,Stockport,-2.1589,53.371494
8242,Stockport Cricket Club,"Beech Road, Cale Green, Stockport",SK3 8HD,E08000007,Stockport,-2.156521,53.394795
8152,Vale View Primary School,"Mill Lane, North Reddish, Stockport",SK5 6TP,E08000007,Stockport,-2.15181,53.444283
8004,Heald Green Village Hall,"Outwood Road, Heald Green, Stockport",SK8 3JL,E08000007,Stockport,-2.230074,53.367485
7891,Oak Tree Primary School,"After School Club Building, Buckingham Road, Cheadle Hulme, Stockport",SK8 5HH,E08000007,Stockport,-2.196444,53.381531
8202,Davenport Lawn Tennis Club,"Flowery Field, Woodsmoor, Stockport",SK2 7ED,E08000007,Stockport,-2.14495,53.383916
7770,Bramhall High School,"Recreation Centre, Seal Road, Bramhall, Stockport",SK7 2JT,E08000007,Stockport,-2.153113,53.367088
8091,Jubilee Methodist Church Hall,"Cote Green Lane, Marple Bridge, Stockport",SK6 5EB,E08000007,Stockport,-2.049512,53.408658
7777,Mobile Polling Station,"Dean Moor Road, Hazel Grove, Stockport",SK7 5LW,E08000007,Stockport,-2.145779,53.37596
7911,Cheadle Hulme United Reformed Church,"65 Swann Lane, Cheadle Hulme, Stockport",SK8 7HU,E08000007,Stockport,-2.184371,53.370477
8189,Bairstow Club,"Rupert Street, Off Reddish Road, Houldsworth Square, Reddish, Stockport",SK5 6DL,E08000007,Stockport,-2.162108,53.436378
8108,Mobile Polling Station,"Marple Sixth Form College, Buxton Lane, Marple",SK6 7QY,E08000007,Stockport,-2.070978,53.390868
8215,The Methodist Church Lounge Area,"Station Road, Cheadle Hulme, Cheadle, Stockport",SK8 7AL,E08000007,Stockport,-2.181833,53.374553
8192,St Anne`s Rc High School,"Glenfield Road, Heaton Chapel, Stockport",SK4 2QN,E08000007,Stockport,-2.17163,53.420453
7871,Vernon Park Primary School,"Peak Street, Stockport",SK1 2NF,E08000007,Stockport,-2.147827,53.411525
8213,Britannia Hotel,"67 Dialstone Lane, Stockport",SK2 6AG,E08000007,Stockport,-2.134623,53.398921
8023,St Paul`s Church Schoolroom,"St. Pauls Road, Heaton Moor, Stockport",SK4 4RY,E08000007,Stockport,-2.185923,53.423058
7976,Torkington Primary School,"Torkington Road, Hazel Grove, Stockport",SK7 6NR,E08000007,Stockport,-2.10325,53.379645
7868,Learners Lounge,"Stonemill Terrace, Stockport",SK5 7RZ,E08000007,Stockport,-2.158635,53.417426
8167,North Reddish Scout & Guide Centre,"Criterion Street, Reddish, Stockport",SK5 6RZ,E08000007,Stockport,-2.156384,53.447711
8129,Dialstone Methodist Church,"Dialstone Lane, Stockport",SK2 7LQ,E08000007,Stockport,-2.131207,53.393172
7783,Fords Lane Evangelical Church,"Fords lane, Bramhall, Stockport",SK7 1DQ,E08000007,Stockport,-2.172567,53.357983
8138,Offerton Fire Station,"Lisburne Lane, Offerton, Stockport",SK2 5NP,E08000007,Stockport,-2.125854,53.393348
2472,Flixton Cricket and Sports Club,"Lawrence Road, Flixton",M41 8UU,E08000009,Trafford,-2.387009,53.451303
2478,Stretford Sports Village Chester Centre,"Great Stone Road, Stretford",M32 0ZS,E08000009,Trafford,-2.292675,53.458331
2570,Sevenways Methodist Church,"Barton Road, Stretford",M32 9RD,E08000009,Trafford,-2.316342,53.449228
2445,Christ Church Hall,"Lostock Road, Urmston",M41 0TD,E08000009,Trafford,-2.346071,53.45737
2402,Park Road Academy Primary School,"Frieston Road, Timperley",WA14 5AP,E08000009,Trafford,-2.340089,53.40608
2580,Willows Primary School,"Victoria Road, Timperley",WA15 6PP,E08000009,Trafford,-2.330461,53.396202
2487,All Saints Church Hall,"Barton Road, Stretford",M32 9RL,E08000009,Trafford,-2.322083,53.453689
2504,2ND Hale Scout HQ,"Lilac Road, Hale",WA15 8BJ,E08000009,Trafford,-2.330278,53.380454
2346,Oldfield Brow Primary School,"Taylor Road, Altrincham",WA14 4LE,E08000009,Trafford,-2.377778,53.391774
2507,St Peters Assembly Rooms,"136 Cecil Road, Hale",WA15 9NU,E08000009,Trafford,-2.344881,53.373725
2405,Mobile Polling Station Broadheath,"Corner of St Andrews Avenue, and Bridge Grove, Timperley",WA15 6LD,E08000009,Trafford,-2.338426,53.399424
2500,Cloverlea Primary School,"Green Lane North, Timperley",WA15 7NQ,E08000009,Trafford,-2.321251,53.389369
2510,Stamford Park Infants School,"Oak Road Entrance, Hale",WA15 9JB,E08000009,Trafford,-2.340502,53.382538
2406,The Life Centre,"235 Washway Road, Sale",M33 4BP,E08000009,Trafford,-2.336595,53.415061
2349,Evangelical Church,"Devonshire Road, Altrincham",WA14 4EZ,E08000009,Trafford,-2.354086,53.396152
2475,Flixton House,"Flixton Road, Flixton",M41 5GJ,E08000009,Trafford,-2.383195,53.445796
2413,Clubhouse Sale Football Club,"Heywood Road, Sale",M33 3WB,E08000009,Trafford,-2.321909,53.416854
2551,Firs Primary School,"Firs Road, Sale",M33 5EL,E08000009,Trafford,-2.352276,53.422836
2358,Altrincham Town Hall,"Market Street, Altrincham",WA14 1PG,E08000009,Trafford,-2.352153,53.387933
2341,St Georges Parish Hall,"Church Walk, Altrincham",WA14 4TT,E08000009,Trafford,-2.352112,53.39027
2355,St Vincents Catholic Primary School,"Junior Department, Osborne Road, Altrincham",WA15 8EU,E08000009,Trafford,-2.344485,53.389771
2584,Altrincham United Reformed Church,"Woodlands Parkway, Timperley, Altrincham",WA15 7QT,E08000009,Trafford,-2.341551,53.39333
2567,Moss Park Junior School,"Moss Park Road, Stretford",M32 9HR,E08000009,Trafford,-2.322763,53.448132
2529,Sale Waterside,"Tatton Road Entrance, Sale",M33 7ZF,E08000009,Trafford,-2.32,53.425111
2390,St Albans Hall,"Lindsell Road, West Timperley, Altrincham",WA14 5NX,E08000009,Trafford,-2.353799,53.40329
2596,Unitarian Church Hall,"Queens Road, Urmston",M41 9HA,E08000009,Trafford,-2.352896,53.445009
2457,St Marys Church Hall,"Entwistle Avenue, Off Davyhulme Road, Davyhulme",M41 5TP,E08000009,Trafford,-2.367594,53.455849
2380,Jubilee Centre,"The Firs, Bowdon",WA14 2TQ,E08000009,Trafford,-2.362827,53.378931
2352,Altrincham Methodist Church,"Barrington Road, Altrincham",WA14 1HF,E08000009,Trafford,-2.349286,53.390378
2454,8TH Flixton Scout Group,"Woodsend Crescent Road, Flixton",M41 8AD,E08000009,Trafford,-2.397246,53.449399
2426,Partington Community Centre,"Central Road, Partington",M31 4FL,E08000009,Trafford,-2.425053,53.417437
2376,Bollin Primary School,"Apsley Grove, Bowdon",WA14 3AH,E08000009,Trafford,-2.365565,53.373961
2573,Heyes Lane Primary School,"Crofton Avenue, Timperley",WA15 6BZ,E08000009,Trafford,-2.325453,53.406058
2362,Townscroft Lodge,"Green Lane, Sale",M33 5GP,E08000009,Trafford,-2.342474,53.431475
2419,Carrington Business Park,"Manchester Road, Carrington",M31 4DD,E08000009,Trafford,-2.400959,53.431202999999996
2535,Sale United Reformed Church,"Montague Road, Sale",M33 3BU,E08000009,Trafford,-2.31664,53.422468
2436,Old Trafford Community Academy,"Malvern Street, Old Trafford",M15 4FL,E08000009,Trafford,-2.265141,53.465109
2516,St Ann's Parish Centre,"Cross Street, Off Chester Road, Stretford",M32 8LF,E08000009,Trafford,-2.303883,53.448297
2606,St Johns Church Hall,"Brooklands Road, Sale",M33 3PB,E08000009,Trafford,-2.317693,53.408371
2409,Mobile Polling Station,"Eastway/Walton Road, Sale",M33 4ER,E08000009,Trafford,-2.337878,53.408028
2373,St Lukes Church,"Vicarage Lane, Bowdon",WA14 3BJ,E08000009,Trafford,-2.361832,53.371491
2609,Broomwood Primary School,"Mainwood Road, Timperley",WA15 7JU,E08000009,Trafford,-2.30838,53.391488
2423,Our Lady of Lourdes Catholic Primary,"Lock Lane, Partington",M31 4PJ,E08000009,Trafford,-2.436427,53.418701
2367,Fiona Gardens,"29 Atkinson Road, Sale",M33 6GG,E08000009,Trafford,-2.326926,53.427456
2513,Hale Library,"Leigh Road, Hale",WA15 9BG,E08000009,Trafford,-2.343644,53.376938
2400,Woodheys Park Pavilion,"Kenmore Road/Woodhouse Lane, Sale",M33 4LP,E08000009,Trafford,-2.355328,53.409919
2547,St Annes Church Hall,"Trinity Road, Sale",M33 3ED,E08000009,Trafford,-2.307114,53.420228
2525,Longford Park Special School,"74 Cromwell Road, Stretford",M32 8QJ,E08000009,Trafford,-2.294817,53.448015
2587,Methodist Church Meeting Room,"George Street, Urmston",M41 9BA,E08000009,Trafford,-2.344275,53.447586
2532,Sale Sports Club,"Clarendon Crescent, Sale",M33 2DE,E08000009,Trafford,-2.305608,53.42638
2386,The Parish Room,"Bent Lane, Warburton",WA13 9TQ,E08000009,Trafford,-2.445414,53.399028
2593,Urmston Primary School,"Wycliffe Road, Urmston",M41 5AH,E08000009,Trafford,-2.359226,53.449331
2484,Metros Sports and Social Club,"Moss Road, Stretford",M32 0AH,E08000009,Trafford,-2.310018,53.451213
2564,Victoria Park Infant School,"Henshaw Street, Stretford",M32 8BU,E08000009,Trafford,-2.309099,53.449193
2544,Lime Tree Primary School,"Budworth Road, Sale",M33 2RP,E08000009,Trafford,-2.297843,53.415739
2393,Broadheath Primary School,"Sinderland Road, Altrincham",WA14 5JQ,E08000009,Trafford,-2.360126,53.404465
2558,Sale West Community Centre,"Newbury Avenue, Sale",M33 4QW,E08000009,Trafford,-2.358027,53.419619
2410,Brooklands Primary School,"Woodbourne Road, Sale",M33 3SY,E08000009,Trafford,-2.326637,53.413426
2497,Well Green Primary School,"Briony Avenue, Hale",WA15 8QA,E08000009,Trafford,-2.316255,53.376762
2541,Sale Moor Methodist Church,"Northenden Road, Sale Moor",M33 2PP,E08000009,Trafford,-2.293477,53.419597
2439,St Johns Hall,"St Johns Road, Old Trafford",M16 7GX,E08000009,Trafford,-2.268164,53.457139
2396,Tyntesfield Primary School,"Alma Road, Sale",M33 4HE,E08000009,Trafford,-2.346445,53.41088
2519,Kings Road Primary School,"Kings Road, Firswood",M16 0GR,E08000009,Trafford,-2.281652,53.453979
2463,182 North Trafford Sqn Atc,"Flixton Road, Flixton",M41 5PR,E08000009,Trafford,-2.372168,53.448536
2451,Woodsend Library,"Woodsend Road, Flixton",M41 8GN,E08000009,Trafford,-2.393504,53.455039
2561,St Matthews Hall - Dance Hall,"Chapel Lane, Stretford",M32 9AJ,E08000009,Trafford,-2.311646,53.443362
2383,Little Heath Village Hall,"School Lane, Dunham Massey, Altrincham",WA14 4SE,E08000009,Trafford,-2.391853,53.388609
2460,Woodhouse Primary School,"Nursery Road, Davyhulme",M41 7NP,E08000009,Trafford,-2.37011,53.457702
2370,St Mary Magdalene with Sale West Community Church,"44 Moss Lane, Sale",M33 6GD,E08000009,Trafford,-2.33774,53.424738
2448,Our Lady and the English Martyrs Parish Centre,"Davyhulme Road, Urmston",M41 7DS,E08000009,Trafford,-2.360543,53.457255
2469,Flixton Primary School,"Delamere Road, Flixton",M41 5QL,E08000009,Trafford,-2.378333,53.449209
2491,Lostock Youth Centre,"Selby Road, Stretford",M32 9PL,E08000009,Trafford,-2.331554,53.453681
2576,Holy Cross Church Hall,"Park Road, Timperley",WA15 6QG,E08000009,Trafford,-2.332331,53.40266
2429,Sale West Conference Centre,"Room 3, Manor Avenue, Sale",M33 5JX,E08000009,Trafford,-2.354017,53.425967
2538,Sale Nomads,"Friars Road, Sale",M33 7UU,E08000009,Trafford,-2.323908,53.422422
2481,Gorse Hill Primary School,"Burleigh Road, Stretford",M32 0PF,E08000009,Trafford,-2.299011,53.455582
2494,Elmridge Primary School,"Wilton Drive, Hale Barns",WA15 0JF,E08000009,Trafford,-2.311557,53.367318
2603,The Larkhill Centre,"Thorley Lane, Timperley",WA15 7BJ,E08000009,Trafford,-2.317166,53.396103
2442,Davyhulme Primary School,"Canterbury Road, Davyhulme",M41 0RX,E08000009,Trafford,-2.351148,53.453966
2554,The Avenue Methodist Church,"Wincham Road, Sale",M33 4PL,E08000009,Trafford,-2.342676,53.413551
2590,Community Centre,"Humphrey Lane, Urmston",M41 9PT,E08000009,Trafford,-2.331202,53.45094
2466,Shawe Hall Community Centre,"Church Road, Flixton",M41 6HJ,E08000009,Trafford,-2.37007,53.442682
2523,Old Trafford Sports Barn,"St Hildas Road, Old Trafford",M16 9PQ,E08000009,Trafford,-2.271909,53.461148
2600,2ND Timperley Scout HQ,"Heyes Drive, Timperley",WA15 6ED,E08000009,Trafford,-2.322666,53.401509
2416,Sale Moor Community Centre,"Norris Road, Sale",M33 2TN,E08000009,Trafford,-2.303598,53.414709
2433,Sharon Youth Centre,"Cornbrook Street, Old Trafford",M16 7WR,E08000009,Trafford,-2.259035,53.461707
