name,address,wd16nm,lad16nm,lon,lat
HIGHER INCE SURGERY,"INCE COMMUNITY CLINIC MANCHESTER ROAD, INCE WIGAN  WN2 2DJ",Ince,Wigan,-2.604085,53.5433989
LOWER INCE SURGERY,"CLAIRE HOUSE LOWER INCE HEALTH CTR PHOENIX WAY, LOWER INCE WIGAN, LANCASHIRE WN3 4NW",Ince,Wigan,-2.6145577,53.534918
BROOKMILL MEDICAL CENTRE,BROOKMILL MEDICAL CENTRE COLLEGE STREET LEIGH LANCASHIRE WN7 2RB,Leigh East,Wigan,-2.5089583,53.4960963
LILFORD PARK SURGERY,LEIGH HEALTH CENTRE THE AVENUE LEIGH  WN7 1HR,Leigh East,Wigan,-2.5107756,53.5042315
GRASMERE SURGERY,LEIGH HEALTH CENTRE THE AVENUE LEIGH  WN7 1HR,Leigh East,Wigan,-2.5107756,53.5042315
ESA SURGERY LTD,LEIGH HEALTH CENTRE THE AVENUE LEIGH  WN7 1HR,Leigh East,Wigan,-2.5107756,53.5042315
DR MAUNG & PARTNERS,LEIGH HEALTH CENTRE THE AVENUE LEIGH  WN7 1HR,Leigh East,Wigan,-2.5107756,53.5042315
DR SPIELMANN & PARTNERS,"OLD HENRY STREET MED CTR HENRY STREET, LEIGH WIGAN  WN7 2PG",Leigh South,Wigan,-2.511487,53.4949548
FOXLEIGH FAMILY SURGERY,THE BRIDGEWATER MED CTR HENRY STREET LEIGH GREATER MANCHESTER WN7 2PE,Leigh South,Wigan,-2.5116521,53.4939596
PREMIER HEALTH TEAM,THE BRIDGEWATER MED CTR HENRY STREET LEIGH  WN7 2PE,Leigh South,Wigan,-2.5116521,53.4939596
GUPTA K,THE BRIDGEWATER MED CTR HENRY STREET LEIGH GREATER MANCHESTER WN7 2PE,Leigh South,Wigan,-2.5116521,53.4939596
LEIGH FAMILY PRACTICE,BRIDGEWATER MC HENRY STREET LEIGH LANCASHIRE WN7 2PE,Leigh South,Wigan,-2.5116521,53.4939596
INTRAHEALTH FAMILY PRACT,"LEIGH SPORTS VILLAGE LEIGH STADIUM,SALE WAY LEIGH  WN7 4JY",Leigh South,Wigan,-2.530235,53.488719
INTRAHEALTH LSV,"LEIGH SPORTS VILLAGE LEIGH STADIUM,SALE WAY LEIGH  WN7 4JY",Leigh South,Wigan,-2.530235,53.488719
BRAITHWAITE RD SURGERY,36 BRAITHWAITE ROAD LOWTON NR.WARRINGTON  WA3 2HY,Lowton East,Wigan,-2.5748466,53.4765692
XAVIER CA,208C NEWTON ROAD LOWTON WARRINGTON  WA3 2AQ,Lowton East,Wigan,-2.5615908,53.4716444
BRADSHAW MEDICAL CENTRE,"BRADSHAW MEDICAL CENTRE BRADSHAW STREET,ORRELL WIGAN GREATER MANCHESTER WN5 0AB",Pemberton,Wigan,-2.6884705,53.5383566
INTRAHEALTH MARSH GREEN,HARROW ROAD MARSH GREEN WIGAN  WN5 0QL,Pemberton,Wigan,-2.6674165,53.5491411
DR HADJIDEMETRIOU & PARTNERS,"SHEVINGTON SURGERY HOUGHTON LANE, SHEVINGTON WIGAN LANCASHIRE WN6 8ET",Shevington with Lower Ground,Wigan,-2.699147,53.5719565
PMCF PRIMARY CARE EXTENDED ACCESS,HOUGHTON LANE SHEVINGTON WIGAN LANCASHIRE WN6 8ET,Shevington with Lower Ground,Wigan,-2.6997929,53.5739698
STANDISH MEDICAL PRACTICE,"STANDISH MEDICAL PRACTICE 49 HIGH STREET, STANDISH WIGAN LANCASHIRE WN6 0HD",Standish with Langtree,Wigan,-2.6621736,53.5851833
ELLIOTT STREET SURGERY,145 ELLIOTT STREET TYLDESLEY MANCHESTER  M29 8FL,Tyldesley,Wigan,-2.4691512,53.5142246
DR KHATRI CP,"THE SURGERY HIGH STREET, TYLDESLEY NR. MANCHESTER  M29 8AL",Tyldesley,Wigan,-2.4696975,53.514654
INTRAHEALTH TYLDESLEY,TYLDESLEY HEALTH CENTRE POPLAR STREET TYLDESLEY  M29 8AX,Tyldesley,Wigan,-2.4683109,53.5167418
SULLIVAN WAY SURGERY,"SULLIVAN WAY SURGERY SULLIVAN WAY,SCHOLES WIGAN GREATER MANCHESTER WN1 3TB",Wigan Central,Wigan,-2.6230177,53.5497983
"DR PATEL, KAMATH & PARTNERS",LONGSHOOT HEALTH CENTRE SCHOLES WIGAN  WN1 3NH,Wigan Central,Wigan,-2.6201127,53.549602
DR SEABROOK,THE SURGERY 1 WRIGHTINGTON STREET WIGAN  WN1 2AZ,Wigan Central,Wigan,-2.6329302,53.5511281
DR ELLIS & KREPPEL,MESNES VIEW SURGERY MESNES STREET WIGAN  WN1 1ST,Wigan Central,Wigan,-2.6329286,53.550741
THE DICCONSON GROUP PRACTICE,BOSTON HOUSE WIGAN HEALTH CENTRE FROG LANE WIGAN WN6 7LB,Wigan West,Wigan,-2.6450477,53.5494268
BEECH HILL MEDICAL PRACTICE,"BEECH HILL MEDICAL PRACT. 278 GIDLOW LN, BEECH HILL WIGAN  WN6 7PD",Wigan West,Wigan,-2.644081,53.5556176
SAXENA L,WINSTANLEY MEDICAL CENTRE HOLMES HOUSE AVENUE WINSTANLEY WIGAN WN3 6JN,Winstanley,Wigan,-2.6689261,53.5214026
ZAMAN,"CHANDLER HOUSE WORSLEY MESNES HEALTH CTR POOLSTOCK LANE WIGAN, LANCASHIRE WN3 5HL",Worsley Mesnes,Wigan,-2.6429946,53.5290505
THE CHANDLER SURGERY,"CHANDLER HOUSE WORSLEY MESNES HEALTH CTR POOLSTOCK LANE WIGAN, LANCASHIRE WN3 5HL",Worsley Mesnes,Wigan,-2.6429946,53.5290505
MARUS BRIDGE PRACTICE,"CHANDLER HOUSE WORSLEY MESNES HEALTH CTR POOLSTOCK LANE WIGAN, LANCASHIRE WN3 5HL",Worsley Mesnes,Wigan,-2.6429946,53.5290505
HAWKLEY BROOK MED PRAC,"CHANDLER HOUSE WORSLEY MESNES HEALTH CTR POOLSTOCK LANE WIGAN, LANCASHIRE WN3 5HL",Worsley Mesnes,Wigan,-2.6429946,53.5290505
DALTON TM,"CHANDLER HOUSE WORSLEY MESNES HEALTH CTR POOLSTOCK LANE WIGAN, LANCASHIRE WN3 5HL",Worsley Mesnes,Wigan,-2.6429946,53.5290505
MANDALAY MEDICAL CENTRE,"MANDALAY MEDICAL CENTRE 933 BLACKBURN RD,SHARPLES BOLTON  BL1 7LR",Astley Bridge,Bolton,-2.4324471,53.611448
HARWOOD MEDICAL CENTRE,"HARWOOD MEDICAL CENTRE HOUGH FOLD WAY, HARWOOD BOLTON LANCASHIRE BL2 3HQ",Bradshaw,Bolton,-2.3981967,53.6040497
THE DUNSTAN PARTNERSHIP,"BREIGHTMET HEALTH CENTRE BREIGHTMET FOLD LANE BRIGHTMET, BOLTON LANCASHIRE BL2 6NT",Breightmet,Bolton,-2.384258,53.5825131
THE ALASTAIR ROSS MEDICAL PRACTICE,"BREIGHTMET HEALTH CENTRE BREIGHTMET FOLD LANE BREIGHTMET, BOLTON LANCASHIRE BL2 6NT",Breightmet,Bolton,-2.384258,53.5825131
EDGWORTH MEDICAL CENTRE,EGERTON/DUNSCAR HLTH CTRE DARWEN ROAD BROMLEY CROSS BOLTON BL7 9RG,Bromley Cross,Bolton,-2.4261378,53.6175731
EGERTON/DUNSCAR HEALTH CENTRE,EGERTON/DUNSCAR HLTH CTRE DARWEN ROAD BROMLEY CROSS BOLTON BL7 9RG,Bromley Cross,Bolton,-2.4261378,53.6175731
KIRBY-CROMPTON HEALTH CENTRE,CROMPTON HEALTH CENTRE 501 CROMPTON WAY BOLTON  BL1 8UP,Crompton,Bolton,-2.415112,53.5975264
BURNSIDE SURGERY,"BURNSIDE SURGERY WATERS MEETING HC NAVIGATION PARK WATERS MEETING RD, BOLTON BL1 8TU",Crompton,Bolton,-2.4292628,53.595998
CROMPTON HEALTH CENTRE,CROMPTON HEALTH CENTRE 501 CROMPTON WAY BOLTON  BL1 8UP,Crompton,Bolton,-2.415112,53.5975264
CHARLOTTE STREET SURGERY,WATERS MEETING HC NAVIGATION PARK WATERS MEETING ROAD BOLTON BL1 8TU,Crompton,Bolton,-2.4296319,53.5960558
BOLTON COMMUNITY PRACTICE,BOLTON COMMUNITY PRACTICE WATERS MEETING HC BOLTON LANCASHIRE BL1 8TU,Crompton,Bolton,-2.429467,53.5959168
STONEHILL MEDICAL CENTRE,"STONEHILL MEDICAL CENTRE PIGGOTT ST,FARNWORTH BOLTON LANCASHIRE BL4 9QZ",Farnworth,Bolton,-2.4024424,53.5436511
LEVER CHAMBERS 2,"GREAT LEVER HEALTH CENTRE RUPERT STREET,GREAT LEVER BOLTON LANCASHIRE BL3 6RN",Great Lever,Bolton,-2.4321485,53.565589
BEEHIVE SURGERY,108 CRESCENT ROAD GREAT LEVER BOLTON  BL3 2JR,Great Lever,Bolton,-2.4185634,53.5641437
GREAT LEVER HEALTH CENTRE 1,"GREAT LEVER HEALTH CENTRE RUPERT STREET,GREAT LEVER BOLTON LANCASHIRE BL3 6RN",Great Lever,Bolton,-2.4321485,53.565589
BOLTON MEDICAL CENTRE,21 RUPERT STREET GREAT LEVER BOLTON LANCASHIRE BL3 6PY,Great Lever,Bolton,-2.4315737,53.56593
DALEFIELD SURGERY,AVONDALE HEALTH CENTRE AVONDALE STREET BOLTON LANCASHIRE BL1 4JP,Halliwell,Bolton,-2.4517648,53.588095
LEVER CHAMBERS 1,LEVER CHAMBERS ASHBURNER STREET BOLTON  BL1 1SQ,Halliwell,Bolton,-2.4310251,53.5769426
HALLIWELL SURGERY 1,THE HALLIWELL SURGERY LINDFIELD DRIVE HALLIWELL BOLTON BL1 3RG,Halliwell,Bolton,-2.4317088,53.5883622
HALLIWELL SURGERY 2,"THE HALLIWELL SURGERY LINDFIELD DRIVE,HALLIWELL BOLTON LANCASHIRE BL1 3RG",Halliwell,Bolton,-2.4317088,53.5883622
HALLIWELL SURGERY 3,"THE HALLIWELL SURGERY LINDFIELD DRIVE,HALLIWELL BOLTON LANCASHIRE BL1 3RG",Halliwell,Bolton,-2.4317088,53.5883622
WYRESDALE ROAD SURGERY,46 WYRESDALE ROAD  BOLTON  BL1 4DN,Halliwell,Bolton,-2.4517861,53.5821329
BOLTON GENERAL PRACTICE,MARSDEN HOUSE MARSDEN ROAD BOLTON  BL1 2AY,Halliwell,Bolton,-2.4343763,53.57897
SPRING HOUSE SURGERY,555 CHORLEY OLD ROAD BOLTON GREATER MANCHESTER  BL1 6AF,Heaton and Lostock,Bolton,-2.4635603,53.5884336
DEANE CLINIC 1,"DEANE CLINIC HORSEFIELD STREET,DEANE BOLTON LANCASHIRE BL3 4LU",Heaton and Lostock,Bolton,-2.4648549,53.5674818
KILDONAN HOUSE,KILDONAN HOUSE RAMSBOTTOM ROAD HORWICH BOLTON BL6 5NW,Horwich and Blackrod,Bolton,-2.5454246,53.5947209
DR MALHOTRA & PARTNERS,"PIKE VIEW MEDICAL CENTRE ALBERT STREET, HORWICH BOLTON  BL6 7AS",Horwich North East,Bolton,-2.5477847,53.601421
ST HELENS ROAD PRACTICE,GARNET FOLD PRACTICE 374-376 ST HELENS ROAD BOLTON LANCASHIRE BL3 3RR,Hulton,Bolton,-2.4576704,53.55957
DEANE MEDICAL CENTRE,279/283 ST.HELENS ROAD  BOLTON  BL3 3QB,Hulton,Bolton,-2.4550403,53.5608477
KEARSLEY MEDICAL CENTRE,"KEARSLEY MEDICAL CENTRE JACKSON ST, KEARSLEY BOLTON LANCASHIRE BL4 8EP",Kearsley,Bolton,-2.3826933,53.5431639
FARNWORTH HEALTH CENTRE 1,FARNWORTH HEALTH CENTRE FREDERICK STREET FARNWORTH BOLTON BL4 9AL,Kearsley,Bolton,-2.3978766,53.5462542
FARNWORTH HEALTH CENTRE 2,FARNWORTH HEALTH CENTRE FREDERICK STREET FARNWORTH BOLTON BL4 9AH,Kearsley,Bolton,-2.3978766,53.5462542
LITTLE LEVER HEALTH CENTRE 1,"LITTLE LEVER HEALTH CTR MYTHAM RD,LITTLE LEVER BOLTON LANCASHIRE BL3 1JF",Little Lever and Darcy Lever,Bolton,-2.3702489,53.5595767
LITTLE LEVER HEALTH CENTRE 2,"LITTLE LEVER HEALTH CTR MYTHAM RD,LITTLE LEVER BOLTON LANCASHIRE BL3 1JF",Little Lever and Darcy Lever,Bolton,-2.3702489,53.5595767
SPRING VIEW MEDICAL CENTRE,SPRING VIEW MEDICAL CTR. MYTHAM ROAD LITTLE LEVER BOLTON BL3 1HQ,Little Lever and Darcy Lever,Bolton,-2.3693616,53.5610166
THE PIKES LANE CENTRE,THE PIKES LANE CENTRE DEANE ROAD BOLTON LANCASHIRE BL3 5HP,Rumworth,Bolton,-2.4451051,53.57292
SWAN LANE MEDICAL CENTRE,SWAN LANE MEDICAL CENTRE SWAN LANE BOLTON LANCASHIRE BL3 6TL,Rumworth,Bolton,-2.44249,53.5669653
SHANTI MEDICAL CENTRE,SHANTI MEDICAL CENTRE 160 ST.HELENS ROAD BOLTON LANCASHIRE BL3 3PH,Rumworth,Bolton,-2.4514542,53.5633472
ORIENT HOUSE MEDICAL CENTRE,216 WIGAN ROAD BOLTON   BL3 5QE,Rumworth,Bolton,-2.4606762,53.5689649
PIKES LANE 2,THE PIKES LANE CENTRE DEANE ROAD BOLTON LANCASHIRE BL3 5HP,Rumworth,Bolton,-2.4451051,53.57292
AL FAL MEDICAL GROUP,THE PIKES LANE CENTRE DEANE ROAD BOLTON LANCASHIRE BL3 5HP,Rumworth,Bolton,-2.4451051,53.57292
3D MEDICAL CENTRE,200 DEANE ROAD BOLTON LANCASHIRE  BL3 5DP,Rumworth,Bolton,-2.4437724,53.5729651
OLIVE FAMILY PRACTICE,THE PIKES LANE CENTRE DEANE ROAD BOLTON  BL3 5HP,Rumworth,Bolton,-2.4451051,53.57292
HEATON MEDICAL CENTRE,"HEATON MEDICAL CENTRE 2 LUCY STREET HEATON, BOLTON  BL1 5PU",Smithills,Bolton,-2.4686286,53.5879907
CORNERSTONE SURGERY,CORNERSTONE SURGERY 469 CHORLEY OLD ROAD BOLTON LANCASHIRE BL1 6AH,Smithills,Bolton,-2.4592235,53.5887317
TONGE FOLD HEALTH CENTRE,"TONGE FOLD HEALTH CENTRE HILTON ST, TONGE FOLD BOLTON LANCASHIRE BL2 6DY",Tonge with the Haulgh,Bolton,-2.4054648,53.5791434
BRADFORD STREET SURGERY,65 BRADFORD STREET HAULGH BOLTON  BL2 1HT,Tonge with the Haulgh,Bolton,-2.416838,53.5775803
UNSWORTH GROUP PRACTICE,"UNSWORTH GROUP PRACTICE PETER HOUSE SURGERY CAPTAIN LEES ROAD WESTHOUGHTON,BOLTON BL5 3UB",Westhoughton North and Chew Moor,Bolton,-2.5086754,53.5479224
STABLE FOLD SURGERY,STABLE FOLD SURGERY 119 CHURCH STREET WESTHOUGHTON BOLTON BL5 3SF,Westhoughton South,Bolton,-2.5237503,53.5524045
MILE LANE HEALTH CENTRE,MILE LANE HEALTH CENTRE MILE LANE BURY  BL8 2JR,Church,Bury,-2.3362256,53.5877451
TOWNSIDE SURGERY,TOWNSIDE PCC-KNOWSLEY PL KNOWSLEY STREET BURY GREATER MANCHESTER BL9 0SN,East,Bury,-2.2989899,53.5902211
DR S DE VIAL & PARTNERS,"MINDEN FAMILY PRACTICES MOORGATE PRIMARY CARE CTR 22 DERBY WAY, BURY  BL9 0NJ",East,Bury,-2.2886213,53.5955214
RIBBLESDALE MEDICAL PRACTICE,TOWNSIDE PCC-KNOWSLEY PL KNOWSLEY STREET BURY GREATER MANCHESTER BL9 0SN,East,Bury,-2.2989899,53.5902211
MINDEN FAMILY PRACTICES - DR NORMAN,"MINDEN FAMILY PRACTICES MOORGATE PRIMARY CARE CTR 22 DERBY WAY, BURY  BL9 0NJ",East,Bury,-2.2886213,53.5955214
MINDEN FAMILY PRACTICES - DR SAXENA,"MINDEN FAMILY PRACTICES MOORGATE PRIMARY CARE CTR 22 DERBY WAY, BURY  BL9 0NJ",East,Bury,-2.2886213,53.5955214
PEEL GPS,TOWNSIDE PCC-KNOWSLEY PL KNOWSLEY STREET BURY GREATER MANCHESTER BL9 0SN,East,Bury,-2.2989899,53.5902211
KNOWSLEY MEDICAL CENTRE,KNOWSLEY MEDICAL CENTRE 9/11 KNOWSLEY STREET BURY  BL9 0ST,East,Bury,-2.300127,53.5890492
ROCK HEALTHCARE LIMITED,MOORGATE PRIMARY CARE CTR 22 DERBY WAY BURY  BL9 0NJ,East,Bury,-2.2885823,53.5956043
WOODBANK SURGERY,WOODBANK SURGERY 2 HUNSTANTON DRIVE BRANDLESHOLME BURY BL8 1EG,Elton,Bury,-2.3110872,53.6048668
GREYLAND MEDICAL CENTRE,GREYLAND MEDICAL CENTRE 468 BURY OLD ROAD PRESTWICH MANCHESTER M25 1NL,Holyrood,Bury,-2.2754618,53.5374102
THE BIRCHES MEDICAL CENTRE,THE BIRCHES MEDICAL CTR. POLEFIELD ROAD PRESTWICH MANCHESTER M25 2GN,Holyrood,Bury,-2.2708229,53.5388364
WALMERSLEY ROAD MEDICAL PRACTICE,110 WALMERSLEY ROAD  BURY  BL9 6DX,Moorside,Bury,-2.2895016,53.5998995
HUNTLEY MOUNT MEDICAL CENTRE,HUNTLEY MOUNT MEDICAL CTR HUNTLEY MOUNT ROAD BURY LANCASHIRE BL9 6JA,Moorside,Bury,-2.2785764,53.601169
GREENMOUNT MEDICAL CENTRE,GREENMOUNT MEDICAL CTR. 9 BRANDLESHOLME ROAD GREENMOUNT BURY BL8 4DR,North Manor,Bury,-2.3367923,53.6247222
GARDEN CITY MEDICAL CENTRE,"GARDEN CITY MEDICAL CTR. 1A GARDEN CITY HOLCOMBE BROOK BURY, LANCASHIRE BL0 9TN",North Manor,Bury,-2.3303769,53.6295238
THE UPLANDS MEDICAL PRACTICE,WHITEFIELD HEALTH CENTRE BURY NEW ROAD WHITEFIELD MANCHESTER M45 8GH,Pilkington Park,Bury,-2.2956165,53.5487747
RADCLIFFE MEDICAL PRACTICE,RADCLIFFE PRIMARY CARE CT 69 CHURCH STREET WEST RADCLIFFE  M26 2SP,Radcliffe East,Bury,-2.3231334,53.5607669
MONARCH MEDICAL CENTRE,MONARCH MEDICAL CENTRE 65 CROSS LANE RADCLIFFE  M26 2QZ,Radcliffe East,Bury,-2.3158357,53.5647543
SPRING LANE SURGERY,"SPRING LANE SURGERY 15-17 SPRING LN,RADCLIFFE MANCHESTER  M26 2TQ",Radcliffe East,Bury,-2.327234,53.562944
RED BANK GROUP PRACTICE,RADCLIFFE PRIMARY CARE CT 69 CHURCH STREET WEST RADCLIFFE  M26 2SP,Radcliffe East,Bury,-2.3231334,53.5607669
RAMSBOTTOM MEDICAL PRACTICE,CARR STREET RAMSBOTTOM BURY  BL0 9DD,Ramsbottom,Bury,-2.3206074,53.6493343
FAIRFAX GROUP PRACTICE,PRESTWICH HEALTH CENTRE FAIRFAX ROAD PRESTWICH MANCHESTER M25 1BT,St Mary's,Bury,-2.2841049,53.5337774
LONGFIELD MEDICAL PRACTICE,"LONGFIELD MEDICAL PRAC PRESTWICH HC,FAIRFAX ROAD PRESTWICH  M25 1BT",St Mary's,Bury,-2.2840818,53.533693
ST GABRIEL'S MEDICAL CENTRE,"ST.GABRIELS MEDICAL CTR. 4 BISHOPS ROAD, PRESTWICH MANCHESTER  M25 0HT",Sedgley,Bury,-2.2651676,53.5203028
WHITTAKER LANE MED CENTRE,"WHITTAKER LANE MED CENTRE DAISY BANK WHITTAKER LANE,PRESTWICH MANCHESTER M25 1EX",Sedgley,Bury,-2.2690744,53.5291387
TOTTINGTON MEDICAL PRACTICE,"TOTTINGTON MEDICAL PRACT. 16 MARKET ST, TOTTINGTON BURY  BL8 4AD",Tottington,Bury,-2.3417636,53.6144868
BLACKFORD HOUSE MEDICAL CENTRE,BLACKFORD HOUSE MED CTRE 137 CROFT LANE HOLLINS BURY BL9 8QA,Unsworth,Bury,-2.2833849,53.5742296
UNSWORTH MEDICAL CENTRE,"UNSWORTH MEDICAL CENTRE PARR LANE,UNSWORTH BURY  BL9 8JR",Unsworth,Bury,-2.2731428,53.560479
THE ELMS MEDICAL CENTRE,"THE ELMS MEDICAL CENTRE GREEN LANE, WHITEFIELD MANCHESTER  M45 7FD",Unsworth,Bury,-2.2947423,53.5533575
DR MOKASHI,"CLAYTON HEALTH CENTRE 89 NORTH ROAD, CLAYTON MANCHESTER LANCASHIRE M11 4EJ",Ancoats and Clayton,Manchester,-2.1841968,53.4843638
EASTLANDS MEDICAL CENTRE,"CLAYTON HEALTH CENTRE 89 NORTH ROAD, CLAYTON MANCHESTER LANCASHIRE M11 4EJ",Ancoats and Clayton,Manchester,-2.1841968,53.4843638
NEW ISLINGTON MEDICAL CENTRE,"ANCOATS PRIMARY CARE CTRE OLD MILL STREET,ANCOATS MANCHESTER  M4 6EE",Ancoats and Clayton,Manchester,-2.2226447,53.4819967
THE MAZHARI & KHAN PRACTICE,"CLAYTON HEALTH CENTRE 89 NORTH ROAD, CLAYTON MANCHESTER LANCASHIRE M11 4EJ",Ancoats and Clayton,Manchester,-2.1841968,53.4843638
ANCOATS URBAN VILLAGE MEDICAL PRACTICE,"ANCOATS PRIMARY CARE CTRE OLD MILL STREET,ANCOATS MANCHESTER  M4 6EE",Ancoats and Clayton,Manchester,-2.2226447,53.4819967
THE VALLANCE CENTRE,THE VALLANCE CENTRE BRUNSWICK STREET MANCHESTER  M13 9UJ,Ardwick,Manchester,-2.2241594,53.4698559
DR CUNNINGHAM & PARTNERS,THE VALLANCE CENTRE BRUNSWICK STREET MANCHESTER  M13 9UJ,Ardwick,Manchester,-2.2241594,53.4698559
WEST GORTON MEDICAL PRACTICE,WEST GORTON MEDICAL CTR. 6A WENLOCK WAY WEST GORTON MANCHESTER M12 5LH,Ardwick,Manchester,-2.2037882,53.466968
"DR CHIU, KOH AND GAN",THE VALLANCE CENTRE BRUNSWICK STREET MANCHESTER  M13 9UJ,Ardwick,Manchester,-2.2241594,53.4698559
NEW BANK HEALTH,339 STOCKPORT ROAD LONGSIGHT MANCHESTER  M12 4JE,Ardwick,Manchester,-2.20808,53.46189
THE MAPLES MEDICAL CENTRE,"THE MAPLES MEDICAL CENTRE 2 SCOUT DR, NEWALL GREEN MANCHESTER  M23 2SY",Baguley,Manchester,-2.2867588,53.3848682
BOWLAND MEDICAL PRACTICE,52 BOWLAND ROAD BAGULEY MANCHESTER  M23 1JX,Baguley,Manchester,-2.2871986,53.3934471
THE PARK MEDICAL CENTRE,"PARK MEDICAL CENTRE 434 ALTRINCHAM ROAD BAGULEY WYTHENSHAW, MANCHESTER M23 9AB",Baguley,Manchester,-2.2881371,53.4010221
FIVE OAKS FAMILIY PRACTICE,"FIVE OAKS FAMILY PRACTICE 47 GRAHAM STREET, BESWICK MANCHESTER  M11 3BB",Bradford,Manchester,-2.1946367,53.4754256
CORNERSTONE FAMILY PRACTICE,"CORNERSTONE CENTRE GRAHAM STREET, BESWICK MANCHESTER  M11 3AA",Bradford,Manchester,-2.1953081,53.4744102
FLORENCE HOUSE MEDICAL PRACTICE,HGR OPENSHAW PCC 1344 ASHTON OLD ROAD MANCHESTER  M11 1JG,Bradford,Manchester,-2.161075,53.47258
LIME SQUARE MEDICAL CENTRE,"LIME SQUARE ASHTON OLD ROAD, OPENSHAW MANCHESTER  M11 1DA",Bradford,Manchester,-2.1656109,53.4739987
BROOKLANDS MEDICAL PRACTICE,BROOKLANDS MEDICAL CENTRE 594 ALTRINCHAM ROAD WYTHENSHAWE MANCHESTER M23 9JH,Brooklands,Manchester,-2.3042562,53.4008788
NORTHERN MOOR MEDICAL PRACTICE,NORTHERN MOOR MED PRACT 216 WYTHENSHAWE ROAD NORTHERN MOOR MANCHESTER M23 0PH,Brooklands,Manchester,-2.2853933,53.4079293
WOODLANDS MEDICAL PRACTICE,"WOODLANDS MED PRACTICE 9 MAPLE RD, BROOKLANDS MANCHESTER  M23 9RL",Brooklands,Manchester,-2.3113936,53.4067746
KINGSWAY MEDICAL PRACTICE,720 BURNAGE LANE BURNAGE MANCHESTER LANCASHIRE M19 1UG,Burnage,Manchester,-2.212689,53.4201676
BURNAGE HEALTHCARE PRACTICE,THE SURGERY PRIMARY CARE RESOURCE CTR BURNAGE LANE MANCHESTER M19 1EW,Burnage,Manchester,-2.2005812,53.4306117
DAM HEAD MEDICAL CENTRE,"DAM HEAD MEDICAL CENTRE 1020 ROCHDALE RD,BLACKLEY MANCHESTER  M9 7HD",Charlestown,Manchester,-2.2125997,53.526244
CHARLESTOWN MD,"CHARLESTOWN MD CHARLESTOWN RD, BLACKLEY MANCHESTER  M9 7ED",Charlestown,Manchester,-2.1911228,53.5228594
NEW COLLEGIATE MEDICAL CENTRE,NEW COLLEGIATE MED.CENTRE 407 CHEETHAM HILL ROAD CHEETHAM MANCHESTER M8 0DA,Cheetham,Manchester,-2.2359413,53.5043771
CHEETHAM HILL PRIMARY CARE CENTRE,CHEETHAM HILL PCC 244 CHEETHAM HILL RD MANCHESTER  M8 8UP,Cheetham,Manchester,-2.2358027,53.5007864
QUEENS MEDICAL CENTRE,CHEETHAM HILL PCC 244 CHEETHAM HILL ROAD CHEETHAM HILL MANCHESTER M8 8AU,Cheetham,Manchester,-2.2358027,53.5007864
JOLLY MEDICAL CENTRE,"THE JOLLY MEDICAL CENTRE 72 CRESCENT RD, CRUMPSALL MANCHESTER  M8 9NT",Cheetham,Manchester,-2.2401051,53.5121917
CHORLTON FAMILY PRACTICE,CHORLTON HEALTH CENTRE 1 NICOLAS ROAD CHORLTON-CUM-HARDY MANCHESTER M21 9NJ,Chorlton,Manchester,-2.2794601,53.4437276
MERSEYBANK SURGERY,36 MERSEYBANK AVENUE CHORLTON MANCHESTER  M21 7NN,Chorlton Park,Manchester,-2.2631328,53.4229158
DAVID MEDICAL CENTRE,DAVID MEDICAL CENTRE 274 BARLOW MOOR ROAD CHORLTON-CUM-HARDY MANCHESTER M21 8HA,Chorlton Park,Manchester,-2.2687146,53.4319609
CORKLAND ROAD MEDICAL PRACTICE,7-9 CORKLAND ROAD CHORLTON-CUM-HARDY MANCHESTER LANCASHIRE M21 8UP,Chorlton Park,Manchester,-2.2739456,53.4418689
THE DOC'S SURGERY,THE DOC'S SURGERY 55-59 BLOOM STREET MANCHESTER  M1 3LY,City Centre,Manchester,-2.2380366,53.4769373
CITY HEALTH CENTRE,"CITY HEALTH CENTRE 2ND FL, 32 MARKET ST MANCHESTER LANCASHIRE M1 1PL",City Centre,Manchester,-2.2437202,53.4823472
WELLFIELD MEDICAL CENTRE,"WELLFIELD MEDICAL CENTRE 53 CRESCENT RD, CRUMPSALL MANCHESTER LANCASHIRE M8 9JT",Crumpsall,Manchester,-2.2426021,53.5128051
ARTANE MEDICAL CENTRE,ARTANE MEDICAL CENTRE 1 MIDDLETON ROAD HIGHER CRUMPSALL MANCHESTER M8 5DT,Crumpsall,Manchester,-2.2493028,53.5165349
PARK VIEW MEDICAL CENTRE,PARK VIEW MEDICAL CENTRE 66 DELAUNAYS ROAD CRUMPSALL MANCHESTER M8 4RF,Crumpsall,Manchester,-2.2323822,53.51872
THE NEVILLE FAMILY CENTRE,"THE NEVILLE FAMILY CENTRE 25 OLD MARKET ST,BLACKLEY MANCHESTER  M9 8DX",Crumpsall,Manchester,-2.217374,53.522664
DIDSBURY MEDICAL CENTRE - DR WHITAKER,"DIDSBURY MEDICAL CENTRE 645 WILMSLOW RD, DIDSBURY MANCHESTER  M20 6BA",Didsbury East,Manchester,-2.2319214,53.4201991
BARLOW MEDICAL CENTRE,"BARLOW MEDICAL CENTRE 828 WILMSLOW RD, DIDSBURY MANCHESTER LANCASHIRE M20 2RN",Didsbury West,Manchester,-2.231592,53.412675
THE ALEXANDRA PRACTICE,365 WILBRAHAM ROAD WHALLEY RANGE MANCHESTER LANCASHIRE M16 8NG,Fallowfield,Manchester,-2.2546187,53.4433106
GORTON MEDICAL CENTRE,"GORTON MEDICAL CENTRE 46 WELLINGTON ST, GORTON MANCHESTER  M18 8LJ",Gorton North,Manchester,-2.1718529,53.4628904
MOUNT ROAD SURGERY,"MOUNT ROAD SURGERY 110 MOUNT ROAD, GORTON MANCHESTER LANCASHIRE M18 7BQ",Gorton North,Manchester,-2.1811192,53.4590292
LEVENSHULME MEDICAL PRACTICE,"LEVENSHULME HEALTH CENTRE DUNSTABLE ST, LEVENSHULME MANCHESTER LANCASHIRE M19 3BX",Gorton South,Manchester,-2.1889867,53.446284
ASHCROFT SURGERY,ASHCROFT SURGERY 803 STOCKPORT ROAD LEVENSHULME MANCHESTER M19 3BS,Gorton South,Manchester,-2.1911273,53.4456939
VALENTINE MEDICAL CENTRE,"VALENTINE MEDICAL CENTRE 2 SMETHURST ST, BLACKLEY MANCHESTER GREATER MANCHESTER M9 8PP",Harpurhey,Manchester,-2.2130666,53.5156567
CONRAN MEDICAL CENTRE,"CONRAN MEDICAL CENTRE 77 CHURCH LANE, HARPURHEY MANCHESTER  M9 5BH",Harpurhey,Manchester,-2.2108375,53.5105465
THE SINGH MEDICAL PRACTICE,"THE SINGH MEDICAL PRACT 1 CHURCH LANE,HARPURHEY MANCHESTER LANCASHIRE M9 4BE",Harpurhey,Manchester,-2.2139073,53.5120233
FERNCLOUGH SURGERY,"UNIT 1, TAVISTOCK SQUARE HARPURHEY MANCHESTER LANCASHIRE M9 5RD",Harpurhey,Manchester,-2.2163045,53.5059075
WILLOWBANK SURGERY,1 WILLOWBANK CHURCH LANE MANCHESTER  M9 4WH,Harpurhey,Manchester,-2.2082743,53.5099422
SIMPSON MEDICAL PRACTICE,"SIMPSON MEDICAL PRACTICE 361 MOSTON LANE, MOSTON MANCHESTER  M40 9NB",Harpurhey,Manchester,-2.1973957,53.5140486
BEACON MEDICAL CENTRE,"BEACON MEDICAL CENTRE 156 VICTORIA AVE,BLACKLEY MANCHESTER  M9 0FN",Higher Blackley,Manchester,-2.21912,53.5343326
THE AVENUE MEDICAL CENTRE,THE AVENUE MEDICAL CENTRE 51-53 VICTORIA AVENUE BLACKLEY MANCHESTER M9 6BA,Higher Blackley,Manchester,-2.2116624,53.5331831
MANCHESTER MEDICAL,"MOSS SIDE HEALTH CENTRE MONTON STREET, MOSS SIDE MANCHESTER  M14 4GP",Hulme,Manchester,-2.2374652,53.458626
THE ARCH MEDICAL PRACTICE,"HULME MEDICAL CENTRE 175 ROYCE ROAD HULME, MANCHESTER  M15 5TJ",Hulme,Manchester,-2.2496736,53.4677673
CORNBROOK MEDICAL PRACTICE,"CITY ROAD SURGERY 204 CITY ROAD, HULME MANCHESTER  M15 4EA",Hulme,Manchester,-2.2588182,53.4685114
WEST POINT MEDICAL CENTRE,WEST POINT MEDICAL CENTRE 167-169 SLADE LANE LEVENSHULME MANCHESTER M19 2AF,Levenshulme,Manchester,-2.1978718,53.4453053
HAWTHORN MC,UNIT K FALLOWFIELD R PK BIRCHFIELDS ROAD MANCHESTER LANCASHIRE M14 6FS,Levenshulme,Manchester,-2.2047489,53.4423092
SURREY LODGE PRACTICE,SURREY LODGE GROUP PRACT 11 ANSON ROAD VICTORIA PARK MANCHESTER M14 5BY,Longsight,Manchester,-2.2170387,53.4571603
DICKENSON ROAD MEDICAL CENTRE,357-359 DICKENSON ROAD LONGSIGHT MANCHESTER  M13 0WQ,Longsight,Manchester,-2.2012345,53.4561173
PARKSIDE SURGERY,PARKSIDE SURGERY 187 NORTHMOOR ROAD LONGSIGHT MANCHESTER M12 5RU,Longsight,Manchester,-2.1909212,53.4532042
LONGSIGHT MEDICAL PRACTICE,LONGSIGHT HEALTH CENTRE 526-528 STOCKPORT ROAD LONGSIGHT MANCHESTER M13 0RR,Longsight,Manchester,-2.2018719,53.457584
DROYLSDEN RD FAMILY PRACTICE,125 DROYLSDEN ROAD NEWTON HEATH MANCHESTER  M40 1NT,Miles Platting and Newton Heath,Manchester,-2.1761154,53.4999853
WHITLEY ROAD MEDICAL CENTRE,WHITLEY ROAD MEDICAL CTR 1 WHITLEY ROAD COLLYHURST MANCHESTER M40 7QH,Miles Platting and Newton Heath,Manchester,-2.2227785,53.4949229
BROOKDALE SURGERY,"BROOKDALE SURGERY 202 DROYLSDEN ROAD NEWTON HEATH,MANCHESTER  M40 1NZ",Miles Platting and Newton Heath,Manchester,-2.1737558,53.4992234
NEWTON HEATH MEDICAL CENTRE,NEWTON HEATH HEALTH CTRE 2 OLD CHURCH STREET NEWTON HEATH MANCHESTER M40 2JF,Miles Platting and Newton Heath,Manchester,-2.184031,53.5023457
MP VICTORIA MILL,VICTORIA MILL HEALTH CTR 10 LOWER VICKERS STREET MANCHESTER LANCASHIRE M40 7LH,Miles Platting and Newton Heath,Manchester,-2.2134725,53.4901048
THE WHITSWOOD PRACTICE,THE WHITSWOOD PRACTICE 2 WHITSWOOD CLOSE MANCHESTER LANCASHIRE M16 7AP,Moss Side,Manchester,-2.253481,53.455628
ST GEORGE'S MEDICAL CENTRE,"ST.GEORGES DRIVE MED CTR ST.GEORGES DRIVE, MOSTON MANCHESTER  M40 5HP",Moston,Manchester,-2.1901177,53.509569
HAZELDENE MEDICAL CENTRE,"HAZELDENE MEDICAL CENTRE 97 MOSTON LANE EAST NEW MOSTON, MANCHESTER  M40 3HD",Moston,Manchester,-2.161307,53.516281
NORTHENDEN GROUP PRACTICE,THE NORTHENDEN GROUP PRAC 489 PALATINE ROAD NORTHENDEN MANCHESTER M22 4DH,Northenden,Manchester,-2.2647741,53.4064883
THE BORCHARDT MEDICAL CENTRE,THE BORCHARDT MEDICAL CTR 62 WHITCHURCH ROAD WITHINGTON MANCHESTER M20 1EB,Old Moat,Manchester,-2.2377739,53.4343173
PRINCESS ROAD SURGERY,PRINCESS ROAD SURGERY 471-475 PRINCESS ROAD WITHINGTON MANCHESTER M20 1BH,Old Moat,Manchester,-2.2437143,53.4401966
AL-SHIFA MEDICAL CENTRE,4-6 COPSON STREET WITHINGTON MANCHESTER LANCASHIRE M20 3HE,Old Moat,Manchester,-2.2292925,53.4338575
AILSA CRAIG MEDICAL CENTRE,AILSA CRAIG MEDICAL GROUP 270 DICKENSON ROAD LONGSIGHT MANCHESTER M13 0YL,Rusholme,Manchester,-2.2086903,53.4543633
THE ROBERT DARBISHIRE PRACTICE,"ROBERT DARBISHIRE PRACT. RUSHOLME HEALTH CENTRE WALMER STREET,RUSHOLME MANCHESTER M14 5NP",Rusholme,Manchester,-2.226324,53.454965
WILMSLOW ROAD SURGERY,"WILMSLOW ROAD MEDICAL CTR 156 WILMSLOW RD, RUSHOLME MANCHESTER  M14 5LQ",Rusholme,Manchester,-2.2227994,53.4521715
RK MEDICAL PRACTICE,BROWNLEY GREEN HEALTH CTR 171 BROWNLEY ROAD WYTHENSHAWE  M22 9UH,Sharston,Manchester,-2.2558301,53.3874944
BENCHILL MEDICAL PRACTICE,BROWNLEY GREEN HEALTH CTR 171 BROWNLEY ROAD MANCHESTER  M22 9UH,Sharston,Manchester,-2.2558301,53.3874944
ASHVILLE SURGERY,"ASHVILLE SURGERY 171 UPPER CHORLTON RD WHALLEY RANGE, MANCHESTER LANCASHIRE M16 9RT",Whalley Range,Manchester,-2.2676924,53.4527274
THE RANGE MEDICAL CENTRE,THE RANGE MEDICAL CENTRE 121 WITHINGTON ROAD WHALLEY RANGE MANCHESTER M16 8EE,Whalley Range,Manchester,-2.25711,53.4530327
WILBRAHAM SURGERY,515 WILBRAHAM ROAD CHORLTON-CUM-HARDY MANCHESTER  M21 0UF,Whalley Range,Manchester,-2.2705463,53.4423135
LADYBARN GROUP PRACTICE,LADYBARN GROUP PRACTICE 54 BRIARFIELD ROAD WITHINGTON MANCHESTER M20 4SS,Withington,Manchester,-2.2141401,53.4303701
MAULDETH MEDICAL CENTRE,MAULDETH MEDICAL CENTRE 112 MAULDETH ROAD FALLOWFIELD MANCHESTER M14 6SQ,Withington,Manchester,-2.2136878,53.4350226
BODEY MEDICAL CENTRE,BODEY MEDICAL CENTRE 28 LADYBARN LANE FALLOWFIELD MANCHESTER M14 6WP,Withington,Manchester,-2.2154466,53.4407108
FALLOWFIELD MEDICAL CENTRE,FALLOWFIELD MEDICAL CTR 75 LADYBARN LANE FALLOWFIELD MANCHESTER M14 6YL,Withington,Manchester,-2.2135646,53.4384071
PEEL HALL MEDICAL CENTRE,PEEL HALL MEDICAL PRAC FORUM HEALTH SIMONSWAY MANCHESTER  M22 5RX,Woodhouse Park,Manchester,-2.2649753,53.3800466
CORNISHWAY GROUP PRACTICE,"FORUM HEALTH, SIMONSWAY WYTHENSHAWE MANCHESTER  M22 5RX",Woodhouse Park,Manchester,-2.264514,53.3793478
TREGENNA GROUP PRACTICE,"TREGENNA PORTWAY, WOODHOUSE PARK WYTHENSHAWE MANCHESTER M22 0EP",Woodhouse Park,Manchester,-2.2564378,53.3707759
JARVIS MEDICAL PRACTICE,JARVIS MED PRAC-GPCC 137 GLODWICK ROAD OLDHAM  OL4 1YN,Alexandra,Oldham,-2.0965743,53.53505
CHADDERTON SOUTH HEALTH CENTRE,CHADDERTON SOUTH HTH.CTR. EAVES LANE CHADDERTON OLDHAM OL9 8RG,Chadderton Central,Oldham,-2.1515403,53.533777
CHADDERTON MEDICAL PRACTICE,CHADDERTON TOWN HTH.CTR. MIDDLETON ROAD CHADDERTON OLDHAM OL9 0LH,Chadderton North,Oldham,-2.1423874,53.5455073
WOODLANDS MEDICAL PRACTICE,"CHADDERTON TOWN HLTH.CTR MIDDLETON ROAD,CHADDERTON OLDHAM  OL9 0LH",Chadderton North,Oldham,-2.1423874,53.5455073
CH MEDICAL PRACTICE,"FIELDS NEW RD P-CARE CTR FIELDS NEW RD,CHADDERTON OLDHAM  OL9 8NH",Chadderton South,Oldham,-2.1470986,53.5318135
DONALD WILDE MEDICAL CENTRE,DONALD WILDE MEDICAL CTR 283 ROCHDALE ROAD OLDHAM  OL1 2HG,Coldhurst,Oldham,-2.1204352,53.5494708
THE CHOWDHURY PRACTICE,INTEGRATED CARE CENTRE NEW RADCLIFFE STREET OLDHAM  OL1 1NL,Coldhurst,Oldham,-2.1171487,53.54381
OLDHAM FAMILY PRACTICE,1ST FLOOR INTEGRATED C C NEW RADCLIFFE STREET OLDHAM LANCASHIRE OL1 1NL,Coldhurst,Oldham,-2.1171487,53.54381
JALAL PRACTICE,INTEGRATED CARE CENTRE NEW RADCLIFFE STREET OLDHAM LANCASHIRE OL1 1NL,Coldhurst,Oldham,-2.1171487,53.54381
PERKINS PRACTICE,INTEGRATED CARE CENTRE NEW RADCLIFFE STREET OLDHAM  OL1 1NL,Coldhurst,Oldham,-2.1171487,53.54381
THE DURU PRACTICE,INTEGRATED CARE CENTRE NEW RADCLIFFE STREET OLDHAM LANCASHIRE OL1 1NL,Coldhurst,Oldham,-2.1171487,53.54381
JOHN STREET MEDICAL PRACTICE,1 JOHN STREET OLDHAM   OL8 1DF,Coldhurst,Oldham,-2.119272,53.5404127
LINDLEY HOUSE HEALTH CENTRE,INTEGRATED CARE CENTRE NEW RADCLIFFE STREET OLDHAM GREATER MANCHESTER OL1 1NL,Coldhurst,Oldham,-2.1171487,53.54381
FAILSWORTH GROUP PRACTICE,"THE FAILSWORTH GROUP PRAC FAILSWORTH DISTRICT CTR ASHTON RD WEST,FAILSWORTH MANCHESTER M35 0AD",Failsworth West,Oldham,-2.1567473,53.5098547
QUAYSIDE MEDICAL PRACTICE,ASHTON ROAD WEST FAILSWORTH MANCHESTER  M35 0AD,Failsworth West,Oldham,-2.1578612,53.5081285
HOSSAIN PRACTICE,FAILSWORTH DISTRICT CTR ASHTON RD WEST FAILSWORTH MANCHESTER M35 0AD,Failsworth West,Oldham,-2.1565266,53.5099235
ST CHADS MEDICAL PRACTICE,ST CHADS MEDICAL PRACTICE ST CHADS CENTRE LIME GREEN PARADE OLDHAM OL8 3HH,Hollinwood,Oldham,-2.1266403,53.5152377
HOLLINWOOD MEDICAL PRACTICE,HOLLINWOOD MED. PRACTICE 1 CLIVE STREET OLDHAM  OL8 3TR,Hollinwood,Oldham,-2.1276782,53.5222048
OLDHAM MEDICAL SERVICES,LANGHAM HOUSE 368 ASHTON ROAD OLDHAM LANCASHIRE OL8 3HF,Medlock Vale,Oldham,-2.1112207,53.5253445
HILL TOP SURGERY,"FITTON HILL N C FIRCROFT RD, FITTON HILL OLDHAM  OL8 2QD",Medlock Vale,Oldham,-2.1014484,53.5215238
ROYTON MEDICAL CENTRE,ROYTON MEDICAL CENTRE MARKET STREET ROYTON OLDHAM OL2 5QA,Royton North,Oldham,-2.1236931,53.5657842
THE PARKS MEDICAL PRACTICE,"ROYTON HLTH WELLBEING CTR PARK STREET, ROYTON OLDHAM  OL2 6QW",Royton South,Oldham,-2.1215157,53.5663899
THE ROYTON & CROMPTON FAMILY PRACTICE,"ROYTON HLTH WELLBEING CTR PARK STREET, ROYTON OLDHAM  OL2 6QW",Royton South,Oldham,-2.1215157,53.5663899
SADDLEWORTH MEDICAL PRACTICE,"SADDLEWORTH MED PRACTICE SMITHY LANE, UPPERMILL OLDHAM  OL3 6AH",Saddleworth South,Oldham,-2.0045908,53.5481667
LEESBROOK SURGERY,"LEESBROOK SURGERY MELLOR STREET LEES, OLDHAM  OL4 3DG",Saddleworth West and Lees,Oldham,-2.0726121,53.5386205
LEES MEDICAL PRACTICE,ATHENS WAY LEES OLDHAM  OL4 3BP,Saddleworth West and Lees,Oldham,-2.0751148,53.5387912
SARAF MEDICAL PRACTICE,"MOORSIDE MEDICAL CENTRE 681 RIPPONDEN RD,MOORSIDE OLDHAM LANCASHIRE OL1 4JU",St James',Oldham,-2.0750856,53.562935
MOORSIDE MEDICAL PRACTICE,MOORSIDE MEDICAL CENTRE 681 RIPPONDEN ROAD MOORSIDE OLDHAM OL1 4JU,St James',Oldham,-2.0750856,53.562935
ST MARY'S MEDICAL CENTRE,ST.MARY'S MEDICAL CENTRE ROCK STREET OLDHAM LANCASHIRE OL1 3UL,St Mary's,Oldham,-2.1090237,53.5434425
HOPWOOD HOUSE MEDICAL PRACTICE,"HOPWOOD HOUSE THE VINEYARD, LEES ROAD OLDHAM  OL4 1JN",St Mary's,Oldham,-2.096432,53.5424547
ALEXANDRA GROUP MED PRACT,GLODWICK PRIMARY CARE CTR 137 GLODWICK ROAD OLDHAM  OL4 1YN,St Mary's,Oldham,-2.095081,53.537729
GREENBANK MEDICAL PRACTICE,BARLEY CLOUGH MEDICAL CTR NUGGET STREET OLDHAM  OL4 1BN,St Mary's,Oldham,-2.0962092,53.5379497
MACH HEALTHCARE LIMITED,SUN VALLEY MEDICAL PRACT 137 GLODWICK ROAD OLDHAM  OL4 1YN,St Mary's,Oldham,-2.0959899,53.5390409
OAK GABLES MEDICAL PRACTICE,"OAK GABLES,CROMPTON H/CTR HIGH STREET, SHAW OLDHAM  OL2 8ST",Shaw,Oldham,-2.0958625,53.5749781
VILLAGE MEDICAL PRACTICE,"VILLAGE MEDICAL PRACTICE CROMPTON HEALTH CENTRE HIGH STREET SHAW, OLDHAM OL2 8ST",Shaw,Oldham,-2.0960572,53.5748294
SPRINGFIELD HOUSE,SPRINGFIELD HOUSE 275 HUDDERSFIELD ROAD OLDHAM LANCASHIRE OL4 2RJ,Waterhead,Oldham,-2.0858497,53.5483268
DANSON FAMILY PRACTICE P85018,WERNETH PRIMARY CARE CTR FEATHERSTALL ROAD SOUTH OLDHAM GREATER MANCHESTER OL9 7AY,Werneth,Oldham,-2.1305902,53.5371431
THE SURGERY,WERNETH PRIMARY CARE CTR FEATHERSTALL ROAD SOUTH OLDHAM GREATER MANCHESTER OL9 7AY,Werneth,Oldham,-2.1305902,53.5371431
BLOCK LANE SURGERY,"THE SURGERY 158 BLOCK LANE,CHADDERTON OLDHAM LANCASHIRE OL9 7SG",Werneth,Oldham,-2.1388114,53.5349916
LITTLETOWN FAMILY MED PRACT,LITTLETOWN FAM MED PRAC 53 MANCHESTER ROAD OLDHAM LANCASHIRE OL8 4LR,Werneth,Oldham,-2.1344463,53.5291751
WERNETH MEDICAL PRACTICE,"AL-KOWSAR SURGERY 76A WINDSOR ROAD COPPICE, OLDHAM  OL8 4AL",Werneth,Oldham,-2.1267454,53.5343306
MOHANTY PRACTICE,WERNETH PRIMARY CARE CTR FEATHERSTALL ROAD SOUTH OLDHAM GREATER MANCHESTER OL9 7AY,Werneth,Oldham,-2.1305902,53.5371431
KAPUR FAMILY CARE,WERNETH PRIMARY CARE CTR FEATHERSTALL ROAD SOUTH OLDHAM GREATER MANCHESTER OL9 7AY,Werneth,Oldham,-2.1305902,53.5371431
WELLFIELD HEALTH CENTRE,WELLFIELD HEALTH CENTRE 116 OLDHAM ROAD ROCHDALE LANCASHIRE OL11 1AD,Balderstone and Kirkholt,Rochdale,-2.147526,53.606926
KIRKHOLT MEDICAL PRACTICE,QUEENS DRIVE KIRKHOLT ROCHDALE LANCASHIRE OL11 2NP,Balderstone and Kirkholt,Rochdale,-2.163521,53.598177
CASTLETON HEALTH CENTRE,"CASTLETON HEALTH CENTRE 2 ELIZABETH ST,CASTLETON ROCHDALE LANCASHIRE OL11 3HY",Castleton,Rochdale,-2.1831142,53.5970211
YORKSHIRE ST SURGERY,YORKSHIRE STREET SURGERY 188-190 YORKSHIRE STREET ROCHDALE LANCASHIRE OL16 2DN,Central Rochdale,Rochdale,-2.1524154,53.6204798
MARK STREET SURGERY,MARK STREET SURGERY 2 MARK STREET ROCHDALE LANCASHIRE OL12 9BE,Central Rochdale,Rochdale,-2.1441313,53.6241733
CROFT SHIFA HEALTH CENTRE,FLR2 THE CROFT SHIFA HC BELFIELD ROAD ROCHDALE LANCASHIRE OL16 2UP,Central Rochdale,Rochdale,-2.141365,53.6222746
INSPIRE MEDICAL CENTRE,2ND FLR CROFT SHIFA HC BELFIELD ROAD ROCHDALE LANCASHIRE OL16 2UY,Central Rochdale,Rochdale,-2.141365,53.6222746
7 DAY ACCESS ROCHDALE INFIRMARY HUB,ROCHDALE INFIRMARY WHITEHALL ST ROCHDALE LANCASHIRE OL12 0NB,Central Rochdale,Rochdale,-2.1600947,53.6231081
THE JUNCTION SURGERY,"THE JUNCTION SURGERY 346 GRIMSHAW LANE MIDDLETON JUNCTION MIDDLETON, MANCHESTER M24 2AU",East Middleton,Rochdale,-2.1742585,53.5416485
HEALEY SURGERY,HEALEY SURGERY WHITWORTH ROAD ROCHDALE LANCASHIRE OL12 6EY,Healey,Rochdale,-2.1636721,53.6335194
HOPWOOD MEDICAL CENTRE,"HOPWOOD MEDICAL CENTRE 1-3 WALTON STREET,HOPWOOD HEYWOOD LANCASHIRE OL10 2BS",Hopwood Hall,Rochdale,-2.2108279,53.5872684
THE KINGSWAY PRACTICE,THE KINGSWAY PRACTICE 285A KINGSWAY ROCHDALE LANCASHIRE OL16 4AT,Kingsway,Rochdale,-2.1359879,53.6132461
WINTER PRESSURES,THE KINGSWAY PRACTICE 285A KINGSWAY ROCHDALE LANCASHIRE OL16 4AT,Kingsway,Rochdale,-2.1359879,53.6132461
THE VILLAGE MEDICAL CTR.,THE VILLAGE MEDICAL CTR. PEEL STREET LITTLEBOROUGH LANCASHIRE OL15 8AQ,Littleborough Lakeside,Rochdale,-2.0975348,53.6427101
TRINITY MEDICAL CENTRE,TRINITY MEDICAL CENTRE 22 WINTON STREET LITTLEBOROUGH LANCASHIRE OL15 8AR,Littleborough Lakeside,Rochdale,-2.0992603,53.642062
DR GWD BHIMA,1ST FLOOR NYE BEVAN HOUSE MACLURE ROAD ROCHDALE LANCASHIRE OL11 1DN,Milkstone and Deeplish,Rochdale,-2.1547191,53.6108396
THE DALE MEDICAL PRACTICE,2ND FLOOR NYE BEVAN HOUSE MACLURE ROAD ROCHDALE LANCASHIRE OL11 1DN,Milkstone and Deeplish,Rochdale,-2.1547794,53.6108211
DR A HAMID,2ND FLOOR NYE BEVAN HOUSE MACLURE ROAD ROCHDALE LANCASHIRE OL11 1DN,Milkstone and Deeplish,Rochdale,-2.1547794,53.6108211
DR MB GHAFOOR & PARTNERS,"1ST FLOOR, NYE BEVAN HSE MACLURE ROAD ROCHDALE LANCASHIRE OL11 1DN",Milkstone and Deeplish,Rochdale,-2.1547191,53.6108396
MILNROW VILLAGE PRACTICE,MILNROW VILLAGE PRACTICE 44-48 NEWHEY ROAD MILNROW ROCHDALE OL16 4EG,Milnrow and Newhey,Rochdale,-2.105663,53.6063403
STONEFIELD STREET SURGERY,"STONEFIELD STREET SURGERY STONEFIELD STREET,MILNROW ROCHDALE LANCASHIRE OL16 4JQ",Milnrow and Newhey,Rochdale,-2.1089068,53.6077764
LONGFORD STREET MEDICAL CENTRE,LONGFORD STREET MED CTR LONGFORD STREET HEYWOOD LANCASHIRE OL10 4NH,North Heywood,Rochdale,-2.2205536,53.5944419
BIRTLE VIEW MEDICAL PRACTICE,BIRTLE VIEW MED PRACTICE GEORGE STREET HEYWOOD LANCASHIRE OL10 4PW,North Heywood,Rochdale,-2.2279089,53.5944436
7 DAY ACCESS PHOENIX HUB,PHOENIX CENTRE CHURCH ST HEYWOOD LANCASHIRE OL10 1LR,North Heywood,Rochdale,-2.218391,53.5923786
ROCHDALE ROAD MEDICAL CENTRE,ROCHDALE ROAD MEDICAL CTR 48A ROCHDALE ROAD MIDDLETON GREATER MANCHESTER M24 2PU,North Middleton,Rochdale,-2.1959022,53.5563726
DOCTORS' SURGERY,"DOCTORS' SURGERY CLOUGH ST, MIDDLETON MANCHESTER GREATER MANCHESTER M24 2YJ",North Middleton,Rochdale,-2.187663,53.556791
PETERLOO MEDICAL CENTRE,PETERLOO MEDICAL CENTRE 133-135 MANCHESTER OLD RD MIDDLETON MANCHESTER M24 4DZ,South Middleton,Rochdale,-2.2051664,53.5471746
MIDDLETON HEALTH CENTRE,THE HEALTH CENTRE UNIT F1 MIDDLETON SHOPPING CENTRE MIDDLETON GREATER MANCHESTER M24 4EL,South Middleton,Rochdale,-2.201049,53.5482585
7 DAY ACCESS MIDDLETON HC,"MIDDLETON HC,UNIT 1 MIDDLETON SHOPPING CENTRE MIDDLETON MANCHESTER M24 2EL",South Middleton,Rochdale,-2.2007711,53.5483865
EDENFIELD ROAD SURGERY,EDENFIELD ROAD SURGERY CUTGATE SHOPP PRECINCT ROCHDALE LANCASHIRE OL11 5AQ,Spotland and Falinge,Rochdale,-2.1886379,53.6223124
ASHWORTH STREET SURGERY,ASHWORTH STREET SURGERY 85 SPOTLAND ROAD ROCHDALE LANCASHIRE OL12 6RT,Spotland and Falinge,Rochdale,-2.1656219,53.6196425
THE DAWES FAMILY PRACTICE,THE DAWES FAMILY PRACTICE 83 SPOTLAND ROAD ROCHDALE LANCASHIRE OL12 6RX,Spotland and Falinge,Rochdale,-2.1656519,53.619565
LITTLEBOROUGH GROUP PRACTICE,LITTLEBOROUGH HEALTH CTR. FEATHERSTALL ROAD LITTLEBOROUGH LANCASHIRE OL15 8HF,Wardle and West Littleborough,Rochdale,-2.1034201,53.6430558
PENNINE SURGERY,PENNINE SURGERY L'BORO HC FEATHERSTALL RD LITTLEBOROUGH LANCASHIRE OL15 8HF,Wardle and West Littleborough,Rochdale,-2.1033479,53.6430113
7 DAY ACCESS LITTLEBOROUGH HUB,LITTLEBOROUGH HC FEATHERSTALL RD ROCHDALE LANCASHIRE OL15 8HF,Wardle and West Littleborough,Rochdale,-2.1034201,53.6430558
HEYWOOD HEALTH,ARGYLE STREET MEDICAL CTR 141 ARGYLE STREET HEYWOOD LANCASHIRE OL10 3SD,West Heywood,Rochdale,-2.2391031,53.5873173
HEADY HILL SURGERY,HEADY HILL SURGERY 114 BURY NEW ROAD HEYWOOD LANCASHIRE OL10 4RG,West Heywood,Rochdale,-2.2415686,53.5936259
WOODSIDE MEDICAL CENTRE,"WOODSIDE MEDICAL CENTRE 247J WOOD STREET LANGLEY ESTATE, MIDDLETON MANCHESTER M24 5QL",West Middleton,Rochdale,-2.2135411,53.5567314
DURNFORD MEDICAL CENTRE,DURNFORD MEDICAL CENTRE 113 LONG STREET MIDDLETON MANCHESTER M24 6DL,West Middleton,Rochdale,-2.1978879,53.5530983
FAMILY PRACTICE,133 BOWNESS ROAD LANGLEY MIDDLETON MANCHESTER M24 4EN,West Middleton,Rochdale,-2.217471,53.5544881
WINDERMERE SURGERY,109-111 WINDERMERE ROAD LANGLEY MIDDLETON MANCHESTER M24 5WF,West Middleton,Rochdale,-2.2060576,53.5598289
ECCLES GATEWAY MEDICAL CENTRE,ECCLES GATEWAY MED CTR 28 BARTON LANE ECCLES MANCHESTER M30 0TU,Barton,Salford,-2.3389759,53.4826386
ELLENBROOK MEDICAL CENTRE,ELLENBROOK MEDICAL CENTRE ELLENBROOK VILLAGE CENTRE 14 MORSTON CLOSE WORSLEY M28 1PB,Boothstown and Ellenbrook,Salford,-2.4145689,53.5112343
ORCHARD MEDICAL PRACTICE,"10 LEIGH ROAD BOOTHSTOWN, WORSLEY MANCHESTER  M28 1LZ",Boothstown and Ellenbrook,Salford,-2.4213045,53.5030269
DR ANDERSON & DR AHMED,"THE SURGERY 239 MOSLEY COMMON ROAD BOOTHSTOWN, WORSLEY  M28 1BZ",Boothstown and Ellenbrook,Salford,-2.4233399,53.5057285
MOCHA PARADE MEDICAL PRACTICE,THE SURGERY 4-5 MOCHA PARADE SALFORD  M7 1QE,Broughton,Salford,-2.2606651,53.4917071
NEWBURY GREEN MEDICAL PRACTICE,NEWBURY PLACE HEALTH CTR 55 RIGBY STREET SALFORD  M7 4NX,Broughton,Salford,-2.2607203,53.5073847
4/LOWER BROUGHTON MEDICAL PRACTICE,LOWER BROUGHTON HTH.CTR. GREAT CLOWES STREET SALFORD MANCHESTER M7 1RD,Broughton,Salford,-2.2590091,53.4935635
DR DAVIS'S MEDICAL PRACTICE,NEWBURY PLACE HEALTH CTR 55 RIGBY STREET SALFORD  M7 4NX,Broughton,Salford,-2.2607203,53.5073847
LIMEFIELD ROAD MEDICAL PRACTICE,NEWBURY PLACE HEALTH CTR 55 RIGBY STREET SALFORD  M7 4NX,Broughton,Salford,-2.2607203,53.5073847
1/LOWER BROUGHTON MEDICAL PRACTICE,LOWER BROUGHTON HTH.CTR. GREAT CLOWES STREET SALFORD  M7 1RD,Broughton,Salford,-2.2590091,53.4935635
3/LOWER BROUGHTON MEDICAL PRACTICE,LOWER BROUGHTON HTH.CTR. GREAT CLOWES STREET SALFORD  M7 1RD,Broughton,Salford,-2.2590091,53.4935635
IRLAM GROUP PRACTICE,"IRLAM GROUP PRACTICE 523 LIVERPOOL RD, IRLAM MANCHESTER  M44 6ZS",Cadishead,Salford,-2.4257847,53.4396241
2/IRLAM MEDICAL PRACTICE,IRLAM MEDICAL CENTRE MACDONALD ROAD IRLAM MANCHESTER M44 5LH,Cadishead,Salford,-2.4317541,53.4383654
THE MOSSLANDS MEDICAL PRACTICE,"THE MOSSLANDS MED PRAC IRLAM MEDICAL CENTRE MACDONALD ROAD, IRLAM MANCHESTER M44 5LH",Cadishead,Salford,-2.4317541,53.4383654
THE HEIGHT GENERAL PRACTICE,"THE SURGERY,355 BOLTON RD SALFORD MANCHESTER  M6 7NJ",Claremont,Salford,-2.3079341,53.5002321
4/ST ANDREWS MEDICAL PRACTICE,"ST.ANDREWS MEDICAL CENTRE 30 RUSSELL STREET, ECCLES MANCHESTER  M30 0NU",Eccles,Salford,-2.341073,53.4851811
2/ST ANDREWS MEDICAL PRACTICE,"ST.ANDREWS MEDICAL CENTRE 30 RUSSELL STREET, ECCLES MANCHESTER  M30 0NU",Eccles,Salford,-2.341073,53.4851811
1/MONTON MEDICAL PRACTICE,"MONTON MED CTR,CANAL SIDE MONTON GREEN, ECCLES MANCHESTER  M30 8AR",Eccles,Salford,-2.3569981,53.4918197
3/ST ANDREWS MEDICAL CENTRE,"ST.ANDREWS MEDICAL CENTRE 30 RUSSELL STREET, ECCLES MANCHESTER  M30 0NU",Eccles,Salford,-2.341073,53.4851811
CHAPEL MEDICAL CENTRE,CHAPEL MEDICAL CENTRE 220 LIVERPOOL ROAD HIGHER IRLAM MANCHESTER M44 6FE,Irlam,Salford,-2.4182532,53.449078
(IRLAM) SALFORD CARE CTRS MEDICAL PRACTI,SALFORD CARE CTR(IRLAM) 125 LIVERPOOL ROAD IRLAM MANCHESTER M44 6DP,Irlam,Salford,-2.4174542,53.4489365
SALFORD HEALTH MATTERS,"SALFORD HEALTH MATTERS WILLOW TREE H L C 94 LITTLETON ROAD,SALFORD MANCHESTER M7 3SE",Kersal,Salford,-2.2779068,53.5026878
1/SALFORD MEDICAL PRACTICE,SALFORD MEDICAL CENTRE 194-198 LANGWORTHY ROAD SALFORD  M6 5PP,Langworthy,Salford,-2.2945617,53.4872367
PENDLETON MEDICAL CENTRE,PENDLETON GATEWAY 1 THE BROADWALK SALFORD MANCHESTER M6 5FX,Langworthy,Salford,-2.2846008,53.4880381
LANGWORTHY MEDICAL PRACTICE,LANGWORTHY MEDICAL CENTRE 250 LANGWORTHY ROAD SALFORD MANCHESTER M6 5WW,Langworthy,Salford,-2.294791,53.4897653
SORREL BANK MEDICAL PRACTICE,"SORREL GROUP PRACTICE 23 BOLTON ROAD, SALFORD MANCHESTER  M6 7HL",Langworthy,Salford,-2.2942657,53.4928603
CLARENDON MEDICAL PRACTICE,"CLARENDON SURGERY PENDLETON GATEWAY 1 THE BROADWALK, SALFORD MANCHESTER M6 5FX",Langworthy,Salford,-2.2847772,53.4884445
CORNERSTONE MEDICAL PRACTICE,"CORNERSTONE MEDICAL PRACT 451 LIVERPOOL ST, SALFORD MANCHESTER  M6 5QQ",Langworthy,Salford,-2.29434,53.483692
CLEGGS LANE MEDICAL PRACTICE/129,"THE SURGERY 129-131 CLEGGS LANE LITTLE HULTON, WORSLEY MANCHESTER M38 9RS",Little Hulton,Salford,-2.4187651,53.53518
CHERRY MEDICAL PRACTICE,LITTLE HULTON CENTRE HAYSBROOK AVENUE MANCHESTER  M28 0AY,Little Hulton,Salford,-2.4222892,53.5293087
ORDSALL HEALTH SURGERY,"ORDSALL HEALTH 118 PHOEBE ST, SALFORD MANCHESTER  M5 3PH",Ordsall,Salford,-2.2819667,53.4741845
BLACKFRIARS,"FRESH TOWERS 138 CHAPEL ST,SALFORD MANCHESTER  M3 6AF",Ordsall,Salford,-2.253884,53.4838731
CARE HOMES MEDICAL PRACTICE,GRD FLR SANDRINGHAM HSE WINDSOR STREET SALFORD  M5 4DG,Ordsall,Salford,-2.2791368,53.4793579
SILVERDALE MEDICAL PRACTICE,"SILVERDALE MED PRACTICE PENDLEBURY HEALTH CENTRE 659 BOLTON RD,PENDLEBURY MANCHESTER M27 8HP",Pendlebury,Salford,-2.3315061,53.5186918
THE POPLARS MEDICAL PRACTICE,"THE POPLARS MEDICAL CTR. 202 PARTINGTON LN,SWINTON MANCHESTER  M27 0NA",Swinton North,Salford,-2.3416328,53.5106118
THE LAKES MEDICAL PRACTICE,THE LAKES MEDICAL PRACT THE LAKES MEDICAL CTR 21 CHORLEY ROAD SWINTON MANCHESTER M27 4AF,Swinton South,Salford,-2.3327178,53.5082495
THE GILL MEDICAL PRACTICE,"THE GILL MEDICAL CENTRE 5 HARRIET STREET WALKDEN, WORSLEY MANCHESTER M28 3DR",Walkden North,Salford,-2.3984479,53.5243031
DR LOOMBA AND PARTNERS,1ST FL WALKDEN GATEWAY 2 SMITH STREET WALKDEN MANCHESTER M28 3EZ,Walkden North,Salford,-2.3984519,53.5249372
DEARDEN AVENUE MEDICAL PRACTICE,THE SURGERY 1A DEARDON AVENUE LITTLE HULTON MANCHESTER M38 9GH,Walkden North,Salford,-2.4186399,53.5338433
MANCHESTER ROAD EAST MEDICAL PRACTICE,152A MANCHESTER ROAD EAST LITTLE HULTON MANCHESTER  M38 9LQ,Walkden North,Salford,-2.410134,53.5267611
WALKDEN MEDICAL PRACTICE,"THE WALKDEN MEDICAL CTR 2 HODGE ROAD, WALKDEN WORSLEY MANCHESTER M28 3AT",Walkden South,Salford,-2.3976471,53.5233365
THE LIMES MEDICAL PRACTICE,"THE LIMES MEDICAL CENTRE 8-12 HODGE ROAD, WALKDEN WORSLEY MANCHESTER M28 3AT",Walkden South,Salford,-2.3975484,53.5231311
ORIENT ROAD MEDICAL PRACTICE,37 ORIENT ROAD  SALFORD  M6 8LE,Weaste and Seedley,Salford,-2.3248199,53.494213
THE WILLOWS MEDICAL PRACTICE,THE WILLOWS LORDS AVENUE SALFORD MANCHESTER M5 5JR,Weaste and Seedley,Salford,-2.3089456,53.4849844
3/SPRINGFIELD HOUSE MEDICAL PRACTICE,"SPRINGFIELD MEDICAL CTR 384 LIVERPOOL RD, ECCLES MANCHESTER  M30 8QD",Winton,Salford,-2.3616508,53.4805712
THE SIDES MEDICAL PRACTICE,THE SIDES MEDICAL CENTRE MOORSIDE ROAD SWINTON MANCHESTER M27 0EW,Worsley,Salford,-2.3544094,53.5048025
BRAMHALL PARK MEDICAL CTR,BRAMHALL PARK MEDICAL CTR 235 BRAMHALL LANE SOUTH BRAMHALL STOCKPORT SK7 3EP,Bramhall North,Stockport,-2.1617658,53.3769259
BRAMHALL HEALTH CENTRE,"BRAMHALL HEALTH CENTRE 66 BRAMHALL LANE SOUTH BRAMHALL, STOCKPORT CHESHIRE SK7 2DY",Bramhall South and Woodford,Stockport,-2.1632462,53.3601215
THE VILLAGE SURGERY,"THE VILLAGE SURGERY 31 BRAMHALL LANE SOUTH BRAMHALL STOCKPORT,CHESHIRE SK7 2DN",Bramhall South and Woodford,Stockport,-2.1650996,53.3591825
WOODLEY VILLAGE SURGERY,"WOODLEY HEALTH CENTRE HYDE ROAD, WOODLEY STOCKPORT CHESHIRE SK6 1ND",Bredbury and Woodley,Stockport,-2.0996575,53.4261879
ALVANLEY FAMILY PRACTICE,"WOODLEY HEALTH CENTRE HYDE ROAD, WOODLEY STOCKPORT CHESHIRE SK6 1ND",Bredbury and Woodley,Stockport,-2.0996575,53.4261879
BREDBURY MEDICAL CENTRE,"BREDBURY MEDICAL CENTRE 1 AUBURN AVENUE BREDBURY STOCKPORT,CHESHIRE SK6 2AH",Bredbury and Woodley,Stockport,-2.114039,53.422924
BL MEDICAL PRACTICE,"WOODLEY HEALTH CENTRE HYDE ROAD, WOODLEY STOCKPORT CHESHIRE SK6 1ND",Bredbury and Woodley,Stockport,-2.0996575,53.4261879
ARCHWOOD MEDICAL PRACTICE,WOODLEY HEALTH CENTRE HYDE ROAD STOCKPORT CHESHIRE SK6 1ND,Bredbury and Woodley,Stockport,-2.0996575,53.4261879
CHADSFIELD MEDICAL PRACTICE,"THE ROMILEY HEALTH CENTRE CHICHESTER ROAD ROMILEY,STOCKPORT CHESHIRE SK6 4QR",Bredbury Green and Romiley,Stockport,-2.089954,53.415016
THE GUYWOOD PRACTICE,"THE GUYWOOD PRACTICE ROMILEY HEALTH CENTRE CHICHESTER ROAD ROMILEY,STOCKPORT SK6 4QR",Bredbury Green and Romiley,Stockport,-2.089497,53.415153
BRINNINGTON SURGERY,"BRINNINGTON HEALTH CENTRE BRINNINGTON ROAD BRINNINGTON,STOCKPORT CHESHIRE SK5 8BS",Brinnington and Central,Stockport,-2.1316086,53.4280507
THE SURGERY 1,30 BRINNINGTON ROAD BRINNINGTON STOCKPORT CHESHIRE SK1 2EX,Brinnington and Central,Stockport,-2.1435561,53.4180422
VERNON PARK SURGERY,VERNON PARK SURGERY 32 BRINNINGTON ROAD STOCKPORT CHESHIRE SK1 2EX,Brinnington and Central,Stockport,-2.1434924,53.4180936
CHEADLE MEDICAL PRACTICE,CHEADLE MEDICAL PRACTICE 1-5 ASHFIELD CRESCENT CHEADLE CHESHIRE SK8 1BH,Cheadle and Gatley,Stockport,-2.2135047,53.3938205
GATLEY MEDICAL CENTRE,"GATLEY MEDICAL CENTRE OLD HALL ROAD, GATLEY CHEADLE CHESHIRE SK8 4DG",Cheadle and Gatley,Stockport,-2.235377,53.3937821
ADSHALL ROAD MEDICAL PRAC,ADSHALL ROAD MEDICAL PRAC 97 ADSHALL ROAD CHEADLE CHESHIRE SK8 2JN,Cheadle Hulme North,Stockport,-2.1929817,53.3901924
CHEADLE HULME HEALTH CTR 2,"CHEADLE HULME HEALTH CTR SMITHY GREEN HULME HALL ROAD CHEADLE HULME,CHESHIRE SK8 6LU",Cheadle Hulme South,Stockport,-2.1913677,53.3665109
HULME HALL MEDICAL GROUP,CHEADLE HULME HEALTH CTR SMITHY GREEN CHEADLE HULME CHESHIRE SK8 6LU,Cheadle Hulme South,Stockport,-2.1913677,53.3665109
CALE GREEN SURGERY,"CALE GREEN SURGERY 20 MEYER ST, CALE GREEN STOCKPORT CHESHIRE SK3 8JE",Davenport and Cale Green,Stockport,-2.1583208,53.3971525
ADSWOOD ROAD SURGERY,"ADSWOOD ROAD SURGERY 270 ADSWOOD ROAD, ADSWOOD STOCKPORT CHESHIRE SK3 8PN",Davenport and Cale Green,Stockport,-2.1695996,53.3888162
DR H LLOYD'S PRACTICE,CEDAR HOUSE 82 BRAMHALL LANE DAVENPORT STOCKPORT SK2 6JG,Davenport and Cale Green,Stockport,-2.1531611,53.3939971
STOCKPORT MEDICAL GROUP,"STOCKPORT MEDICAL GROUP 1-3 AVONDALE RD, EDGELEY STOCKPORT CHESHIRE SK3 9NX",Edgeley and Cheadle Heath,Stockport,-2.1767768,53.4031113
BEECH HOUSE MEDICAL PRACT,"BEECH HOUSE MEDICAL PRACT BEECH AVENUE HAZEL GROVE STOCKPORT,CHESHIRE SK7 4QR",Hazel Grove,Stockport,-2.118202,53.379469
SPRINGFIELD SURGERY,"SPRINGFIELD SURGERY 24-28 COMMERCIAL ROAD HAZEL GROVE STOCKPORT,CHESHIRE SK7 4AA",Hazel Grove,Stockport,-2.1221791,53.3824164
HEALD GREEN HEALTH CENTRE 2,"HEALD GREEN HEALTH CENTRE FINNEY LANE,HEALD GREEN CHEADLE CHESHIRE SK8 3JD",Heald Green,Stockport,-2.2291448,53.3698837
HEALD GREEN HEALTH CENTRE 1,"HEALD GREEN HEALTH CENTRE FINNEY LANE, HEALD GREEN CHEADLE CHESHIRE SK8 3JD",Heald Green,Stockport,-2.2291448,53.3698837
HEATON MOOR MEDICAL GROUP,HEATON MOOR MEDICAL GROUP 32 HEATON MOOR ROAD STOCKPORT CHESHIRE SK4 4NX,Heatons North,Stockport,-2.1800467,53.4249318
EASTHOLME SURGERY,32 HEATON MOOR ROAD HEATON MOOR STOCKPORT  SK4 4NX,Heatons North,Stockport,-2.1800467,53.4249318
HEATON MERSEY MED.PRACT.,"HEATON MERSEY MED.PRACT. 460 DIDSBURY ROAD HEATON MERSEY STOCKPORT,CHESHIRE SK4 3BT",Heatons South,Stockport,-2.2022448,53.4129177
MANOR MEDICAL PRACTICE,"OFFERTON HEALTH CENTRE 10 OFFERTON LANE OFFERTON STOCKPORT,CHESHIRE SK2 5AR",Manor,Stockport,-2.1367886,53.4036052
CARITAS GENERAL PRACTICE PARTNERSHIP,131 MILE END LANE MILE END STOCKPORT CHESHIRE SK2 6BZ,Manor,Stockport,-2.1344544,53.3958773
BRACONDALE MEDICAL CENTRE,"BRACONDALE MEDICAL CENTRE 141 BUXTON ROAD, HEAVILEY STOCKPORT CHESHIRE SK2 6EQ",Manor,Stockport,-2.1470983,53.394287
MARPLE BRIDGE SURGERY,"MARPLE BRIDGE SURGERY TOWN ST, MARPLE BRIDGE STOCKPORT CHESHIRE SK6 5AA",Marple North,Stockport,-2.0532911,53.4002249
MARPLE MEDICAL PRACTICE,"MARPLE MEDICAL PRACTICE 50 STOCKPORT RD, MARPLE STOCKPORT CHESHIRE SK6 6AB",Marple North,Stockport,-2.0656476,53.3950644
MARPLE COTTAGE SURGERY,"MARPLE COTTAGE SURGERY 50 CHURCH ST, MARPLE STOCKPORT CHESHIRE SK6 6BW",Marple South,Stockport,-2.0612257,53.3923659
HIGH LANE MEDICAL CENTRE,"HIGH LANE MEDICAL CENTRE THE VILLAGE GREEN HIGH LANE,STOCKPORT CHESHIRE SK6 8DR",Marple South,Stockport,-2.0753383,53.3649962
FAMILY SURGERY,"THE FAMILY SURGERY 306 GORTON RD,REDDISH STOCKPORT CHESHIRE SK5 6RN",Reddish North,Stockport,-2.1571234,53.4461535
PARK VIEW GROUP PRACTICE,"PARK VIEW GROUP PRACTICE 2 LONGFORD RD WST,REDDISH STOCKPORT CHESHIRE SK5 6ET",Reddish North,Stockport,-2.1583867,53.4457456
HEATON NORRIS HEALTH CTR. 1,"HEATON NORRIS HEALTH CTR. CHEVIOT CL, HEATON NORRIS STOCKPORT CHESHIRE SK4 1JX",Reddish South,Stockport,-2.1674296,53.4165836
SOUTH REDDISH MEDICAL CTR 2,"SOUTH REDDISH MEDICAL CTR REDDISH ROAD SOUTH REDDISH STOCKPORT,CHESHIRE SK5 7QU",Reddish South,Stockport,-2.1570016,53.4223836
GORDON STREET MEDICAL CENTRE,GORDON STREET MED.CTR. 171 MOSSLEY ROAD ASHTON-UNDER-LYNE LANCASHIRE OL6 6NE,Ashton St Michael's,Tameside,-2.0784198,53.4928013
STAMFORD HOUSE,STAMFORD HOUSE 2 PRINCESS STREET ASHTON-UNDER-LYNE LANCASHIRE OL6 9QH,Ashton St Michael's,Tameside,-2.0781872,53.4931914
WATERLOO MEDICAL CENTRE,WATERLOO MEDICAL CENTRE 1 DUNKERLEY STREET ASHTON-UNDER-LYNE LANCASHIRE OL7 9EJ,Ashton Waterloo,Tameside,-2.1038781,53.4987918
DENTON MEDICAL PRACTICE,"DENTON MEDICAL PRACTICE 100 ASHTON RD, DENTON MANCHESTER LANCASHIRE M34 3JE",Denton North East,Tameside,-2.1154455,53.459607
MILLGATE HEALTHCARE PARTNERSHIP,ANN STREET DENTON MANCHESTER  M34 2AJ,Denton West,Tameside,-2.1180565,53.455563
MEDLOCK VALE MEDICAL PRACTICE,"MEDLOCK VALE MED. PRACT. 58 ASHTON RD, DROYLSDEN MANCHESTER LANCASHIRE M43 7BW",Droylsden East,Tameside,-2.1424296,53.4791954
MARKET STREET MEDICAL PRACTICE,76 MARKET STREET DROYLSDEN MANCHESTER  M43 6DE,Droylsden East,Tameside,-2.145759,53.4786879
DROYLSDEN MEDICAL PRACTICE,1-3 ALBION DRIVE DROYLSDEN MANCHESTER LANCASHIRE M43 7NP,Droylsden West,Tameside,-2.1465144,53.4871947
DAVAAR MEDICAL CENTRE,DAVAAR MEDICAL CENTRE 20-22 CONCORD WAY DUKINFIELD CHESHIRE SK16 4DB,Dukinfield,Tameside,-2.0833106,53.4765843
KING STREET MEDICAL CENTRE,KING STREET MEDICAL CTR. 96-98 KING STREET DUKINFIELD CHESHIRE SK16 4JZ,Dukinfield,Tameside,-2.0932559,53.4790577
TOWN HALL SURGERY,TOWN HALL SURGERY 112 KING STREET DUKINFIELD CHESHIRE SK16 4LD,Dukinfield,Tameside,-2.0929495,53.4782971
GROSVENOR MEDICAL CENTRE,GROSVENOR MEDICAL CENTRE 62 GROSVENOR STREET STALYBRIDGE CHESHIRE SK15 1RZ,Dukinfield Stalybridge,Tameside,-2.0591626,53.4813602
THE BROOKE SURGERY,THE BROOKE SURGERY 20 MARKET STREET HYDE CHESHIRE SK14 1AT,Hyde Godley,Tameside,-2.0812358,53.4521035
CLARENDON MEDICAL CENTRE,CLARENDON MEDICAL CENTRE CLARENDON STREET HYDE CHESHIRE SK14 2AQ,Hyde Godley,Tameside,-2.0797375,53.4526288
DONNEYBROOK MEDICAL CENTRE,"DONNEYBROOK MEDICAL CTR DONNEYBROOK HOUSE CLARENDON STREET HYDE, CHESHIRE SK14 2AH",Hyde Godley,Tameside,-2.0796289,53.4526295
HAUGHTON/THORNLEY MEDICAL CENTRES,THORNLEY HOUSE MED/CTR THORNLEY STREET HYDE CHESHIRE SK14 1JY,Hyde Werneth,Tameside,-2.075947,53.446906
AWBURN HOUSE MEDICAL PRACTICE,MOTTRAM MOOR MOTTRAM IN LONGDENDALE HYDE CHESHIRE SK14 6LA,Longdendale,Tameside,-2.0107484,53.4583191
HATTERSLEY GROUP PRACTICE,"HATTERSLEY HEALTH CENTRE HATTERSLEY ROAD EAST HATTERSLEY,HYDE CHESHIRE SK14 3EH",Longdendale,Tameside,-2.0274576,53.4501534
THE SMITHY SURGERY,"THE SMITHY SURGERY 4 MARKET STREET HOLLINGWORTH,VIA HYDE CHESHIRE SK14 8LN",Longdendale,Tameside,-1.9958375,53.4611026
PENNINE MEDICAL CENTRE,"PENNINE MEDICAL CENTRE 193 MANCHESTER RD,MOSSLEY ASHTON-UNDER-LYNE LANCASHIRE OL5 9AJ",Mossley,Tameside,-2.0407885,53.5147864
MOSSLEY MEDICAL PRACTICE,"MOSSLEY MEDICAL PRACTICE 187 MANCHESTER RD,MOSSLEY ASHTON-UNDER-LYNE LANCASHIRE OL5 9AB",Mossley,Tameside,-2.0408384,53.5144566
PIKE MEDICAL PRACTICE,"THE PIKE MED CTR MARKET PLACE, MOSSLEY ASHTON-UNDER-LYNE LANCASHIRE OL5 0HE",Mossley,Tameside,-2.0457559,53.5178069
ALBION MEDICAL PRACTICE,ALBION MEDICAL PRACTICE 1 ALBION STREET ASHTON-UNDER-LYNE LANCASHIRE OL6 6HF,St Peter's,Tameside,-2.0885016,53.4895002
BEDFORD HOUSE MEDICAL CENTRE,BEDFORD HOUSE MEDICAL CTR GLEBE STREET ASHTON-UNDER-LYNE LANCASHIRE OL6 6HD,St Peter's,Tameside,-2.0889636,53.4892617
CHAPEL STREET MEDICAL CENTRE,CHAPEL STREET MEDICAL CTR CHAPEL STREET ASHTON-UNDER-LYNE LANCASHIRE OL6 6EW,St Peter's,Tameside,-2.088859,53.4896221
HT PRACTICE,"HT PRACTICE, ASHTON PCC 193 OLD STREET ASHTON-UNDER-LYNE LANCASHIRE OL6 7SR",St Peter's,Tameside,-2.0991665,53.4861854
WEST END MEDICAL CENTRE,WEST END MEDICAL CENTRE 98-102 STOCKPORT ROAD ASHTON-UNDER-LYNE LANCASHIRE OL7 0LH,St Peter's,Tameside,-2.1076738,53.4808354
TAME VALLEY MEDICAL CENTRE,TAME VALLEY MEDICAL CTR. GLEBE STREET ASHTON-UNDER-LYNE LANCASHIRE OL6 6HD,St Peter's,Tameside,-2.0892634,53.4893776
ASHTON GP SERVICE,"ASHTON PRIMARY CARE CTR. OLD STREET,ST PETERSFIELD ASHTON UNDER LYNE LANCASHIRE OL6 7SR",St Peter's,Tameside,-2.0991665,53.4861854
GUIDE BRIDGE MEDICAL PRACTICE,GUIDE LANE AUDENSHAW MANCHESTER LANCASHIRE M34 5HY,St Peter's,Tameside,-2.1131811,53.471556
STAVELEIGH MEDICAL CENTRE,STAVELEIGH MEDICAL CENTRE KING STREET STALYBRIDGE CHESHIRE SK15 2AE,Stalybridge North,Tameside,-2.0581754,53.4845711
ST.ANDREW'S HOUSE SURGERY,"STALYBRIDGE RESOURCE CTR THE OLD SCH,2 WATERLOO RD STALYBRIDGE  SK15 2AU",Stalybridge North,Tameside,-2.0571336,53.4842244
LOCKSIDE MEDICAL CENTRE,LOCKSIDE MEDICAL CENTRE 85 HUDDERSFIELD ROAD STALYBRIDGE CHESHIRE SK15 2PT,Stalybridge South,Tameside,-2.0468258,53.4851639
MILLBROOK MEDICAL PRACTICE,HOLLYBANK OFF GROVE ROAD STALYBRIDGE CHESHIRE SK15 3BJ,Stalybridge South,Tameside,-2.0345889,53.4925549
ALTRINCHAM MEDICAL PRACTICE,"ALTRINCHAM MEDICAL PRACT LLOYD HOUSE, 7 LLOYD ST. ALTRINCHAM CHESHIRE WA14 2DD",Altrincham,Trafford,-2.3501575,53.3844463
BARRINGTON MEDICAL CENTRE,BARRINGTON MEDICAL CENTRE 68 BARRINGTON ROAD ALTRINCHAM CHESHIRE WA14 1JB,Altrincham,Trafford,-2.3501568,53.3951415
FAMILY SURGERY,THE SURGERY 94 NAVIGATION ROAD ALTRINCHAN CHESHIRE WA14 1LL,Altrincham,Trafford,-2.3459453,53.3963506
ST. JOHNS MEDICAL CENTRE,ST.JOHNS MEDICAL CENTRE ST.JOHNS ROAD ALTRINCHAM CHESHIRE WA14 2NW,Bowdon,Trafford,-2.3538081,53.3827763
WEST TIMPERLEY MEDICAL CENTRE,"WEST TIMPERLEY MED. CTR. 21 DAWSON ROAD WEST TIMPERLEY ALTRINCHAM, CHESHIRE WA14 5PF",Broadheath,Trafford,-2.352858,53.402609
DERBYSHIRE ROAD SOUTH SURGERY,THE SURGERY 12 DERBYSHIRE ROAD SOUTH SALE CHESHIRE M33 3JP,Brooklands,Trafford,-2.3101234,53.4169638
CONWAY ROAD MEDICAL PRACTICE,CONWAY ROAD MED PRACTICE 80A CONWAY ROAD SALE CHESHIRE M33 2TB,Brooklands,Trafford,-2.3040497,53.4166254
BODMIN ROAD HEALTH CENTRE,BODMIN ROAD HEALTH CENTRE BODMIN ROAD SALE CHESHIRE M33 5JH,Bucklow-St Martins,Trafford,-2.352111,53.427414
PARTINGTON CENTRAL SURGERY,"PARTINGTON CENTRAL SURG PARTINGTON HEALTH CENTRE CENTRAL ROAD, PARTINGTON MANCHESTER M31 4FY",Bucklow-St Martins,Trafford,-2.4250542,53.4175711
PARTINGTON FAMILY PRACTICE,PARTINGTON HEALTH CENTRE CENTRAL ROAD PARTINGTON MANCHESTER M31 4FL,Bucklow-St Martins,Trafford,-2.4257095,53.4172106
BROOKS BAR MEDICAL CENTRE,THE BROOKS BAR MED.CTR. 162-164 CHORLTON ROAD OLD TRAFFORD MANCHESTER M16 7WW,Clifford,Trafford,-2.2585182,53.4594313
PRIMROSE SURGERY,59 OLD CROFTS BANK ROAD URMSTON MANCHESTER  M41 7AB,Davyhulme East,Trafford,-2.3579427,53.4562384
URMSTON GROUP PRACTICE,6 WOODSEND CRESCENT ROAD URMSTON MANCHESTER  M41 8AA,Davyhulme West,Trafford,-2.3957316,53.4511084
DAVYHULME MEDICAL CENTRE,"130 BROADWAY DAVYHULME,URMSTON MANCHESTER  M41 7WJ",Davyhulme West,Trafford,-2.3677736,53.4593293
TRAFFORD HEALTH CENTRE,"TRAFFORD HEALTH CENTRE TRAFFORD GH,MOORSIDE ROAD DAVYHULME MANCHESTER M41 5SL",Davyhulme West,Trafford,-2.369109,53.452812
GORSE HILL MEDICAL CENTRE,GORSE HILL MEDICAL CTR 879 CHESTER ROAD STRETFORD MANCHESTER M32 0RN,Gorse Hill,Trafford,-2.2972877,53.4553463
LOSTOCK MEDICAL CENTRE,431 BARTON ROAD STRETFORD MANCHESTER  M32 9PA,Gorse Hill,Trafford,-2.3297082,53.4550907
NORTH TRAFFORD GROUP PRACTICE,NORTH TRAFFORD GROUP PRAC 864/866 CHESTER ROAD STRETFORD MANCHESTER M32 0PA,Gorse Hill,Trafford,-2.2984647,53.4547328
SHAY LANE MEDICAL CENTRE (KELMAN),"SHAY LANE MEDICAL CENTRE SHAY LANE, HALE BARNS ALTRINCHAM CHESHIRE WA15 8NZ",Hale Barns,Trafford,-2.3158543,53.3718857
SHAY LANE MEDICAL CENTRE (PATEL),"SHAY LANE MEDICAL CENTRE SHAY LANE, HALE BARNS ALTRINCHAM CHESHIRE WA15 8NZ",Hale Barns,Trafford,-2.3158543,53.3718857
OLD TRAFFORD MEDICAL PRACTICE,SEYMOUR GROVE HEALTH CTR. 70 SEYMOUR GROVE OLD TRAFFORD MANCHESTER M16 0LW,Longford,Trafford,-2.2754843,53.4580146
WASHWAY ROAD MEDICAL CENTRE,WASHWAY ROAD MEDICAL CTR. 67 WASHWAY ROAD SALE CHESHIRE M33 7SS,Priory,Trafford,-2.3282678,53.4225609
FIRSWAY HEALTH CENTRE,121 FIRSWAY SALE CHESHIRE  M33 4BR,St Mary's,Trafford,-2.3552839,53.4214185
BOUNDARY HOUSE MEDICAL CENTRE,BOUNDARY HOUSE 462 NORTHENDEN ROAD SALE CHESHIRE M33 2RH,Sale Moor,Trafford,-2.2886659,53.4157093
DELAMERE MEDICAL PRACTICE,THE DELAMERE MED PRACT DELAMERE AVENUE STRETFORD MANCHESTER M32 0DF,Stretford,Trafford,-2.307131,53.450096
PARK MEDICAL PRACTICE,"PARK MEDICAL PRACTICE 119 PARK ROAD TIMPERLEY, ALTRINCHAM CHESHIRE WA15 6QQ",Timperley,Trafford,-2.3290979,53.4017983
TIMPERLEY HEALTH CENTRE (WESTWOOD),"TIMPERLEY HEALTH CENTRE 169 GROVE LANE TIMPERLEY, ALTRINCHAM CHESHIRE WA15 6PH",Timperley,Trafford,-2.3244035,53.3971213
VILLAGE SURGERY,"THE VILLAGE SURGERY TIMPERLEY HEALTH CENTRE 169 GROVE LANE,TIMPERLEY CHESHIRE WA15 6PH",Timperley,Trafford,-2.325267,53.397016
RIDDINGS FAMILY HEALTH CENTRE,"RIDDINGS FAMILY HLTH CTR 34 RIDDINGS ROAD TIMPERLEY, ALTRINCHAM CHESHIRE WA15 6BP",Timperley,Trafford,-2.331227,53.404491
GROVE MEDICAL PRACTICE,"GROVE MEDICAL PRACTICE 169 GROVE LANE,TIMPERLEY ALTRINCHAM CHESHIRE WA15 6PH",Timperley,Trafford,-2.324286,53.397279
FLIXTON ROAD MEDICAL CENTRE,FLIXTON ROAD MEDICAL CTR 132 FLIXTON ROAD URMSTON MANCHESTER M41 5BG,Urmston,Trafford,-2.3624752,53.4482625
GLOUCESTER HOUSE MEDICAL CENTRE,"GLOUCESTER HOUSE MED.CTR. 17 STATION ROAD, URMSTON MANCHESTER  M41 9JS",Urmston,Trafford,-2.352632,53.4473161
DR AHMAD & PTNRS,"PLATT BRIDGE HEALTH CTR RIVINGTON AVENUE PLATT BRIDGE, WIGAN  WN2 5NG",Abram,Wigan,-2.5942218,53.5225729
DR TRIVEDI,429 WARRINGTON ROAD ABRAM WIGAN  WN2 5XB,Abram,Wigan,-2.5923428,53.5067534
ULLAH M,PLATT BRIDGE HC RIVINGTON AVENUE PLATT BRIDGE WIGAN WN2 5NG,Abram,Wigan,-2.595925,53.52228
INTRAHEALTH PLATT BRIDGE,PLATT BRIDGE HEALTH CTR RIVINGTON AVENUE PLATT BRIDGE WIGAN WN2 5NG,Abram,Wigan,-2.5942218,53.5225729
DR ALISTAIR & PARTNERS,"ASHTON CLINIC,QUEENS RD ASHTON-IN-MAKERFIELD WIGAN  WN4 8LB",Ashton,Wigan,-2.6390515,53.4906026
ASPULL SURGERY,"ASPULL SURGERY HAIGH ROAD, ASPULL WIGAN  WN2 1XH",Aspull New Springs Whelley,Wigan,-2.5903031,53.5731847
SIVAKUMAR & PARTNER,"THE SURGERY 1 COLDALHURST LANE,ASTLEY TYLDESLEY MANCHESTER M29 7BS",Astley Mosley Common,Wigan,-2.4560784,53.5010122
ASTLEY GENERAL PRACTICE,"ASTLEY GENERAL PRACTICE 391A MANCHESTER RD,ASTLEY MANCHESTER  M29 7BY",Astley Mosley Common,Wigan,-2.4583457,53.5004543
KHATRI K,"THE SURGERY 10 HIGHER GREEN LANE ASTLEY, TYLDESLEY NR.MANCHESTER M29 7HG",Astley Mosley Common,Wigan,-2.4478686,53.5012495
HATIKAKOTY N,BEE FOLD MEDICAL CENTRE BEE FOLD LANE ATHERTON MANCHESTER M46 0BD,Atherleigh,Wigan,-2.49884,53.5171522
DR CHAN,"SEVEN BROOKS MEDICAL CTR. 21 CHURCH ST, ATHERTON MANCHESTER  M46 9DE",Atherton,Wigan,-2.4889742,53.5241523
DR S N SHARMA AND PARTNER,"ATHERTON HEALTH CENTRE NELSON STREET, ATHERTON MANCHESTER  M46 0LE",Atherton,Wigan,-2.50081,53.5275747
MEADOWVIEW SURGERY,"ORMEROD HOUSE ATHERTON HEALTH CENTRE NELSON STREET ATHERTON, MANCHESTER M46 0LE",Atherton,Wigan,-2.50081,53.5275747
DR VASANTH,"ATHERTON HEALTH CENTRE NELSON STREET, ATHERTON MANCHESTER  M46 0LE",Atherton,Wigan,-2.50081,53.5275747
SEVEN BROOKS PRACTICE,"7 BROOKS MEDICAL CENTRE 21 CHURCH ST, ATHERTON MANCHESTER  M46 9DE",Atherton,Wigan,-2.4889742,53.5241523
MEDICENTRE,"MEDICENTRE,185 WIGAN ROAD ASHTON-IN-MAKERFIELD NR. WIGAN  WN4 9SL",Bryn,Wigan,-2.6427004,53.4936823
BRYN CROSS SURGERY,"246 WIGAN ROAD BRYN,ASHTON-IN-MAKERFIELD WIGAN GREATER MANCHESTER WN4 0AR",Bryn,Wigan,-2.6381918,53.4987304
PITALIA S,ASHTON MEDICAL CENTRE 120 WIGAN ROAD ASHTON-IN-MAKERFIELD NR.WIGAN WN4 9SU,Bryn,Wigan,-2.6438833,53.4959698
PEMBERTON SURGERY,"PEMBERTON PCRC SHERWOOD DRIVE, PEMBERTON WIGAN  WN5 9QX",Douglas,Wigan,-2.669591,53.5396874
DR D'ARIFAT & PTNRS,NEWTOWN MEDICAL PRACTICE PEMBERTON PC RESOURCE CTR SHERWOOD DRIVE PEMBERTON WN5 9QX,Douglas,Wigan,-2.6707962,53.5381639
DR ANIS & ANIS,"GOLBORNE HEALTH CENTRE KIDGLOVE ROAD GOLBORNE, WARRINGTON  WA3 3GS",Golborne and Lowton West,Wigan,-2.5954815,53.4798917
DR PAL,"GOLBORNE HEALTH CENTRE KIDGLOVE ROAD GOLBORNE, WARRINGTON  WA3 3GS",Golborne and Lowton West,Wigan,-2.5954815,53.4798917
SHAHBAZI SS,GOLBORNE HEALTH CENTRE KIDGLOVE ROAD GOLBORNE  WA3 3GS,Golborne and Lowton West,Wigan,-2.5954815,53.4798917
SLAG LANE MC,"SLAG LANE MEDICAL CENTRE 216 SLAG LANE, LOWTON NR.WARRINGTON CHESHIRE WA3 2EZ",Golborne and Lowton West,Wigan,-2.5762714,53.4781354
DR TUN & PARTNERS,HINDLEY HEALTH CENTRE 17 LIVERPOOL ROAD HINDLEY NR. WIGAN WN2 3HQ,Hindley,Wigan,-2.5821961,53.5327615
PENNYGATE MEDICAL CENTRE,"PENNYGATE MEDICAL CENTRE 109 LADIES LANE, HINDLEY WIGAN LANCASHIRE WN2 2QG",Hindley,Wigan,-2.5766785,53.541141
