name,type,address,postcode,telephone,website,area_name,area_code,lon,lat
Lime Square Medical Centre,Doctors/GPs|Doctors/GPs,"Lime Square, Ashton Old Road, Manchester",M11 1DA,1613710678,NA,Manchester,E0800003,-2.164901,53.473649
ABL Health Limited,Doctors/GPs,"71 Redgate Way, Farnworth, Bolton",BL4 0JL,1204570999,http://www.ablhealth.co.uk,Bolton,E0800001,-2.429374,53.550328
Nuffield Health Wellbeing Centre Manchester,Doctors/GPs,"East Pavilion, Harbour City, Salford",M50 3SP,1618738112,http://www.nuffieldhealth.com,Salford,E0800006,-2.290235,53.473779
Huntley Mount Medical Centre,Doctors/GPs|Doctors/GPs,"Huntley Mount Road, Bury",BL9 6JA,1617616677,http://www.huntleymountmc.com,Bury,E0800002,-2.27859,53.600201
Samedaydoctor Manchester Clinic,Doctors/GPs|Doctors/GPs,"28 Queen Street, Manchester",M2 5HX,1618277868,http://www.samedaydoctor.co.uk,Manchester,E0800003,-2.247283,53.479455
Manchester Orthopaedic Clinical Services,Doctors/GPs|Doctors/GPs,"19 Ellesmere Road, Eccles, Manchester",M30 9JY,1617070110,NA,Salford,E0800006,-2.340837,53.490371
Skin Medical Manchester,Doctors/GPs|Doctors/GPs,"20 St Ann's Square, Manchester",M2 7HG,1618397663,http://www.skinmedical.co.uk,Manchester,E0800003,-2.246198,53.48219
Doctorcall Manchester,Doctors/GPs|Doctors/GPs,"2-4 Exchange Street, St Ann's Square, Manchester",M2 7HA,8442579507,http://www.doctorcall.co.uk,Manchester,E0800003,-2.245632,53.48284
Rochdale Ophthalmology Clinical Assessment and Treatment Service,Doctors/GPs|Doctors/GPs,"The Croft Shifa, Belfield Road, Rochdale",OL16 2UP,8450774124,http://www.careuk.com,Rochdale,E0800005,-2.14084,53.622824
St Andrews House Medical Centre,Doctors/GPs|Doctors/GPs,"Stalybridge Resource Centre, 2 Waterloo Road, Stalybridge",SK15 2AU,1613383181,http://www.standrewshousemedicalcentre.co.uk,Tameside,E0800008,-2.059094,53.484668
Bupa Centre - Manchester,Doctors/GPs|Doctors/GPs|Phone/online advice,"111 Piccadilly, Manchester",M1 2HY,1612543300,http://www.bupa.co.uk,Manchester,E0800003,-2.23279,53.479522
Willowbank Surgery,Doctors/GPs|Doctors/GPs,"1 Church Lane, Harpurhey, Manchester",M9 4WH,1612059240,NA,Manchester,E0800003,-2.208318,53.50993
Emergency Department University Hospital South Manchester,Doctors/GPs|Doctors/GPs|Mobile doctors|Urgent care centres,"Wythenshawe Hospital, Southmoor Road, Wythenshawe, Manchester",M23 9LT,1619987070,NA,Manchester,E0800003,-2.293183,53.387922
BARDOC - Waters Meeting Health Centre,Doctors/GPs|Doctors/GPs|Mobile doctors|Urgent care centres,"Navigation Park, Waters Meeting Road, Bolton",BL1 8TT,1617638940,http://www.bardoc.com,Bolton,E0800001,-2.42777,53.590359
MASTA Travel Clinic - Manchester,Doctors/GPs,"STA Manchester, Unit 6, Barton Arcade, 556 Deansgate, Manchester",M3 2BW,3301004131,http://www.masta-travel-health.com,Manchester,E0800003,-2.246861,53.482207
Seven Brooks Medical Centre,Doctors/GPs|Doctors/GPs,"21 Church Street, Atherton, Manchester",M46 9DE,1942483933,NA,Wigan,E08000010,-2.489022,53.524185
Laserase Bolton Limited,Doctors/GPs|Doctors/GPs,"71 Redgate Way, Farnworth, Bolton",BL4 0JL,1204570900,http://www.laserase-bolton.co.uk,Bolton,E0800001,-2.429374,53.550328
Dickenson Road Medical Centre,Doctors/GPs|Doctors/GPs|Mobile doctors|Urgent care centres,"357-359 Dickenson Road, Longsight, Manchester",M13 0WQ,1612246522,NA,Manchester,E0800003,-2.200961,53.455985
Jarvis Medical Practice - GPCC,Doctors/GPs|Doctors/GPs,"137 Glodwick Road, Oldham",OL4 1YN,1616229220,NA,Oldham,E0800004,-2.095095,53.537786
The Dale Medical Practice,Doctors/GPs|Doctors/GPs,"2nd Floor Nye Bevan House, Maclure Road, Rochdale",OL11 1DN,1706261900,NA,Rochdale,E0800005,-2.154239,53.611617
Little Lever Health Centre,Doctors/GPs|Doctors/GPs,"Mytham Road, Little Lever, Bolton",BL3 1JF,1204462988,NA,Bolton,E0800001,-2.370624,53.559818
Nuffield Health Manchester Printworks Fitness and Wellbeing Centre,Doctors/GPs|Doctors/GPs,"The Printworks, 27 Withy Grove, Manchester",M4 2BS,1614646947,http://www.nuffieldhealth.com,Manchester,E0800003,-2.240778,53.485169
Ultima Vitality,Doctors/GPs|Doctors/GPs,"718A Wilmslow Road, Manchester",M20 2DW,1614347373,http://www.ultimavitality.co.uk,Manchester,E0800003,-2.231744,53.417567
Thornley House Medical Centre,Doctors/GPs|Doctors/GPs,"Thornley Street, Hyde",SK14 1JY,1613671791,NA,Tameside,E0800008,-2.076116,53.446746
Transform (Manchester),Clinic|Doctors/GPs|Doctors/GPs,"5th Floor, Colwyn Chambers, 19 York Street, Manchester",M2 3BA,1612287030,http://www.transforminglives.co.uk,Manchester,E0800003,-2.239954,53.480659
Beacon Medical Centre,Doctors/GPs|Doctors/GPs|Long-term conditions,"156 Victoria Avenue, Manchester",M9 0FN,1617402106,http://www.mysurgerywebsite.co.uk,Manchester,E0800003,-2.219211,53.534341
Royton Medical Centre,Doctors/GPs|Doctors/GPs|Long-term conditions,"15 Market Street, Royton, Oldham",OL2 5QA,1616526336,NA,Oldham,E0800004,-2.12386,53.565731
Dam Head Medical Centre,Doctors/GPs|Doctors/GPs|Long-term conditions,"1020 Rochdale Road, Manchester",M9 7HD,1617209744,NA,Manchester,E0800003,-2.21232,53.526139
THMG Manchester Clinic,Doctors/GPs,"The Chambers, Police Street, Manchester",M2 7LQ,2072919700,http://www.harleymedical.co.uk,Manchester,E0800003,-2.246709,53.481544
Hollinwood Medical Practice,Doctors/GPs|Doctors/GPs,"1 Clive Street, Oldham",OL8 3TR,1616277900,http://www.hollinwoodpractice.org.uk/,Oldham,E0800004,-2.128466,53.521996
Whiteson Hair Loss Consultancy Ltd,Doctors/GPs,"The Old Hall Clinic, 14 Old Hall Road, Gatley",SK8 4BE,7970859229,http://www.drwhitesonhairlossclinic.co.uk,Stockport,E0800007,-2.234427,53.393814
Lees Medical Practice,Doctors/GPs|Doctors/GPs,"Lees Medical Practice, Athens Way, Lees, Oldham",OL4 3BP,1616521285,NA,Oldham,E0800004,-2.074881,53.540281
Star Clinic,Doctors/GPs,"Milton Hall, 244 Deansgate, Manchester",M3 4BQ,8717054565,http://www.andreamarando.com,Manchester,E0800003,-2.250049,53.477977
Ascroft Medical,Doctors/GPs|Dentist|Doctors/GPs,"3 Ascroft Court, Peter Street, Oldham",OL1 1HP,NA,http://www.ascroftmedical.co.uk,Oldham,E0800004,-2.11304,53.540644
Oldham Health Services,Community services - Healthcare|Doctors/GPs|Doctors/GPs,"Oldham Intergrated Care Centre, New Radcliffe Street, Oldham",OL1 1NL,1616213400,NA,Oldham,E0800004,-2.116945,53.543824
Shevington Surgery,Doctors/GPs|Doctors/GPs,"Houghton   Lane, Shavington, Wigan",WN6 8ET,1942483777,http://www.shavington-surgery.co.uk/index.aspx,Wigan,E08000010,-2.69942,53.574041
Seven Brooks Medical Centre,Doctors/GPs|Doctors/GPs,"21 Church Street, Atherton, Wigan",M46 9DE,1942884026,http://www.sevenbrooksmedicalcentre.nhs.uk,Wigan,E08000010,-2.489022,53.524185
Pemberton Surgery,Doctors/GPs|Doctors/GPs,"Sherwood Drive, Wigan",WN5 9QX,8444779459,http://www.pembertonsurgery.co.uk,Wigan,E08000010,-2.669697,53.538479
NE Consultancy,Doctors/GPs|Doctors/GPs,"223-225 Stockport Road, Guide Bridge, Ashton Under Lyne",OL7 0NT,1613378086,NA,Tameside,E0800008,-2.112615,53.476432
Grasmere Surgery,Doctors/GPs|Doctors/GPs,"Leigh Health Centre, The Avenue, Leigh",WN7 1HR,1942483330,http://www.grasmere.surgery.co.uk,Wigan,E08000010,-2.511455,53.503236
Oaklands Hospital,Doctors/GPs|Doctors/GPs,"19 Lancaster Road, Salford",M6 8AQ,1617877700,http://www.pioneerhealthcare.co.uk,Salford,E0800006,-2.321064,53.492297
Bardoc - Fairfield General Hospital,Doctors/GPs|Doctors/GPs|Urgent care centres,"Rochdale Old Road, Bury",BL9 7TD,1617634242,http://www.bardoc.co.uk,Bury,E0800002,-2.25562,53.600439
The Jalal Practice,Doctors/GPs|Doctors/GPs,"Integrated Care Centre, New Radcliffe Street, Oldham",OL1 1NL,1616213443,NA,Oldham,E0800004,-2.116945,53.543824
Peel Hall Medical Practice,Doctors/GPs|Doctors/GPs|Mobile doctors|Urgent care centres,"Forum Square, Civic Centre, Wythenshawe",M22 5RX,1613751e3,NA,Manchester,E0800003,-2.265017,53.379925
Bryn Cross Surgery,Doctors/GPs|Doctors/GPs,"246 Wigan Road, Ashton In Makerfield, Wigan",WN4 0AR,1942727270,NA,Wigan,E08000010,-2.64744,53.500897
Barlow Medical Centre,Doctors/GPs|Doctors/GPs|Mobile doctors|Urgent care centres,"828 Wilmslow Road, Didsbury, Manchester",M20 2RN,NA,NA,Manchester,E0800003,-2.231434,53.413163
Ladybarn Group Practice,Doctors/GPs|Doctors/GPs|Mobile doctors|Urgent care centres,"54 Briarfield Road, Withington, Manchester",M20 4SS,NA,NA,Manchester,E0800003,-2.213962,53.429923
Bury GP Federation - Extended Working Hours Fairfax Practice,Community services - Healthcare|Doctors/GPs|Doctors/GPs|Mobile doctors,"Fairfax Road, Prestwich, Manchester",M25 1BT,1617621672,http://www.burygpfederation.com,Bury,E0800002,-2.28357,53.533828
Bury GP Federation - Extended Working Hours Radcliffe Primary Care Centre,Community services - Healthcare|Doctors/GPs|Doctors/GPs|Mobile doctors,"69 Church Street West, Radcliffe, Manchester",M26 2SP,1617621672,http://www.burygpfederation.com,Bury,E0800002,-2.323706,53.560143
Bury GP Federation - Extended Working Hours Moorgate Primary care Centre,Community services - Healthcare|Doctors/GPs|Doctors/GPs|Mobile doctors,"22 Derby Way, Bury",BL9 0NJ,1617621672,http://www.burygpfederation.com,Bury,E0800002,-2.288591,53.59553
Northenden Group Practice,Doctors/GPs|Doctors/GPs|Mobile doctors|Urgent care centres,"Northenden Health Centre, 489 Palatine Road, Manchester",M22 4DH,1619983206,NA,Manchester,E0800003,-2.265032,53.406431
Chorlton Health Centre,Doctors/GPs|Doctors/GPs|Mobile doctors|Urgent care centres,"Chorlton Health Centre, 1 Nicolas Road, Chorlton Cum Hardy, Manchester",M21 9NJ,1618814545,NA,Manchester,E0800003,-2.279717,53.443773
The Arch Medical Centre,Doctors/GPs|Doctors/GPs|Mobile doctors|Urgent care centres,"Hulme Medical Centre, 175 Royce Road, Manchester",M15 5TJ,1612260606,NA,Manchester,E0800003,-2.249612,53.46774
West Point Medical Centre,Doctors/GPs|Doctors/GPs|Mobile doctors|Urgent care centres,"167-169 Slade Lane, Manchester",M19 2AF,1612485100,NA,Manchester,E0800003,-2.197586,53.445978
Eccles Gateway,Doctors/GPs|Doctors/GPs,"Eccles Gateway, 28 Barton Lane, Eccles",M30 0TU,1612124231,NA,Salford,E0800006,-2.339314,53.48253
The Medical Centre,Doctors/GPs|Doctors/GPs,"The Etihad Campus, CFA - First Team Centre, 161 Clayton Lane, Manchester",M11 4TS,1614387106,http://www.mcfc.co.uk/the-club/etihad-campus-development,Manchester,E0800003,-2.186364,53.478993
DHI Manchester,Doctors/GPs|Doctors/GPs,"Suite 3C & 3D, Floor 3, Blackfriars House, Parsonage,, Manchester",M3 2JA,1618393769,NA,Manchester,E0800003,-2.247865,53.483375
International House,Doctors/GPs|Doctors/GPs|Mobile doctors|Phone/online advice|Urgent care centres,"Pepper Road, Hazel Grove, Stockport",SK7 5BW,1614760400,NA,Stockport,E0800007,-2.139563,53.378258
10 St John Street,Doctors/GPs|Doctors/GPs,"10 St John Street, Manchester",M3 4DY,2074862277,NA,Manchester,E0800003,-2.25092,53.477812
BL Medical Practice,Doctors/GPs|Doctors/GPs,"Woodley Health Centre, Hyde Road, Stockport",SK6 1ND,1614269464,http://www.benslanemedicalpractice.co.uk,Stockport,E0800007,-2.0996610000000002,53.426289
English Institute of Sport - Manchester,Doctors/GPs|Doctors/GPs|Rehabilitation (illness/injury),"EIS, 299 Alan Turing Way, Manchester",M11 3BS,NA,http://www.eis2win.co.uk,Manchester,E0800003,-2.191764,53.477301
Face & Eye,Doctors/GPs|Doctors/GPs,"2 Gibwood Road, Manchester",M22 4BT,1619472720,http://www.faceandeye.co.uk,Manchester,E0800003,-2.266591,53.405584
Ashton Medical Centre,Doctors/GPs|Doctors/GPs,"120 Wigan Road, Ashton In Makerfield, Wigan",WN4 9SU,1942727325,http://www.ssphealth.com,Wigan,E08000010,-2.642855,53.494792
Lower Ince Surgery,Doctors/GPs|Doctors/GPs,"Clare Houae, Phoenix Way, Ince, Wigan",WN3 4NW,1942481140,http://www.ssphealth.com,Wigan,E08000010,-2.614585,53.534922
Ince Surgery,Doctors/GPs|Doctors/GPs,"Ince Community Centre, Manchester Road, Ince, Wigan",WN2 2DJ,1942483150,http://www.ssphealth.com,Wigan,E08000010,-2.604008,53.543362
Braithwaite Road Surgery,Doctors/GPs|Doctors/GPs,"36 Braithwaite Road, Lowton, Warrington",WA3 2HY,1942718221,http://www.ssphealth.com,Wigan,E08000010,-2.574985,53.477412
Astley General Practice,Doctors/GPs|Doctors/GPs,"391A Manchester Road, Astley, Tyldesley, Manchester",M29 7BY,1942876339,http://www.ssphealth.com,Wigan,E08000010,-2.458266,53.500415
3D Medical Centre,Doctors/GPs|Doctors/GPs,"200-202 Deane Road, Bolton",BL3 5DP,1204463246,http://www.ssphealth.com,Bolton,E0800001,-2.444008,53.573058
Bolton General Practice,Doctors/GPs|Doctors/GPs,"Marsden House, Marsden Road, Bolton",BL1 2AY,1204521e3,http://www.ssphealth.com,Bolton,E0800001,-2.43424,53.578947
The Heights General Practice,Doctors/GPs|Doctors/GPs,"355 Bolton Road, Salford",M6 7NJ,1617365282,http://www.ssphealth.com,Salford,E0800006,-2.308735,53.500671
Bolton Medical Centre,Doctors/GPs|Doctors/GPs,"21 Rupert Street, Bolton",BL3 6PY,1204463900,http://www.ssphealth.com,Bolton,E0800001,-2.431399,53.56543
Nuffield Health Manchester Diagnostic Suite,Doctors/GPs,"City Labs, Nelson Street, Manchester",M13 9NQ,7557296378,NA,Manchester,E0800003,-2.228478,53.462228
Nye Bevan House,Community services - Healthcare|Doctors/GPs|Doctors/GPs,"Maclure Road, Rochdale",OL11 1DN,NA,NA,Rochdale,E0800005,-2.154239,53.611617
Townside Primary Care Centre,Community services - Healthcare|Doctors/GPs|Doctors/GPs,"3rd Floor, Knowsley Street, Bury",BL9 0SN,NA,NA,Bury,E0800002,-2.29898,53.59031
Beehive Surgery,Doctors/GPs|Doctors/GPs,"106-108 Crescent Road, Bolton",BL3 2JR,1204550100,http://www.beehivesurgery.com,Bolton,E0800001,-2.419172,53.564161
Urmston Group Practice,Doctors/GPs|Doctors/GPs,"6 Woodsend Crescent Road, Urmston, Manchester",M41 8AA,1617559870,http://www.urmstongrouppractice.co.uk,Trafford,E0800009,-2.394066,53.452491
HR Healthcare Ltd,Doctors/GPs|Phone/online advice,"The Office, Waters Meeting, Britannia Way, Bolton",BL2 2HH,1204559999,http://www.treated.com,Bolton,E0800001,-2.420907,53.593131
Fernclough Surgery,Doctors/GPs|Doctors/GPs,"Unit 1, Tavistock Square, Harpurhey, Machester",M9 5RD,NA,NA,Manchester,E0800003,-2.216154,53.50589
Diagnostic Healthcare Limited,Doctors/GPs|Diagnosis/screening|Diagnosis/screening|Doctors/GPs,"Mansion House, 3 Bridgewater Embankment, Altrincham",WA14 4RW,NA,NA,Trafford,E0800009,-2.353017,53.397872
Deane Medical Centre,Doctors/GPs|Doctors/GPs,"155-157 Deane Road, Bolton",BL3 5AH,7905046240,NA,Bolton,E0800001,-2.441983,53.572699
Heaton Medical Centre,Doctors/GPs|Doctors/GPs,"2 Lucy Street, Bolton",BL1 5PU,1204843677,NA,Bolton,E0800001,-2.46832,53.587976
Now GP,Doctors/GPs|Doctors/GPs|Phone/online advice,"1 Lowry Plaza, The Quays, Salford",M50 3UB,8083018067,http://www.drnow.com,Salford,E0800006,-2.294542,53.471305
Primrose Surgery,Doctors/GPs|Doctors/GPs,"59 Old Crofts Bank, Urmston, Manchester",M41 7AB,1617472424,http://www.primroseavenue.co.uk,Trafford,E0800009,-2.357311,53.456159
Cheetham Hill Medical Centre,Doctors/GPs|Doctors/GPs,"244 Cheetham Hill Road, Manchester",M8 8AU,7951725356,http://www.cheethamhillmedicalcentre.co.uk,Manchester,E0800003,-2.235847,53.500819
The Neville Family Medical Centre,Doctors/GPs|Doctors/GPs,"25 Old Market Street, Blackley, Manchester",M9 8DX,1617214865,http://www.nevillefmc.com,Manchester,E0800003,-2.220629,53.522771
Direct Medicare UK Limited,Doctors/GPs|Doctors/GPs,"Bodmin Road Health Centre, Bodmin Road, Sale",M33 5JH,16119624625,NA,Trafford,E0800009,-2.351718,53.428123
Ashton 7 Day Access Hub,Doctors/GPs|Doctors/GPs,"Ashton Primary Care Centre, 193 Old Street, Ashton-Under-Lyne",OL6 7SR,1613427e3,NA,Tameside,E0800008,-2.099213,53.486097
Hyde 7 Day Access Hub,Doctors/GPs|Doctors/GPs,"Haughton Thornley Medical Centre, Thornley House, Thornley Street, Hyde",SK14 1JY,7533992822,NA,Tameside,E0800008,-2.076116,53.446746
Cheetham Hill Medical Centre,Doctors/GPs|Doctors/GPs,"244 Cheetham Hill Road, Cheetham Hill, Manchester",M8 8UP,NA,NA,Manchester,E0800003,-2.23526,53.501162
Conran Medical Centre,Doctors/GPs|Doctors/GPs,"77 Church Lane, Harpurhey, Manchester",M9 1BA,NA,NA,Manchester,E0800003,-2.210459,53.515913
North Manchester General Hospital-Outpatients A,Doctors/GPs|Doctors/GPs,"Delaunays Road, Manchester",M8 5RB,NA,NA,Manchester,E0800003,-2.229502,53.517882
Integrated Care Centre,Doctors/GPs|Doctors/GPs,"New Radcliffe Street, Oldham",OL1 1NL,1616224294,NA,Oldham,E0800004,-2.116945,53.543824
Royton Health & Wellbeing Centre,Doctors/GPs|Doctors/GPs,"Park Street, Royton, Oldham",OL2 6QW,NA,NA,Oldham,E0800004,-2.121594,53.566109
Keppel Building,Doctors/GPs|Doctors/GPs,"Ashton Road West, Failsworth, Oldham",M35 0AD,1616224294,NA,Oldham,E0800004,-2.156747,53.509855
New Islington Medical Practice,Doctors/GPs|Doctors/GPs,"Old Mill Street, Ancoats, Manchester",M4 6EE,1612725660,http://www.nismp.co.uk,Manchester,E0800003,-2.219472,53.4829
Jolly Medical Centre,Doctors/GPs|Doctors/GPs,"72 Crescent Road, Manchester",M8 9NT,1617409864,NA,Manchester,E0800003,-2.240026,53.512118
Werneth Medical Practice,Doctors/GPs|Doctors/GPs,"76A Windsor Road, Oldham",OL8 4AL,1616205677,NA,Oldham,E0800004,-2.126938,53.53497
Polska Przychodnia,Doctors/GPs|Dentist|Doctors/GPs,"482-484 Liverpool Road, Eccles, Manchester",M30 7HZ,8442092149,NA,Salford,E0800006,-2.364765,53.478949
Crown Clinic Limited,Doctors/GPs,"Ground Floor, Global House, Bailey Lane, Manchester Airport, Manchester",M90 4AB,1614374333,http://www.crownclinic.co.uk,Manchester,E0800003,-2.273202,53.371565
Springfield Medical Centre,Doctors/GPs|Doctors/GPs,"384 Liverpool Road, Eccles, Manchester",M30 8QD,1618712450,http://www.springfiled-Medical-centre.co.uk,Salford,E0800006,-2.362019,53.480252
Springfield Surgery,Doctors/GPs|Doctors/GPs,"24-28 Commercial Road, Hazel Grove, Stockport",SK7 4AA,1614265252,NA,Stockport,E0800007,-2.122229,53.382377
Woodley Village Surgery,Doctors/GPs|Doctors/GPs,"Hyde Road, Woodley, Stockport",SK6 1ND,1614269494,http://www.woodleyvillagesurgery.co.uk,Stockport,E0800007,-2.0996610000000002,53.426289
The Pike Practice,Doctors/GPs|Doctors/GPs,"Market Place, Mossley, Ashton Under Lyne",OL5 0HE,1457832861,NA,Tameside,E0800008,-2.045643,53.517861
National Unplanned Pregnancy Advisory Service Manchester,Community services - Healthcare|Doctors/GPs|Doctors/GPs|Phone/online advice,"32 Lever Street, Manchester",M1 1DE,1612281887,http://www.smpclinic.co.uk,Manchester,E0800003,-2.233215,53.482811
Halliwell Health Centre,Doctors/GPs|Doctors/GPs,"Lindfield Drive, Bolton",BL1 3RG,1204546124,NA,Bolton,E0800001,-2.431738,53.588322
John Street Medical Practice,Doctors/GPs|Doctors/GPs,"1 John Street, Oldham",OL8 1DF,NA,NA,Oldham,E0800004,-2.120116,53.540125
The Village Medical Practice,Doctors/GPs|Doctors/GPs,"High Street, Shaw, Oldham",OL2 8ST,NA,NA,Oldham,E0800004,-2.095994,53.574817
Spire Manchester Hospital,Hospital|Doctors/GPs|Doctors/GPs,"170 Barlow Moor Road, West Didsbury, Manchester",M20 2AF,NA,NA,Manchester,E0800003,-2.235069,53.414888
Hilton House Medical,Doctors/GPs|Doctors/GPs,"Hilton House, Irwell Street, Bury",BL9 0HZ,3339000150,NA,Bury,E0800002,-2.302129,53.593394
Westleigh Medical Centre,Doctors/GPs|Doctors/GPs,"4-12 Westleigh Lane, Leigh",WN7 5JE,1942483960,http://www.westleighmedicalcentre.co.uk,Wigan,E08000010,-2.526024,53.510851
Pikes Lane Centre,Doctors/GPs|Doctors/GPs,"Deane Road, Bolton",BL3 5HP,NA,NA,Bolton,E0800001,-2.446348,53.572728
AMS Clinic Manchester,Doctors/GPs,"Dr Bokhari and Partners (Cheetham Hill Medical Centre), 244 Cheetham Hill Road, Manchester",M8 8UP,NA,NA,Manchester,E0800003,-2.23526,53.501162
The Private Clinic Limited - Manchester,Doctors/GPs|Doctors/GPs,"25 St John Street, Manchester",M3 4DT,1618339393,NA,Manchester,E0800003,-2.251916,53.477731
The Village Medical Centre,Doctors/GPs|Doctors/GPs,"Peel Street, Littleborough",OL15 8AQ,1706370666,http://www.villagemclittleborough.nhs.uk,Rochdale,E0800005,-2.097994,53.642757
Cherry Medical Practice,Doctors/GPs|Doctors/GPs,"Little Hulton Health Centre, Haysbrook Avenue, Worsley, Manchester",M28 0AY,1612125380,NA,Salford,E0800006,-2.423902,53.529872
Dr Davis's Medical Practice,Doctors/GPs|Doctors/GPs,"1st Floor Newbury Place Health Centre, 55 Rigby Street, Salford",M7 4NX,1612125050,NA,Salford,E0800006,-2.260516,53.507103
The Hospital Group-Abbey Pines,Doctors/GPs|Doctors/GPs,"192 Altrincham Road, Manchester",M22 4RZ,NA,NA,Manchester,E0800003,-2.252758,53.393866
The Hospital Group-Colwyn Chambers,Doctors/GPs|Doctors/GPs,"5th Floor, Colwyn Chambers, 19 York Street, Manchester",M2 3BA,NA,NA,Manchester,E0800003,-2.239954,53.480659
Trafford Health Centre,Doctors/GPs|Doctors/GPs|Mobile doctors|Phone/online advice|Urgent care centres,"Moorside Road, Davyhulme, Manchester",M41 5SL,1617474978,http://www.mastercall.org.uk,Trafford,E0800009,-2.370681,53.45406
Town Hall Surgery,Doctors/GPs|Doctors/GPs,"112 King Street, Dukinfield",SK16 4LD,1613302125,NA,Tameside,E0800008,-2.092973,53.478374
Kirkholt Medical Practice,Doctors/GPs|Doctors/GPs,"Queens Drive, Rochdale",OL11 2NP,1706261813,NA,Rochdale,E0800005,-2.162243,53.59832
Birtle View Medical Practice,Doctors/GPs|Doctors/GPs,"George Street, Heywood",OL10 4PW,1706261823,NA,Rochdale,E0800005,-2.2277,53.595186
The Kingsway Practice,Doctors/GPs|Doctors/GPs,"285A Kingsway, Rochdale",OL16 4AT,1706261866,NA,Rochdale,E0800005,-2.136045,53.613309
Cornerstone Surgery,Doctors/GPs|Doctors/GPs,"469-471 Chorley Old Road, Bolton",BL1 6AH,1204325125,NA,Bolton,E0800001,-2.457402,53.588155
Swinton Gateway,Doctors/GPs|Doctors/GPs,"Swinton Gateway, 100 Chorley Road, Swinton, Manchester",M27 6BP,1612124231,NA,Salford,E0800006,-2.342204,53.512236
Diet UK Bolton,Doctors/GPs|Doctors/GPs,"Newlands Centre, 315 Chorley New Road, Bolton",BL1 5BP,1204493975,NA,Bolton,E0800001,-2.46548,53.579477
Viaduct Care CIC,Community services - Healthcare|Doctors/GPs|Doctors/GPs|Mobile doctors|Urgent care centres,"4th Floor, Stopford House, Stockport",SK1 3XE,7968174419,NA,Stockport,E0800007,-2.158487,53.405974
Newbury Green Medical Practice,Doctors/GPs|Doctors/GPs,"Newbury Place Health Centre, 55 Rigby Street, Salford",M7 4NX,1612125050,NA,Salford,E0800006,-2.260516,53.507103
Green Surgery Manchester,Doctors/GPs|Dentist|Doctors/GPs,"18-22 Mosley Street, Manchester",M2 3AG,1612286515,http://www.green-surgery.com,Manchester,E0800003,-2.239638,53.480776
The Birches Medical Centre,Doctors/GPs|Doctors/GPs,"Polefield Road, Prestwich, Manchester",M25 2GN,1617733037,NA,Bury,E0800002,-2.271091,53.538361
Manchester,Doctors/GPs,"66-68 Bridge Street, Manchester",M3 2RJ,1618322134,NA,Manchester,E0800003,-2.248589,53.480785
Slag Lane Medical Centre,Doctors/GPs|Doctors/GPs,"216 Slag Lane, Lowton, Warrington",WA3 2EZ,1942715200,NA,Wigan,E08000010,-2.575634,53.478569
Droylsden Road Family Practice,Doctors/GPs|Doctors/GPs,"125 Droylsden Road, Manchester",M40 1NT,1612412723,NA,Manchester,E0800003,-2.175662,53.499916
Hawkley Brook Medical Practice,Doctors/GPs|Doctors/GPs,"Chandler House, Poolstock Lane, Wigan",WN3 5HL,1942481400,http://www.hawkleybrookmedicalpractice.nhs.uk,Wigan,E08000010,-2.643772,53.529393
Five Oaks Family Practice,Doctors/GPs|Doctors/GPs,"Oak House, 47 Graham Street, Manchester",M11 3BB,1612303035,http://www.fiveoaksfamilypractice.co.uk,Manchester,E0800003,-2.19447,53.47569
Whitley Road Medical Centre,Doctors/GPs|Doctors/GPs,"1 Whitley Road, Manchester",M40 7QH,1612654407,NA,Manchester,E0800003,-2.2227,53.49493
Dr Samuel Levenson,Doctors/GPs|Doctors/GPs,"Newbury Place Health Centre, 55 Rigby Street, Salford",M7 4NX,1612125050,http://www.limefieldmedicalcentre.co.uk,Salford,E0800006,-2.260516,53.507103
Windermere Road Surgery,Doctors/GPs|Doctors/GPs,"109-111 Windermere Road, Middleton, Manchester",M24 5WF,1616676609,NA,Rochdale,E0800005,-2.205709,53.55956
West Gorton Medical Centre,Doctors/GPs|Doctors/GPs,"2 Clowes Street, Manchester",M12 5JE,1612235226,http://www.westgortonmedicalcentre.co.uk,Manchester,E0800003,-2.203859,53.467205
Durnford Medical Centre,Doctors/GPs,"113 Long Street, Middleton, Manchester",M24 6DL,1616538673,NA,Rochdale,E0800005,-2.197033,53.554038
Ashworth Street Surgery,Doctors/GPs,"85 Spotland Road, Rochdale",OL12 6RT,1616538673,NA,Rochdale,E0800005,-2.165652,53.619565
Phoenix Centre,Doctors/GPs,"Pine Street, Heywood",OL10 1DT,1616538673,NA,Rochdale,E0800005,-2.2183,53.591868
Dr Carlos Xavier & Partners,Doctors/GPs|Doctors/GPs,"208C Newton Road, Lowton, Warrington",WA3 2AQ,1942605135,NA,Wigan,E08000010,-2.561051,53.471942
Woodlands Medical Practice,Doctors/GPs|Doctors/GPs,"9 Maple Road, Brooklands, Manchester",M23 9RL,1619621332,NA,Manchester,E0800003,-2.31213,53.406624
New Bank Health Centre,Doctors/GPs|Doctors/GPs,"339 Stockport Road, Manchester",M12 4JE,1612775600,NA,Manchester,E0800003,-2.204384,53.460123
Victoria Mill Medical Practice,Doctors/GPs|Doctors/GPs,"Victoria Mill, 10 Lower Vickers Street, Manchester",M40 7LH,1612654407,NA,Manchester,E0800003,-2.214292,53.489633
Charlestown Medical Practice,Doctors/GPs|Doctors/GPs,"Charlestown Road, Manchester",M9 7ED,NA,NA,Manchester,E0800003,-2.186902,53.52264
BARDOC - Moorgate Primary Care Centre,Ambulances|Doctors/GPs|Mobile doctors|Phone/online advice|Urgent care centres,"22 Derby Way, Bury",BL9 0NJ,1617634242,http://www.bardoc.co.uk,Bury,E0800002,-2.288591,53.59553
BARDOC - Phoenix Centre,Ambulances|Doctors/GPs|Mobile doctors|Phone/online advice|Urgent care centres,"Pine Street, Heywood",OL10 1DT,1617634242,http://www.bardoc.co.uk,Rochdale,E0800005,-2.2183,53.591868
BARDOC - Rochdale UCC,Ambulances|Doctors/GPs|Mobile doctors|Phone/online advice|Urgent care centres,"Whitehall Street, Rochdale",OL12 0NB,1617634242,http://www.bardoc.co.uk,Rochdale,E0800005,-2.160152,53.624282
Heart Networks UK Limited,Doctors/GPs|Doctors/GPs,"299 Alan Turing Way, Manchester",M11 3BS,7951725356,NA,Manchester,E0800003,-2.191764,53.477301
Limelight Health and Well-being Hub,Doctors/GPs|Doctors/GPs,"Limelight, 1-3 St Brides Way, Manchester",M16 9NW,1612267777,NA,Trafford,E0800009,-2.261969,53.461412
Manchester Private Hospital,Doctors/GPs|Doctors/GPs,"New Court, Regents Place, 2 Windsor Street, Salford",M5 4HB,1618277868,NA,Salford,E0800006,-2.278563,53.479002
West Gorton Medical Centre,Doctors/GPs|Doctors/GPs,"2 Clowes Street, Manchester",M12 5JE,161223522,NA,Manchester,E0800003,-2.203859,53.467205
Pemberton Surgery,Doctors/GPs|Doctors/GPs,"Sherwood Drive, Wigan",WN5 9QX,1942367199,NA,Wigan,E08000010,-2.669697,53.538479
Ashton Medical Centre,Doctors/GPs|Doctors/GPs,"120 Wigan Road, Ashton In Makerfield, Wigan",WN4 9SU,1942727325,NA,Wigan,E08000010,-2.642855,53.494792
Shevington Surgery,Doctors/GPs|Doctors/GPs,"1 Houghton Lane, Shevington, Wigan",WN6 8ET,1942483777,NA,Wigan,E08000010,-2.69942,53.574041
Pennygate Medical Practice,Doctors/GPs|Doctors/GPs,"109 Ladies Lane, Hindley, Wigan",WN2 2QG,1942807500,NA,Wigan,E08000010,-2.576271,53.540002
Intrahealth Tyldesley,Doctors/GPs|Doctors/GPs,"Tyldesley Health Centre, Poplar Street, Tyldesley, Manchester",M29 8AX,1942481680,NA,Wigan,E08000010,-2.468999,53.516715
Bridgewater Medical Centre,Doctors/GPs|Doctors/GPs,"Bridgewater Medical Centre, Henry Street, Leigh",WN7 2PE,1942481851,NA,Wigan,E08000010,-2.511927,53.493519
Christopher Home,Doctors/GPs|Doctors/GPs,"Wigan Lane, Wigan",WN1 2NN,1942244e3,NA,Wigan,E08000010,-2.629091,53.55774
MYA Clinics Limited (Manchester),Doctors/GPs|Doctors/GPs,"262 Deansgate, Manchester",M3 4BG,1612144790,NA,Manchester,E0800003,-2.250062,53.477735
The Bodyline Clinic Limited Stockport,Doctors/GPs|Doctors/GPs,"Heaton House, Heaton Lane, Stockport",SK4 1AQ,8454918750,http://www.bodylineclinic.com,Stockport,E0800007,-2.164728,53.40983
The Bodyline Clinic Limited Openshaw,Doctors/GPs|Doctors/GPs,"Unit 1, 1119 Ashton Old Road, Manchester",M11 1AA,8454918750,http://www.bodylineclinic.com,Manchester,E0800003,-2.172284,53.473765
The Jolly Medical Centre,Doctors/GPs|Doctors/GPs,"74 Crescent Road, Manchester",M8 9NT,1617409864,NA,Manchester,E0800003,-2.240026,53.512118
Winstanley Medical Centre,Doctors/GPs|Doctors/GPs,"Holmes House Avenue, Wigan",WN3 6JN,1942483213,NA,Wigan,E08000010,-2.668958,53.521291
Baguley Clinic,Doctors/GPs|Doctors/GPs,"Baguley Clinic, Hall Lane, Manchester",M23 1NA,161438168,NA,Manchester,E0800003,-2.279746,53.393094
Longsight Medical Practice,Doctors/GPs|Doctors/GPs,"526-528 Stockport Road, Manchester",M13 0RR,1612564488,http://www.longsightmedicalpractice.com,Manchester,E0800003,-2.201887,53.457584
CuRx Operational Base,Doctors/GPs|Doctors/GPs,"The Mezzanine, Junction 21 Business Park, Gorse Street, Chadderton, Oldham",OL9 9QH,7716090301,NA,Oldham,E0800004,-2.15726,53.53024
Tranquil TMS Limited,Doctors/GPs|Doctors/GPs,"G10 - 5300 Lakeside, Cheadle Royal Business Park, Cheadle",SK8 3GP,7935835625,NA,Stockport,E0800007,-2.223648,53.380206
Advanced Skin Limited,Doctors/GPs|Doctors/GPs,"Lumiere Building, 38 City Road East, Manchester",M15 4QN,7921850589,NA,Manchester,E0800003,-2.249879,53.472108
Walkden Gateway,Doctors/GPs|Doctors/GPs,"Walkden Gateway, 2 Smith Street, Worsley, Manchester",M28 3EZ,1617932500,http://www.salford.gov.uk/walkdengateway,Salford,E0800006,-2.398541,53.524898
Newbury Place Medical & Retail Centre,Doctors/GPs|Doctors/GPs,"55 Rigby Street, Salford",M7 4NX,1612125050,http://www.higherbroughtonpartnership.co.uk/index.php/the-master-plan/newbury-place-medical-retail-centre/,Salford,E0800006,-2.260516,53.507103
Pendleton Gateway,Doctors/GPs|Doctors/GPs,"1 Broad Walk, Pendleton, Salford",M6 5FX,NA,NA,Salford,E0800006,-2.284742,53.488361
Academy of Health and Diet,Doctors/GPs,"8 Market Street, Leigh",WN7 1DS,7889509511,NA,Wigan,E08000010,-2.519114,53.497135
Winstanley Medical Centre,Doctors/GPs|Doctors/GPs,"Holmes House Avenue, Wigan",WN3 6JN,NA,NA,Wigan,E08000010,-2.668958,53.521291
Elmfield Surgery,Doctors/GPs|Doctors/GPs,"Omerod House, Ahterton Health Centre, Nelson Street, Atherton, Manchester",M46 0LE,1942481080,http://www.sevenbrooksmedicalcentre.nhs.uk,Wigan,E08000010,-2.500811,53.527489
Irlam Clinic,Doctors/GPs|Doctors/GPs,"125 Liverpool Road, Irlam, Manchester",M44 6DP,161775e4,NA,Salford,E0800006,-2.417074,53.449107
The Robert Darbishire Practice,Doctors/GPs|Doctors/GPs,"Rusholme Health Centre, Walmer Street, Rusholme, Manchester",M14 5NP,161225669,http://www.rdp.org.uk,Manchester,E0800003,-2.226162,53.454635
Cornerstone Medical Practice,Doctors/GPs|Doctors/GPs,"Langworthy Centre, 451 Liverpool Street, Salford",M6 5QQ,1612124445,http://www.salfordcarecentres.co.uk,Salford,E0800006,-2.296843,53.483785
RK Medical Practice,Doctors/GPs|Doctors/GPs,"Brownley Green Health Centre, 171 Brownley Road, Manchester",M22 9UH,1614939493,NA,Manchester,E0800003,-2.255632,53.386597
Dr Kamal Gupta,Doctors/GPs|Doctors/GPs,"Bridgewater Medical Centre,, Henry Street,, Leigh",WN7 2PE,1942481815,http://www.drkgupta.co.uk,Wigan,E08000010,-2.511927,53.493519
Dr Rajesh Saraf,Doctors/GPs|Doctors/GPs,"Moorside Medical Centre, 681 Ripponden Road, Oldham",OL1 4JU,1619098388,NA,Oldham,E0800004,-2.076954,53.561455
Yorkshire Street Surgery,Doctors/GPs|Doctors/GPs,"188 Yorkshire Street, Rochdale",OL16 2DN,7747473574,NA,Rochdale,E0800005,-2.152215,53.620446
Dr Kiren Kaur,Doctors/GPs|Doctors/GPs,"Moorside Medical Centre, 681 Ripponden Road, Oldham",OL1 4JU,1613448150,http://www.doctorsatmoorside.co.uk,Oldham,E0800004,-2.076954,53.561455
Victoria Dental & Healthcare,Doctors/GPs|Dentist|Doctors/GPs,"109 Corporation Street, Manchester",M4 4DX,1618324153,NA,Manchester,E0800003,-2.23974,53.488227
Push Dr Office,Doctors/GPs|Doctors/GPs|Mobile doctors,"60 Spring Gardens, Manchester",M2 2BQ,3308084702,http://www.pushdoctor.co.uk,Manchester,E0800003,-2.241484,53.479962
Dr Vijaya Joshi,Doctors/GPs|Doctors/GPs,"Chapel Medical Centre, 220 Liverpool Road, Higher Irlam, Manchester",M44 6FE,1617757373,NA,Salford,E0800006,-2.418293,53.449094
Dr Mohammad Khan,Doctors/GPs|Doctors/GPs,"152a Manchester Road East, Little Hulton, Manchester",M38 9LQ,1617993233,NA,Salford,E0800006,-2.409599,53.526659
Dr Suvajit Chatterjee,Doctors/GPs|Doctors/GPs,"32 Brinnington Road, Vernon Park, Stockport",SK1 2EX,1614265484,http://www.vernonparksurgery.co.uk,Stockport,E0800007,-2.142795,53.418398
Dr Christina Mary Greenhough,Doctors/GPs|Doctors/GPs,"187 Manchester Road, Mossley, Ashton Under Lyne",OL5 9AB,1457833315,http://www.mossleymedicalpractice.co.uk,Tameside,E0800008,-2.04063,53.51405
Dr Nasima Sidda,Doctors/GPs|Doctors/GPs,"Watersmeeting Health Center, Waters Meeting Road, Bolton",BL1 8TT,1204462966,NA,Bolton,E0800001,-2.42777,53.590359
Dr Laurence Howard Sherman,Doctors/GPs|Doctors/GPs,"Greyland Medical Centre, 468 Bury Old Road, Prestwich, Manchester",M25 1NL,1617987850,NA,Bury,E0800002,-2.276308,53.537702
Eye and Dental Clinic,Doctors/GPs|Dentist|Doctors/GPs,"110 Ainsworth Road, Bury",BL8 2RS,1612225730,NA,Bury,E0800002,-2.318773,53.592667
Dr John Danson,Doctors/GPs|Doctors/GPs,"Featherstall Road South, Oldham",OL9 7AY,1614841484,http://www.dansonfamilypractice.co.uk,Oldham,E0800004,-2.130476,53.537321
Dr Afzal Hussain,Doctors/GPs|Doctors/GPs,"110 Walmersley Road, Bury",BL9 6DX,1617646100,NA,Bury,E0800002,-2.289512,53.599735
Dr Samir Sadik,Doctors/GPs|Doctors/GPs,"1 Dunkerley Street, Ashton Under Lyne",OL7 9EJ,1613307087,NA,Tameside,E0800008,-2.103916,53.498778
Mrs Elaine Evans,Doctors/GPs|Doctors/GPs,"The Bridgewater Medical Centre, Henry Street, Leigh",WN7 2PE,1942481800,NA,Wigan,E08000010,-2.511927,53.493519
The Chowdhury Practice,Doctors/GPs|Doctors/GPs,"New Radcliffe Street, Oldham",OL1 1NL,1616213535,NA,Oldham,E0800004,-2.116945,53.543824
Skinny Revolution Ltd,Doctors/GPs|Doctors/GPs,"307 Hale Road, Hale Barns, Altrincham",WA15 8SS,1619804237,http://www.skinnyrevolution.co.uk,Trafford,E0800009,-2.313707,53.369479
Dr Syed Rizvi,Doctors/GPs|Doctors/GPs,"274 Barlow Moor Road, Chorlton-cum-Hardy, Manchester",M21 8HA,1618812297,NA,Manchester,E0800003,-2.268728,53.431961
Merseybank Practice,Doctors/GPs|Doctors/GPs,"36 Mersey Bank Avenue, Chorton, Manchester",M21 7NN,1614455559,NA,Manchester,E0800003,-2.263012,53.42276
Dr Anita Sharma,Doctors/GPs|Doctors/GPs,"Chadderton South Health Centre, Eaves Lane, Chadderton, Oldham",OL9 8RG,1616521876,http://www.southchaddertonhealthcentre.co.uk,Oldham,E0800004,-2.15145,53.533368
Pennine MSK Partnership Limited,Doctors/GPs|Doctors/GPs,"Integrated Care Centre, New Radcliffe Street, Oldham",OL1 1NL,161621383,http://www.pmsk.org,Oldham,E0800004,-2.116945,53.543824
Rochdale Road Medical Centre,Doctors/GPs|Doctors/GPs,"48a Rochdale Road, Middleton, Manchester",M24 2PU,1616439131,NA,Rochdale,E0800005,-2.195702,53.556772
Dr Sonal Sharma,Doctors/GPs|Doctors/GPs,"2nd Floor Croft Shifa Health Centre, Rochdale",OL16 2UY,1706752703,http://www.inspiremedical.co.uk,Rochdale,E0800005,-2.138254,53.622746
Dr Joann Amin,Doctors/GPs|Doctors/GPs,"The Willows, Lords Avenue, Salford, Salford",M5 5JR,1617362356,http://www.thewillowssurgery.co.uk,Salford,E0800006,-2.309137,53.485461
Salford Health Matters CIC,Doctors/GPs|Doctors/GPs,"Willow Tree Healthy Living Centre, 94 Littleton Road, Salford",M7 3SE,1612125818,NA,Salford,E0800006,-2.278113,53.502274
Salford Health Matters Homeless Service,Doctors/GPs|Doctors/GPs,"Windsor Christian Centre, Churchill Way, Salford",M6 5BU,1612125818,NA,Salford,E0800006,-2.284531,53.486008
Salford Health Matters Little Hulton,Doctors/GPs|Doctors/GPs,"Haysbrook Avenue, Worsley, Manchester",M28 0AY,1612125818,NA,Salford,E0800006,-2.423902,53.529872
Donneybrook Medical Centre,Doctors/GPs|Doctors/GPs,"Clarendon Street, Hyde",SK14 2AH,1613683838,http://www.donneybrookmediclacentre.nhs.uk,Tameside,E0800008,-2.080237,53.452631
Dr Richard Clare,Doctors/GPs|Doctors/GPs,"The Surgery, 12 Derbyshire Road South, Sale",M33 3JP,1619733499,http://www.drclaresurgery.co.uk,Trafford,E0800009,-2.310144,53.416957
Dr Sally Johnston,Doctors/GPs|Doctors/GPs,"34 Riddings Road, Timperley, Altrincham",WA15 6BP,1619629662,NA,Trafford,E0800009,-2.331291,53.404424
BMI The Alexandra Hospital,Hospital|Doctors/GPs|Doctors/GPs,"The Alexandra Hospital, Mill Lane, Cheadle",SK8 2PX,1614957e3,NA,Stockport,E0800007,-2.215828,53.397264
The KSL Clinic Ltd Manchester,Doctors/GPs|Doctors/GPs,"Unit 3, Waters Edge Business Park, Modwen Road, Salford",M5 3EZ,1622686101,http://www.kslhair.com,Salford,E0800006,-2.2768640000000002,53.467986
Dr Rachel Tomalin,Doctors/GPs|Doctors/GPs,"20 Meyer Street, Cale Green, Stockport",SK3 8JE,1614802882,http://www.calegreensurgery.co.uk,Stockport,E0800007,-2.158364,53.397148
Dr Salam J Farhan,Doctors/GPs|Doctors/GPs,"Partington Health Centre, Central Road, Partington, Manchester",M31 4FY,1617757032,NA,Trafford,E0800009,-2.425413,53.417204
Gloucester House Medical Centre,Doctors/GPs|Doctors/GPs,"17 Station Road, Urmston, Manchester",M41 9JS,1617487115,http://www.ghmc.co.uk,Trafford,E0800009,-2.352599,53.447337
Dr Chandra Khatri,Doctors/GPs|Doctors/GPs,"The Surgery, High Street, Tyldesley, Manchester",M29 8AL,1942882950,NA,Wigan,E08000010,-2.469683,53.514626
The Park Medical Centre,Doctors/GPs|Doctors/GPs,"434 Altrincham Road, Baguley, Manchester",M23 9AB,1614381680,NA,Manchester,E0800003,-2.28807,53.40104
Bodey Medical Centre,Doctors/GPs|Doctors/GPs,"Ladybarn Court, 28 Ladybarn Lane, Manchester",M14 6WP,1614381680,NA,Manchester,E0800003,-2.214798,53.440636
Townside Surgery - Dr Cooke,Doctors/GPs|Doctors/GPs,"Townside Primary Care Centre, Knowsley Place, 1 Knowsley Place, Knowsley Street, Bury",BL9 0SN,1617621600,NA,Bury,E0800002,-2.29898,53.59031
Dr Anoop Sahal,Doctors/GPs|Doctors/GPs,"94 Navigation Road, Altrincham",WA14 1LL,1619299300,NA,Trafford,E0800009,-2.346055,53.396194
Dr Masud Prodhan,Doctors/GPs|Doctors/GPs,"Seymour Grove Health Centre, Manchester",M16 0LW,1618487563,http://www.oldtraffordsurgery.co.uk,Trafford,E0800009,-2.275745,53.458074
Dr Syed Shah,Doctors/GPs|Doctors/GPs,"145 Elliot Street, Tyldesley, Manchester",M29 8FL,1942892727,NA,Wigan,E08000010,-2.469317,53.514161
Dr Ugo Umeadi,Doctors/GPs|Doctors/GPs,"131 Cleggs Lane, Little Hulton, Manchester",M38 9RS,1617994001,http://www.cleggslanepractice.nhs.uk,Salford,E0800006,-2.419336,53.534939
Dr Krishna Khatri,Doctors/GPs|Doctors/GPs,"10 Higher Green Lane, Astley, Tyldesley, Manchester",M29 7HG,1942883794,NA,Wigan,E08000010,-2.447913,53.500769
South Manchester Diagnostics,Doctors/GPs|Doctors/GPs,"144a Dialstone Lane, Stockport",SK2 6AP,NA,NA,Stockport,E0800007,-2.134435,53.396485
Everest Pharmacy,Doctors/GPs|Doctors/GPs,"117b, Withington Road, Manchester",M16 8EE,NA,NA,Manchester,E0800003,-2.257066,53.452309
Ailsa Craig Medical Centre,Doctors/GPs|Doctors/GPs,"Ailsa Craig Medical Group, 270 Dickenson Road, Longsight, Manchester",M13 0YL,1612245555,http://www.ailsacraigmedicalpractice.co.uk,Manchester,E0800003,-2.208542,53.454175
Dr Peter Chadwick,Doctors/GPs|Doctors/GPs,"The Surgery, Primary Care Resource Centre, Burnage Lane, Manchester",M19 1EW,1614321404,NA,Manchester,E0800003,-2.200433,53.43018
Leela Ltd,Doctors/GPs|Doctors/GPs,"The Strand, Rochdale",OL11 2JG,1706861616,NA,Rochdale,E0800005,-2.156245,53.593988
Dr Chidananda Barua,Doctors/GPs|Doctors/GPs,"Frederick Street, Farnworth, Bolton",BL4 9AH,1204463100,http://www.ehealthservice.co.uk/bolton/Dr-Barua,Bolton,E0800001,-2.397759,53.546123
Woodbank Surgery,Doctors/GPs|Doctors/GPs,"2 Hunstanton Drive, Brandlesholme, Bury",BL8 1EG,1617051630,NA,Bury,E0800002,-2.308802,53.60507
Shakespeare Surgery,Doctors/GPs|Doctors/GPs,"Chandler House, Worsley Mesnes Health Centre, Poolstock Lane, Wigan",WN3 5HL,1942481531,http://www.shakespearesurgery.co.uk,Wigan,E08000010,-2.643772,53.529393
Dr Mahendra Patel,Doctors/GPs|Doctors/GPs,"Shay Lane, Hale Barns, Altrincham",WA15 8NZ,1619802656,http://www.shaylanemedical.com,Trafford,E0800009,-2.31556,53.372189
Ashton GP Service,Doctors/GPs|Doctors/GPs|Urgent care centres,"Ashton Primary Care Centre, 193 Old Street, Ashton Under Lyne",OL6 7SR,1613427050,NA,Tameside,E0800008,-2.099213,53.486097
City Health Centre,Doctors/GPs|Doctors/GPs|Urgent care centres,"32 Market Street, Manchester",M1 1PL,1618396227,NA,Manchester,E0800003,-2.242815,53.482927
Droylsden Medical Practice,Doctors/GPs|Doctors/GPs,"1-3 Albion Drive, Droylsden, Manchester",M43 7NP,1613427777,NA,Tameside,E0800008,-2.145664,53.487166
Guide Bridge Medical Practice,Doctors/GPs|Doctors/GPs,"Guide Lane Clinic, Guide Lane, Audenshaw, Manchester",M34 5HY,1613442609,NA,Tameside,E0800008,-2.113281,53.471588
Lindley Medical Practice,Doctors/GPs|Doctors/GPs|Urgent care centres,"Integrated Care Centre, New Radcliffe Street, Oldham",OL1 1NL,1617857520,NA,Oldham,E0800004,-2.116945,53.543824
Millbrook Medical Practice,Doctors/GPs|Doctors/GPs,"Hollybank, Off Grove Road, Stalybridge",SK15 3BJ,1613042470,NA,Tameside,E0800008,-2.034281,53.492265
Simpson Medical Practice,Doctors/GPs|Doctors/GPs,"361 Moston Lane, Manchester",M40 9NB,1612035550,NA,Manchester,E0800003,-2.198039,53.514029
Rock Healthcare Limited,Doctors/GPs|Doctors/GPs|Urgent care centres,"Moorgate Primary Care Centre, 22 Derby Way, Bury",BL9 0NJ,1614479820,http://www.rockhealthcare.co.uk,Bury,E0800002,-2.288591,53.59553
Lime Square Medical Centre,Doctors/GPs|Doctors/GPs,"Lime Square, Ashton Old Road, Manchester",M11 1DA,1613710678,NA,Manchester,E0800003,-2.164901,53.473649
Dr Krishnakant Buch,Doctors/GPs|Doctors/GPs,"Lower Broughton Health Centre, Great Clowes Street, Salford",M7 1RD,1612126525,http://www.1lowerbroughtonhealthcentre.co.uk,Salford,E0800006,-2.258808,53.49359
Dr Mahadeva Selvarajan,Doctors/GPs|Doctors/GPs,"Deane Clinic One Stop Health Centre, Horsfield Street, Bolton",BL3 4LU,120464089,http://www.deaneclinic.co.uk,Bolton,E0800001,-2.464537,53.567885
Everything Skin Clinic,Doctors/GPs|Doctors/GPs,"Ground Suite B, Hawbank House, 2 High Street, Cheadle",SK8 1AL,1615091294,NA,Stockport,E0800007,-2.214418,53.395137
Orchard Medical Centre,Doctors/GPs|Doctors/GPs,"10 Leigh Road, Boothstown, Manchester",M28 1LZ,1617028579,http://www.orchard-medicalcentre.co.uk,Salford,E0800006,-2.420888,53.502881
Dr Samir Naseef,Doctors/GPs|Doctors/GPs,"216 Wigan Road, Deane, Bolton",BL3 5QE,1204462198,http://www.drnaseef.nhs.net,Bolton,E0800001,-2.460819,53.568942
Brookdale Surgery,Doctors/GPs|Doctors/GPs,"202 Droylsden Road, Manchester",M40 1NZ,161681426,NA,Manchester,E0800003,-2.174181,53.499199
Dr Hany Azmy,Doctors/GPs|Doctors/GPs,"The Surgery, 30 Brinnington Road, Brinnington, Stockport",SK1 2EX,1614804164,NA,Stockport,E0800007,-2.142795,53.418398
AlldayDr Group Ltd,Doctors/GPs|Doctors/GPs,"77-79 Church Street, Blackrod, Bolton",BL6 5EE,7462858899,NA,Bolton,E0800001,-2.584822,53.594359
Veincentre Manchester (St Anne Street),Doctors/GPs|Doctors/GPs,"4th Floor National House, 36 St. Anne Street, Manchester",M2 7LE,1782753960,http://www.veincentre.com,Manchester,E0800003,-2.245007,53.481547
Peel Hall Medical Practice,Doctors/GPs|Doctors/GPs,"Forum Health, Simonsway, Wythenshawe, Manchester",M22 5RX,1613751e3,http://www.peelhallmedicalpractice.co.uk,Manchester,E0800003,-2.265017,53.379925
Dr Brian Perkins,Doctors/GPs|Doctors/GPs,"Integrated Care Centre, New Radcliffe Street, Oldham",OL1 1NL,1616213888,NA,Oldham,E0800004,-2.116945,53.543824
Dr Syed Shahbazi,Doctors/GPs|Doctors/GPs,"Kidglove House, Kidglove Road, Golborne",WA3 3GS,1942481638,http://www.familymedical.gpsurgery.net,Wigan,E08000010,-2.595867,53.478431
Dr Geeta Gupta,Doctors/GPs|Doctors/GPs,"South Reddish Medical Centre, Reddish Road, South Reddish, Stockport",SK5 7QU,1614269191,http://www.southreddishmedicalcentre.co.uk,Stockport,E0800007,-2.156517,53.422309
Dr George Duru,Doctors/GPs|Doctors/GPs,"Integrated Care Centre, New Radcliffe Street, Oldham",OL1 1NL,1616213636,NA,Oldham,E0800004,-2.116945,53.543824
The Robert Darbishire Practice,Doctors/GPs|Doctors/GPs,"Rusholme Health Centre, Walmer Street, Rusholme, Manchester",M14 5NP,1612256699,NA,Manchester,E0800003,-2.226162,53.454635
The Whitswood Practice,Doctors/GPs|Doctors/GPs,"Alexandra Park Health Centre, 2 Whitswood Close, Manchester",M16 7AP,1612263620,NA,Manchester,E0800003,-2.253502,53.455769
Dr R Anderson and Dr M Ahmed,Doctors/GPs|Doctors/GPs,"239 Mosley Common Road, Worsley, Manchester",M28 1BZ,8444773276,http://www.boothstownmedicalcentre.co.uk,Salford,E0800006,-2.422973,53.50477
Dr Raina Patel,Doctors/GPs|Doctors/GPs,"The Romiley Health Centre, Chichester Road, Romiley, Stockport",SK6 4QR,1614265242,http://www.guywoodpractice.co.uk,Stockport,E0800007,-2.08993,53.414998
Dr Zuber Ahmed,Doctors/GPs|Doctors/GPs,"Sun Valley Medical Practice, 137 Glodwick Road, Oldham",OL4 1YN,1616229230,NA,Oldham,E0800004,-2.095095,53.537786
Dr Saira Zaman,Doctors/GPs|Doctors/GPs,"Chandler House, Worsley Mesnes Health Centre, Poolstock Lane, Wigan",WN3 5HL,1942481423,http://www.wigangrangepractice.nhs.uk,Wigan,E08000010,-2.643772,53.529393
Conran Medical Centre,Doctors/GPs|Doctors/GPs,"77 Church Lane, Harpurhey, Manchester",M9 5BH,1612052714,NA,Manchester,E0800003,-2.210659,53.510547
Push Dr Limited,Doctors/GPs|Doctors/GPs|Mobile doctors,"First Floor, Arkwright House, Parsonage Gardens, Manchester",M3 2LF,330808470,NA,Manchester,E0800003,-2.248957,53.482328
Fallowfield Medical Centre,Doctors/GPs|Doctors/GPs,"75 Ladybarn Lane, Fallowfield, Manchester",M14 6YL,1612244503,NA,Manchester,E0800003,-2.21351,53.438823
Dr Devang Shah,Doctors/GPs|Doctors/GPs,"169 Grove Lane, Timperley, Altrincham",WA15 6PH,1619039302,http://www.grovemed.co.uk,Trafford,E0800009,-2.323566,53.397228
Leesbrook Surgery,Doctors/GPs|Doctors/GPs,"Mellor Street, Lees, Oldham",OL4 3DG,1616214800,http://www.leesbrooksurgery.com,Oldham,E0800004,-2.07266,53.53879
Swan Lane Medical Centre,Doctors/GPs|Doctors/GPs,"Swan Lane, Bolton",BL3 6TL,1204661600,http://www.swanlanemedicalcentre.nhs.uk,Bolton,E0800001,-2.442391,53.566945
Radcliffe Medical Practice,Doctors/GPs|Doctors/GPs,"Radcliffe Primary Care Centre, 69 Church Street West, Radcliffe, Manchester",M26 2SP,1617242062,http://www.radcliffemp.nhs.uk,Bury,E0800002,-2.323706,53.560143
Timperley Health Centre - Westwood,Doctors/GPs|Doctors/GPs,"169 Grove Lane, Timperley, Altrincham",WA15 6PH,1619803751,NA,Trafford,E0800009,-2.323566,53.397228
Staveleigh Medical Centre,Doctors/GPs|Doctors/GPs,"King Street, Stalybridge",SK15 2AE,1613048009,NA,Tameside,E0800008,-2.058251,53.484571
Deane Medical Centre,Doctors/GPs|Doctors/GPs,"155-157 Deane Road, Bolton",BL3 5AH,1204525526,http://www.deanemedicalcentre.co.uk,Bolton,E0800001,-2.441983,53.572699
The Mazhari and Khan Practice,Doctors/GPs|Doctors/GPs,"Clayton Health Centre, 89 North Road, Clayton, Manchester",M11 4EJ,1612231658,NA,Manchester,E0800003,-2.184157,53.484308
Whittaker Lane Medical Centre,Doctors/GPs|Doctors/GPs,"Daisy Bank, Whittaker Lane, Prestwich, Manchester",M25 1EX,1617731580,http://www.wlmc.co.uk,Bury,E0800002,-2.268645,53.528488
Failsworth Group Practice,Doctors/GPs|Doctors/GPs,"Failsworth District Centre, Ashton Road West, Failsworth, Manchester",M35 0AD,1616826297,NA,Oldham,E0800004,-2.156747,53.509855
The Limes Medical Practice,Doctors/GPs|Doctors/GPs,"8-12 Hodge Road, Worsley, Manchester",M28 3AT,1617908621,NA,Salford,E0800006,-2.397527,53.522942
Medlock Medical Practice  Dr Hossain & Dr Chauhan,Doctors/GPs|Doctors/GPs,"Failsworth District Centre, Ashton Road West, Failsworth, Manchester",M35 0AD,1616811401,NA,Oldham,E0800004,-2.156747,53.509855
Ellenbrook Medical Practice,Doctors/GPs|Doctors/GPs,"14 Morston Close, Worsley, Manchester",M28 1PB,1617039091,http://www.ellenbrooksurgery.co.uk,Salford,E0800006,-2.413552,53.511185
Longford Street Medical Centre,Doctors/GPs|Doctors/GPs,"Longford Street, Heywood",OL10 4NH,1706621417,NA,Rochdale,E0800005,-2.218524,53.594259
Middleton Health Centre,Doctors/GPs|Doctors/GPs,"Unit F1, Middleton Shopping Centre, Limetrees Road, Middleton, Manchester",M24 4EL,1616557434,http://www.middletonhealthcentre.org.uk/,Rochdale,E0800005,-2.201051,53.548242
Hawthorn Medical Centre,Doctors/GPs|Doctors/GPs,"Unit K, Fallowfield Retail Park, Birchfields Road, Manchester",M14 6FS,1612206080,http://www.hawthornmedicalcentre.org,Manchester,E0800003,-2.204544,53.443216
Kirby - Crompton Health Centre,Doctors/GPs|Doctors/GPs,"Crompton Health Centre, 501 Crompton Way, Bolton",BL1 8UP,1204463111,http://www.drkirbyandpartners.co.uk,Bolton,E0800001,-2.415226,53.597486
The Uplands Medical Practice,Doctors/GPs|Doctors/GPs,"Bury New Road,, Whitefiel, Manchester",M45 8GH,1617668221,http://www.theuplandsmp.nhs.uk,Bury,E0800002,-2.295878,53.548594
Stonehill Medical Centre,Doctors/GPs|Doctors/GPs,"Piggott Street, Farnworth, Bolton",BL4 9QZ,1204573445,http://www.ehealthservice.co.uk/bolton/stonehill,Bolton,E0800001,-2.402444,53.543635
St George's Medical Centre,Doctors/GPs|Doctors/GPs,"St Georges Drive, Moston, Manchester",M40 5HP,1618703449,NA,Manchester,E0800003,-2.189031,53.509666
Dr Ahmad and Partners,Doctors/GPs|Doctors/GPs,"Platt Bridge Health Centre, Rivington Avenue, Platt Bridge, Wigan",WN2 5NG,1942482330,NA,Wigan,E08000010,-2.595925,53.522279
St Andrews Medical Practice 2,Doctors/GPs|Doctors/GPs,"30 Russell Street, Eccles, Manchester",M30 0NU,1617075500,http://www.standrewsmc.co.uk,Salford,E0800006,-2.339619,53.484875
The Village Surgery,Doctors/GPs|Doctors/GPs,"169 Grove Lane, Timperley, Altrincham",WA15 6PH,1619039010,NA,Trafford,E0800009,-2.323566,53.397228
Hattersley Group Practice,Doctors/GPs|Doctors/GPs,"Hattersley Health Centre, Hattersley Road East, Hattersley, Hyde",SK14 3EH,1613684161,NA,Tameside,E0800008,-2.027426,53.450228
St Andrews Medical Practice 4,Doctors/GPs|Doctors/GPs,"30 Russell Street, Eccles, Manchester",M30 0NU,1617075500,NA,Salford,E0800006,-2.339619,53.484875
Wilmslow Road Surgery,Doctors/GPs|Doctors/GPs,"Wilmslow Road Medical Centre, 156 Wilmslow Road, Rusholme, Manchester",M14 5LQ,1612242452,NA,Manchester,E0800003,-2.222822,53.452153
Premier Health Team,Doctors/GPs|Doctors/GPs,"The Bridgewater Medical Centre, Henry Street, Leigh",WN7 2PE,1942481851,http://www.premierhealthteam.org,Wigan,E08000010,-2.511927,53.493519
Dr Maung and Partners,Doctors/GPs|Doctors/GPs,"Leigh Health Centre, The Avenue, Leigh",WN7 1HR,1942483488,http://www.grameresurgery.co.uk,Wigan,E08000010,-2.511455,53.503236
Clarendon Surgery,Doctors/GPs|Doctors/GPs,"Pendleton Gateway, 1 The Broadwalk, Salford",M6 5FX,1612117373,NA,Salford,E0800006,-2.284742,53.488361
Ribblesdale Dr Britton & Partners,Doctors/GPs|Doctors/GPs,"Townside Primary Care Centre, Knowsley Place, 1 Knowsley Place, Knowsley Street, Bury",BL9 0SN,1617621650,http://www.ribblesdalemc.nhs.uk,Bury,E0800002,-2.29898,53.59031
Block Lane Surgery,Doctors/GPs|Doctors/GPs,"The Surgery, 158 Block Lane, Chadderton, Oldham",OL9 7SG,1616202321,http://www.blocklanesurgery.co.uk,Oldham,E0800004,-2.139039,53.535037
Littletown Family Medical Practice,Doctors/GPs|Doctors/GPs,"53 Manchester Road, Oldham",OL8 4LR,1616245457,http://www.littletownfamilymedical.nhs.uk,Oldham,E0800004,-2.134298,53.529137
Ashville Surgery,Doctors/GPs|Doctors/GPs,"171 Upper Chorlton Road, Whalley Range, Manchester",M16 9RT,1618814293,http://www.ashvillesurgery.nhs.uk,Manchester,E0800003,-2.268044,53.452519
Medlock Vale Medical Practice,Doctors/GPs|Doctors/GPs,"58 Ashton Road, Droylsden, Manchester",M43 7BW,1613701610,NA,Tameside,E0800008,-2.142502,53.479062
Sullivan Way Surgery,Doctors/GPs|Doctors/GPs,"Sullivan Way, Scholes, Wigan",WN1 3TB,1942243649,http://www.sullivanwaysurgery.co.uk,Wigan,E08000010,-2.622534,53.549154
Sharma and Partners,Doctors/GPs|Doctors/GPs,"Medicentre, 185 Wigan Road, Ashton-in-Makerfield, Wigan",WN4 9SL,1942483754,http://www.themedicentre.co.uk,Wigan,E08000010,-2.643055,53.494018
Lever Chambers 2,Doctors/GPs|Doctors/GPs,"Lever Chambers Centre for Health,, Ashburner Street,, Bolton",BL1 1SQ,1204462660,NA,Bolton,E0800001,-2.431198,53.576864
Castleton Health Centre,Doctors/GPs|Doctors/GPs,"2 Elizabeth Street, Castleton, Rochdale",OL11 3HY,1706658905,http://www.castletonhealthcentre.co.uk,Rochdale,E0800005,-2.18229,53.597034
Ashcroft Surgery,Doctors/GPs|Doctors/GPs,"803 Stockport Road, Levenshulme, Manchester",M19 3BS,1612241329,NA,Manchester,E0800003,-2.19117,53.445449000000004
Argyle Street Medical Centre,Doctors/GPs|Doctors/GPs,"141 Argyle Street, Heywood",OL10 3SD,1706366135,http://www.argylestreetmedicalcentre.co.uk,Rochdale,E0800005,-2.239335,53.58737
Walkden Gateway,Doctors/GPs|Doctors/GPs,"2 Smith street,Walkden, Manchester",M28 3EZ,1612117175,NA,Salford,E0800006,-2.398541,53.524898
Salford Medical Centre 1,Doctors/GPs|Doctors/GPs,"Salford Medical Centre(1), 194-198 Langworthy Road, Salford",M6 5PP,1617361166,http://www.salfordmedicalcentre.nhs.uk,Salford,E0800006,-2.294577,53.487206
Dearden Avenue Medical Practice,Doctors/GPs|Doctors/GPs,"1A Dearden Avenue, Little Hulton, Manchester",M38 9GH,1612126262,NA,Salford,E0800006,-2.418615,53.533827
GTD Healthcare Head Office,Doctors/GPs|Doctors/GPs|Mobile doctors|Urgent care centres,"New Century House, Progress Way, Denton, Manchester",M34 2GP,161337346,http://gtdhealthcare.co.uk/,Tameside,E0800008,-2.134034,53.450605
"Dr Patel, Kamath and Partners",Doctors/GPs|Doctors/GPs,"Longshoot Health Centre, Scholes, Wigan",WN1 3NH,8443878500,http://www.longshootmedicalpractice.nhs.uk,Wigan,E08000010,-2.620127,53.54967
Donald Wilde Medical Centre,Doctors/GPs|Doctors/GPs,"283 Rochdale Road, Oldham",OL1 2HG,1616523184,http://www.donaldwildemedicalcentre.nhs.uk,Oldham,E0800004,-2.120459,53.549464
Marus Bridge Practice,Doctors/GPs|Doctors/GPs,"Chandler House, Worsley Mesnes Health Centre, Poolstock Lane, Wigan",WN3 5HL,1942481500,http://www.marusbridgepractice.nhs.uk,Wigan,E08000010,-2.643772,53.529393
Shay Lane Medical Centre - Kelman,Doctors/GPs|Doctors/GPs,"Shay Lane, Hale Barns, Altrincham",WA15 8NZ,1619803835,http://www.shaylane.org,Trafford,E0800009,-2.31556,53.372189
Garden City Medical Centre,Doctors/GPs|Doctors/GPs,"1a Garden City, Holcombe Brook, Bury",BL0 9TN,1204884710,NA,Bury,E0800002,-2.330377,53.629515
Mandalay Medical Centre,Doctors/GPs|Doctors/GPs,"933 Blackburn Road, Bolton",BL1 7LR,8444771751,http://www.ehealthservice.co.uk/bolton/mandalay,Bolton,E0800001,-2.432116,53.610567
Bodey Medical Centre,Doctors/GPs|Doctors/GPs,"28 Ladybarn Lane, Fallowfield, Manchester",M14 6WP,1612486644,http://www.bodey.co.uk,Manchester,E0800003,-2.214798,53.440636
Princess Road Surgery,Doctors/GPs|Doctors/GPs,"471-475 Princess Road, Withington, Manchester",M20 1BH,1614457805,NA,Manchester,E0800003,-2.243625,53.440374
Shekar et al,Doctors/GPs|Doctors/GPs,"Minden Family Practices, Moorgate Primary Care Centre, 22 Derby Way, Bury",BL9 0NJ,1614478281,http://www.mindenfamilypractices.co.uk,Bury,E0800002,-2.288591,53.59553
HT Practice,Doctors/GPs|Doctors/GPs,"Ashton Primary Care Centre, 193 Old Street, Ashton-Under-Lyne",OL6 7SR,1613427200,http://www.htpractice.co.uk,Tameside,E0800008,-2.099213,53.486097
Park View Group Practice,Doctors/GPs|Doctors/GPs,"2 Longford Road West, Reddish, Stockport",SK5 6ET,1614269500,http://www.parkviewgrouppractice.co.uk,Stockport,E0800007,-2.160577,53.445476
"Drs Adab, Chavdarov, Chen, Chew-Graham, Hill, Ratcliffe and Siebert",Doctors/GPs|Doctors/GPs,"Chorlton Health Centre, 1 Nicolas Road, Chorlton-cum-Hardy, Manchester",M21 9NJ,1618814545,http://www.drschenanddavis.co.uk,Manchester,E0800003,-2.279717,53.443773
Hopwood Medical Centre,Doctors/GPs|Doctors/GPs,"1-3 Walton Street, Hopwood, Heywood",OL10 2BS,1706369886,NA,Rochdale,E0800005,-2.212052,53.587143
Valentine Medical Centre,Doctors/GPs|Doctors/GPs,"2 Smethurst Street, Blackley, Manchester",M9 8PP,1612415480,http://www.valentinemedicalcentre.co.uk,Manchester,E0800003,-2.213082,53.515702
Mount Road Surgery,Doctors/GPs|Doctors/GPs,"110 Mount Road, Gorton, Manchester",M18 7BQ,1612314997,http://www.mountroadsurgery.co.uk,Manchester,E0800003,-2.1814,53.45981
Longfield Medical Practice,Doctors/GPs|Doctors/GPs,"Prestwich Health Centre, Fairfax Road, Prestwich, Manchester",M25 1BT,1617730494,NA,Bury,E0800002,-2.28357,53.533828
Dr Alistair Partnership,Doctors/GPs|Doctors/GPs,"7 Brooks Medical Centre, 21 Church Street, Atherton, Manchester",M46 9DE,1942483250,NA,Wigan,E08000010,-2.489022,53.524185
Irlam Group Practice,Doctors/GPs|Doctors/GPs,"523 Liverpool Road, Irlam, Manchester",M44 6ZS,1617761e3,http://www.irlamgrouppractice.nhs.uk,Salford,E0800006,-2.426415,53.439142
Bramhall Park Medical Centre,Doctors/GPs|Doctors/GPs,"235 Bramhall Lane South, Bramhall, Stockport",SK7 3EP,1612044221,http://www.bramhallparkmedicalcentre.co.uk,Stockport,E0800007,-2.162344,53.376037
The Gill Medical Centre,Doctors/GPs|Doctors/GPs,"5 Harriet Street, Worsley, Manchester",M28 3DR,1617903033,http://www.thegillmedicalcentre.co.uk,Salford,E0800006,-2.398384,53.524288
Ashworth Street Surgery,Doctors/GPs|Doctors/GPs,"85 Spotland Road, Rochdale",OL12 6RT,1706346767,http://www.ashworthstreetsurgeryrochdale.co.uk,Rochdale,E0800005,-2.165652,53.619565
Lower Broughton Medical Practice 3,Doctors/GPs|Doctors/GPs,"Lower Broughton Health Centre, Great Clowes Street, Salford",M7 1RD,1612126520,NA,Salford,E0800006,-2.258808,53.49359
The Energise Healthy Living Centre,Doctors/GPs|Doctors/GPs,"3 Douglas Green, Salford",M6 6ES,1613515050,NA,Salford,E0800006,-2.283601,53.497848
Hazeldene Medical Centre,Doctors/GPs|Doctors/GPs,"97 Moston Lane East, New Moston, Manchester",M40 3HD,1612418039,http://www.hazeldenemanchester.nhs.uk,Manchester,E0800003,-2.161372,53.516187
Woodlands Medical Practice,Doctors/GPs|Doctors/GPs,"Chadderton Town Health Centre, Chadderton, Oldham",OL9 0LH,1619098131,http://www.woodlandsmedicalpractice.com,Oldham,E0800004,-2.142182,53.545559
Heaton Moor Medical Group,Doctors/GPs|Doctors/GPs,"32 Heaton Moor Road, Heaton Moor, Stockport",SK4 4NX,1614320671,http://www.hmmc.info,Stockport,E0800007,-2.180393,53.424819
Cornerstone Family Practice,Doctors/GPs|Doctors/GPs,"Cornerstone Centre, Graham Street, Beswick, Manchester",M11 3AA,1612230637,http://www.cornerstonefamilypractice.co.uk,Manchester,E0800003,-2.195097,53.474422
The Elms Medical Centre,Doctors/GPs|Doctors/GPs,"Green Lane, Whitefield, Manchester",M45 7FD,1617662662,NA,Bury,E0800002,-2.295201,53.553233
Urban Village Medical Practice,Doctors/GPs|Doctors/GPs,"Old Mill Street, Manchester",M4 6EE,1612725656,http://www.uvmp.co.uk,Manchester,E0800003,-2.219472,53.4829
Cheetham Hill Primary Care Centre,Doctors/GPs|Doctors/GPs,"244 Cheetham Hill Road, Manchester",M8 8UP,1612776939,http://www.cheethamhillmedicalcentre.co.uk,Manchester,E0800003,-2.23526,53.501162
Dr Seabrook & partners,Doctors/GPs|Doctors/GPs,"Cheadle Hulme Health Centre, Smithy Green, Hulme Hall Road, Cheadle",SK8 6LU,1614265300,http://www.cheadlehulmeandbridgehouse.nhs.uk,Stockport,E0800007,-2.191357,53.366475
Awburn House Medical Practice,Doctors/GPs|Doctors/GPs,"Mottram Moor, Mottram, Hyde",SK14 6LA,1457763263,NA,Tameside,E0800008,-2.011,53.458105
Dr M B Ghafoor and Dr S A Abbasi,Doctors/GPs|Doctors/GPs,"1st Floor, Nye Bevan House, Maclure Road, Rochdale",OL11 1DN,1706261999,NA,Rochdale,E0800005,-2.154239,53.611617
Durnford Medical Centre,Doctors/GPs|Doctors/GPs,"113 Long Street, Middleton, Manchester",M24 6DL,1616432011,http://www.durnfordmc.nhs.net,Rochdale,E0800005,-2.197033,53.554038
Bradford Street Surgery,Doctors/GPs|Doctors/GPs,"65 Bradford Street, Haulgh, Bolton",BL2 1HT,1204521061,http://www.thesurgerybradfordstreet.nhs.uk,Bolton,E0800001,-2.418225,53.576838
Milnrow Village Practice,Doctors/GPs|Doctors/GPs,"44-48 Newhey Road, Milnrow, Rochdale",OL16 4EG,1706641409,http://www.milnrowvillagepractice.co.uk,Rochdale,E0800005,-2.106343,53.606608
Lockside Medical Centre,Doctors/GPs|Doctors/GPs,"85 Huddersfield Road, Stalybridge",SK15 2PT,1613037200,http://www.locksidemedical.co.uk,Tameside,E0800008,-2.046286,53.484945
Al-Shifa Medical Centre,Doctors/GPs|Doctors/GPs,"4-6 Copson Street, Withington, Manchester",M20 3HE,1614342753,NA,Manchester,E0800003,-2.229695,53.433705
Lowton Surgery,Doctors/GPs|Doctors/GPs,"208c, Newton Road, Lowton, Warrington",WA3 2AQ,1942605135,NA,Wigan,E08000010,-2.561051,53.471942
Lower Broughton Medical Practice 4,Doctors/GPs|Doctors/GPs,"Lower Broughton Health Centre, Great Clowes Street, Salford",M7 1RD,1618392730,NA,Salford,E0800006,-2.258808,53.49359
Woodside Medical Centre,Doctors/GPs|Doctors/GPs,"247J Wood Street, Langley Estate, Middleton, Manchester",M24 5QL,1616439244,NA,Rochdale,E0800005,-2.213286,53.556347
Oldham Medical Services,Doctors/GPs|Doctors/GPs,"Langham House, 368 Ashton Road, Oldham",OL8 3HF,1616244716,http://www.oldhammedicalservices.co.uk,Oldham,E0800004,-2.111235,53.525357
Park Medical Practice,Doctors/GPs|Doctors/GPs,"119 Park Road, Timperley, Altrincham",WA15 6QQ,1619733485,NA,Trafford,E0800009,-2.327843,53.401899
Brooklands Medical Practice,Doctors/GPs|Doctors/GPs,"594 Altrincham Road, Wythenshawe, Manchester",M23 9JH,1619983818,http://www.brooklandsmedicalpractice.co.uk,Manchester,E0800003,-2.304253,53.400982
Stamford House Medical Centre,Doctors/GPs|Doctors/GPs,"2 Princess Street, Ashton Under Lyne",OL6 9QH,1613440803,http://www.stamfordhousemedicalcentre.co.uk,Tameside,E0800008,-2.078642,53.493647
Dukinfield Medical Practice,Doctors/GPs|Doctors/GPs,"20-22 Concord Way, Dukinfield",SK16 4DB,1613436382,http://www.dukinfieldmedicalpractice.co.uk,Tameside,E0800008,-2.083416,53.476538
Dr Vasanth and Partners,Doctors/GPs|Doctors/GPs,"Atherton Health Centre, Atherton, Manchester",M46 0LE,1942481040,NA,Wigan,E08000010,-2.500811,53.527489
Silverdale Medical Practice,Doctors/GPs|Doctors/GPs,"Pendlebury Health Centre, 659 Bolton Road, Pendlebury, Manchester",M27 8HP,1612126565,http://www.pendleburyhealthcentre.co.uk,Salford,E0800006,-2.331475,53.518793
Bee Fold Medical Centre,Doctors/GPs|Doctors/GPs,"25 Bee Fold Lane, Atherton, Manchester",M46 0BD,1942510468,NA,Wigan,E08000010,-2.499759,53.521372
Ashton Medical Group,Doctors/GPs|Doctors/GPs,"GP Surgery, Glebe Street, Ashton Under Lyne",OL6 6HD,1613309880,NA,Tameside,E0800008,-2.089184,53.489361
Beech House Medical Practice,Doctors/GPs|Doctors/GPs,"Beech Avenue,, Hazel Grove,, Stockport",SK7 4QR,1614836222,http://www.beechhousesurgery.co.uk,Stockport,E0800007,-2.118146,53.379406
Lever Chambers 1,Doctors/GPs|Doctors/GPs,"Lever Chambers Centre for Health,, Ashburner Street,, Bolton",BL1 1SQ,1204462630,http://www.boltondoctors.co.uk,Bolton,E0800001,-2.431198,53.576864
Dr Wong and Partners,Doctors/GPs|Doctors/GPs,"Old Henry Street Medical Centre, Henry Street, Leigh",WN7 2PG,1942605506,http://www.oldhenrystreet.co.uk,Wigan,E08000010,-2.51155,53.494815
Dr D. Pal & Dr M. Pal,Doctors/GPs|Doctors/GPs,"Golborne Health Centre, Kidglove Road, Golborne, Warrington",WA3 3GS,1942481600,NA,Wigan,E08000010,-2.595867,53.478431
Mark Street Surgery,Doctors/GPs|Doctors/GPs,"2 Mark Street, Rochdale",OL12 9BE,1706643183,http://www.markstreetsurgery.co.uk,Rochdale,E0800005,-2.144639,53.62423
The Maples Medical Centre,Doctors/GPs|Doctors/GPs,"2 Scout Drive, Newall Green, Manchester",M23 2SY,1614988484,http://www.themaplesmc.co.uk,Manchester,E0800003,-2.286712,53.384846
Saddleworth Medical Practice,Doctors/GPs|Doctors/GPs,"Smithy Lane, Uppermill, Oldham",OL3 6AH,1457872228,http://www.saddleworthmedicalpractice.com,Oldham,E0800004,-2.004957,53.548331
Blackford House Medical Centre,Doctors/GPs|Doctors/GPs,"137 Croft Lane, Hollins, Bury",BL9 8QA,1617666622,http://www.blackfordhmc.co.uk,Bury,E0800002,-2.283415,53.574203
Monarch Medical Centre,Doctors/GPs|Doctors/GPs,"65 Cross Lane, Radcliffe, Manchester",M26 2QZ,1617230123,http://www.monarchmc.nhs.uk,Bury,E0800002,-2.316823,53.564198
Oak Gables Medical Practice,Doctors/GPs|Doctors/GPs,"The Oak Gables Partnership, Crompton Health Centre, High Street, Shaw, Oldham",OL2 8ST,1706888222,http://www.theoakgablespartnership.co.uk,Oldham,E0800004,-2.095994,53.574817
The Sides Medical Practice,Doctors/GPs|Doctors/GPs,"The Sides Medical Centre, Moorside Road, Swinton, Manchester",M27 0EW,1617941604,http://www.sidesmedicalcentre.co.uk,Salford,E0800006,-2.354232,53.505929
Wilbraham Surgery,Doctors/GPs|Doctors/GPs,"515 Wilbraham Road, Chorlton-Cum-Hardy, Manchester",M21 0UF,1618816120,NA,Manchester,E0800003,-2.271518,53.442318
Delamere Medical Practice,Doctors/GPs|Doctors/GPs,"Delamere Avenue, Stretford, Manchester",M32 0DF,1618640200,http://www.delameremedicalcentre.co.uk,Trafford,E0800009,-2.307365,53.450887
Al-Fal Medical Group - Pikes Lane Health Centre,Doctors/GPs|Doctors/GPs,"The Pikes Lane Centre, Deane Road, Bolton",BL3 5HP,1204463330,NA,Bolton,E0800001,-2.446348,53.572728
Whitley Road Medical Centre,Doctors/GPs|Doctors/GPs,"1 Whitley Road, Collyhurst, Manchester",M40 7QH,1612054407,NA,Manchester,E0800003,-2.2227,53.49493
Haughton Thornley Medical Centres,Doctors/GPs|Doctors/GPs,"Thornley House Medical Centre, Thornley Street, Hyde",SK14 1JY,1613677910,http://www.htmc.co.uk,Tameside,E0800008,-2.076116,53.446746
Stockport Medical Group,Doctors/GPs|Doctors/GPs,"1-3 Avondale Road, Edgeley, Stockport",SK3 9NX,1614265333,http://www.stockportmedicalgroup.nhs.uk,Stockport,E0800007,-2.177788,53.402873
St Gabriel's Medical Centre,Doctors/GPs|Doctors/GPs,"4 Bishops Road, Prestwich, Manchester",M25 0HT,1617731791,NA,Bury,E0800002,-2.265791,53.520809
Conway Road Medical Practice,Doctors/GPs|Doctors/GPs,"Conway Road Health Centre, 80a Conway Road, Sale",M33 2TB,1619731151,http://www.conwayroadsurgery.co.uk,Trafford,E0800009,-2.303561,53.417873
Wellfield Medical Centre,Doctors/GPs|Doctors/GPs,"55 Crescent Road, Crumpsall, Manchester",M8 9JT,1617402213,http://www.wellfieldmedicalcentre.com,Manchester,E0800003,-2.242019,53.512545
Dr I K Babar & Partners,Doctors/GPs|Doctors/GPs,"The Croft Shifa Health Centre, Floor 2, Belfield Road, Rochdale",OL16 2UP,1706261883,http://www.croftshifahealthcentre.co.uk,Rochdale,E0800005,-2.14084,53.622824
Quayside Medical Practice,Doctors/GPs|Doctors/GPs,"Failsworth District Centre, Ashton Road West, Failsworth, Manchester",M35 0AD,1616811818,http://www.quaysidemedicalpractice.co.uk,Oldham,E0800004,-2.156747,53.509855
The Singh Medical Practice,Doctors/GPs|Doctors/GPs,"The Harpurhey Health Centre, 1 Church Lane, Harpurhey, Manchester",M9 4BE,1618612408,NA,Manchester,E0800003,-2.213622,53.512042
Heaton Mersey Medical Practice,Doctors/GPs|Doctors/GPs,"460 Didsbury Road, Heaton Mersey, Stockport",SK4 3BT,1614269400,http://www.heatonmerseymedicalpractice.co.uk,Stockport,E0800007,-2.205118,53.412519
Partington Family Practice,Doctors/GPs|Doctors/GPs,"Partington Health Centre, Central Road, Partington, Manchester",M31 4FY,1617757033,http://www.drdeweeverandpartners.co.uk,Trafford,E0800009,-2.425413,53.417204
The Dawes Family Practice,Doctors/GPs|Doctors/GPs,"83 Spotland Road, Rochdale",OL12 6RX,1706644040,http://www.dawesfp.gpsurgery.net,Rochdale,E0800005,-2.165652,53.619565
Barlow Medical Centre,Doctors/GPs|Doctors/GPs,"828 Wilmslow Road, Didsbury, Manchester",M20 2RN,1614459e3,http://www.barlowmed.com,Manchester,E0800003,-2.231434,53.413163
Dr Ngan and Partners,Doctors/GPs|Doctors/GPs,"The Vallance Centre, Brunswick Street, Manchester",M13 9UJ,1612741500,NA,Manchester,E0800003,-2.224542,53.469786
Adswood Road Surgery,Doctors/GPs|Doctors/GPs,"270 Adswood Road, Adswood, Stockport",SK3 8PN,1614269770,http://www.adswoodsurgery.co.uk,Stockport,E0800007,-2.169883,53.389393
Gorton Medical Centre,Doctors/GPs|Doctors/GPs,"46 Wellington Street, Gorton, Manchester",M18 8LJ,1612231113,NA,Manchester,E0800003,-2.171985,53.463168
Standish Medical Practice,Doctors/GPs|Doctors/GPs,"49 High Street, Wigan",WN6 0HD,1257421909,http://www.standishmedicalpractice.nhs.uk,Wigan,E08000010,-2.660681,53.584559
Peterloo Medical Centre,Doctors/GPs|Doctors/GPs,"133-137 Manchester Old Road, Middleton, Manchester",M24 4DZ,1616435005,http://www.peterloomc.co.uk,Rochdale,E0800005,-2.20616,53.54676
Florence House Medical Practice,Doctors/GPs|Doctors/GPs,"Ashton Old Road,, Higher Openshaw,, Manchester",M11 1JG,1613702133,http://www.florencehousesurgery.co.uk,Manchester,E0800003,-2.163496,53.472644
Bradshaw Medical Partnership,Doctors/GPs|Doctors/GPs,"Bradshaw Medical Centre, Bradshaw Street, Orrell, Wigan",WN5 0AB,1942483900,http://www.bradshawmedicalcentre.nhs.uk,Wigan,E08000010,-2.688594,53.537889
Shevington Surgery,Doctors/GPs|Doctors/GPs,"The Surgery, Houghton Lane, Shevington, Wigan",WN6 8ET,1942483777,http://www.shevington-surgery.co.uk,Wigan,E08000010,-2.69942,53.574041
The Hive Health Centre,Doctors/GPs|Doctors/GPs,"Clough Street,, Middleton,, Manchester",M24 2YJ,1616544103,http://www.thehivehealthcentre.co.uk,Rochdale,E0800005,-2.187672,53.55683
Langworthy Medical Practice,Doctors/GPs|Doctors/GPs,"250 Langworthy Road, Salford",M6 5WW,1617379244,http://www.langworthymedicalpractice.co.uk,Salford,E0800006,-2.294771,53.489371
Heald Green Health Centre 1,Doctors/GPs|Doctors/GPs,"Finney Lane, Heald Green, Cheadle",SK8 3JD,1614269e3,http://www.drdeanandpartners.co.uk,Stockport,E0800007,-2.229276,53.369878
The Chandler Surgery,Doctors/GPs|Doctors/GPs,"Chandler House, Worsley Mesnes Health Centre, Poolstock Lane, Wigan",WN3 5HL,1942481440,http://www.chandlersurgery.nhs.uk,Wigan,E08000010,-2.643772,53.529393
CH Medical,Doctors/GPs|Doctors/GPs,"Fields New Road Primary Care Centre, Chadderton, Oldham",OL9 8NH,161785924,http://www.ch-medical.co.uk,Oldham,E0800004,-2.145068,53.533205
St Chads Medical Practice,Doctors/GPs|Doctors/GPs,"St Chads Centre, Lime Green Parade, Lime Green, Oldham",OL8 3HH,161620161,http://www.stchadsmedicalpractice.co.uk,Oldham,E0800004,-2.126789,53.515222
King Street Medical Centre,Doctors/GPs|Doctors/GPs,"96-98 King Street, Dukinfield",SK16 4JZ,1613301142,http://www.kingstreetmedicalcentre.co.uk,Tameside,E0800008,-2.093455,53.478589
Northern Moor Medical Practice,Doctors/GPs|Doctors/GPs,"216 Wythenshawe Road, Northern Moor, Manchester",M23 0PH,1619982503,NA,Manchester,E0800003,-2.285109,53.408049
Firsway Health Centre,Doctors/GPs|Doctors/GPs,"121 Firsway, Sale",M33 4BR,1619050310,http://www.firswayhealthcentre.co.uk,Trafford,E0800009,-2.355468,53.421289
Manor Medical Practice,Doctors/GPs|Doctors/GPs,"Offerton Health Centre, 10 Offerton Lane, Offerton, Stockport",SK2 5AR,1614269166,http://www.manormedical.co.uk,Stockport,E0800007,-2.136713,53.403467
The Northenden Group Practice,Doctors/GPs|Doctors/GPs,"489 Palatine Road, Northenden, Manchester",M22 4DH,1619983206,NA,Manchester,E0800003,-2.265032,53.406431
The Arch Medical Practice,Doctors/GPs|Doctors/GPs,"175 Royce Road, Hulme, Manchester",M15 5TJ,1612260606,http://www.thearchmedicalpractice.co.uk,Manchester,E0800003,-2.249612,53.46774
Crompton View Surgery,Doctors/GPs|Doctors/GPs,"Crompton Health Centre, 501 Crompton Way, Bolton",BL1 8UP,1204463090,NA,Bolton,E0800001,-2.415226,53.597486
Dr Hazem Lloyd,Doctors/GPs|Doctors/GPs,"Cedar House, 82 Bramhall Lane, Davenport, Stockport",SK2 6JG,1614265198,NA,Stockport,E0800007,-2.153043,53.393784
Fairfax Group Practice,Doctors/GPs|Doctors/GPs,"Prestwich Health Centre, Fairfax Road, Prestwich, Manchester",M25 1BT,1617732483,http://www.fairfaxgrouppractice.nhs.uk,Bury,E0800002,-2.28357,53.533828
Dalefield Surgery,Doctors/GPs|Doctors/GPs,"Avondale Health Centre, Avondale Street, Bolton",BL1 4JP,1204462880,http://www.dalefieldsurgery.nhs.uk,Bolton,E0800001,-2.451813,53.588167
Bupa Insurance - Anchorage,Doctors/GPs|Phone/online advice,"Anchorage 3 & 4, Anchorage Quays, Manchester",M50 3SP,2076562e3,NA,Salford,E0800006,-2.290235,53.473779
Denton Medical Practice,Doctors/GPs|Doctors/GPs,"100 Ashton Road, Denton, Manchester",M34 3JE,1613208788,http://www.dentonmedical.co.uk,Tameside,E0800008,-2.115509,53.45991
Walkden Medical Practice,Doctors/GPs|Doctors/GPs,"2 Hodge Road, Worsley, Manchester",M28 3AT,1617025310,http://www.walkdenmedicalcentre.co.uk,Salford,E0800006,-2.397527,53.522942
Redbank Group Practice,Doctors/GPs|Doctors/GPs,"Sun Suite 2nd Floor Radcliffe Primary Care Centre, 69 Church Street West,, Radcliffe",M26 3XA,1617242040,http://www.redbankgp.nhs.uk,Bury,E0800002,-2.363787,53.570535
The RLC Surgery,Doctors/GPs|Doctors/GPs,"Star Suite 2nd Floor Radcliffe Primary Care Centre 69 Church Street West, Radcliffe, Manchester",M26 2SP,1617242080,http://www.therlc.co.uk,Bury,E0800002,-2.323706,53.560143
Mile Lane Surgery,Doctors/GPs|Doctors/GPs,"Mile Lane Health Centre, 80 Mile Lane, Bury",BL8 2JR,1617647804,http://www.milelanehc.nhs.uk,Bury,E0800002,-2.335248,53.587814
Gatley Group Practice,Doctors/GPs|Doctors/GPs,"Old Hall Road, Gatley, Cheadle",SK8 4DG,1614265100,http://www.gatleymedicalcentre.co.uk,Stockport,E0800007,-2.235344,53.393794
Dr Anis and Anis,Doctors/GPs|Doctors/GPs,"Golborne Health Centre, Kidglove Road, Golborne, Warrington",WA3 3GS,1942481600,NA,Wigan,E08000010,-2.595867,53.478431
M Ullah,Doctors/GPs|Doctors/GPs,"Platt Bridge Health Centre, Rivington Avenue, Platt Bridge, Wigan",WN2 5NG,1942482370,NA,Wigan,E08000010,-2.595925,53.522279
Marple Bridge Surgery,Doctors/GPs|Doctors/GPs,"Town Street, Marple Bridge, Stockport",SK6 5AA,1614272049,http://www.MarpleBridgeSurgery.nhs.uk,Stockport,E0800007,-2.053323,53.400594
Leigh Family Practice,Doctors/GPs|Doctors/GPs,"Bridgewater Medical Centre, Henry Street, Leigh",WN7 2PE,1942481830,http://www.ssphealth.com,Wigan,E08000010,-2.511927,53.493519
Marsh Green Medical Practice,Doctors/GPs|Doctors/GPs,"Harrow Road, Marsh Green, Wigan",WN5 0QL,1942510468,http://www.ssphealth.com,Wigan,E08000010,-2.667437,53.549263
Poplar Street Surgery,Doctors/GPs|Doctors/GPs,"Poplar Street, Tyldesley, Manchester",M29 8AX,1942510468,http://www.ssphealth.com,Wigan,E08000010,-2.468999,53.516715
Dr Devadeep Gupta,Doctors/GPs|Doctors/GPs,"Littleborough Health Centre, Featherstall Road, Littleborough",OL15 8HF,1706374990,NA,Rochdale,E0800005,-2.103349,53.642995
Leigh Sports Village Practice,Doctors/GPs|Doctors/GPs,"Leigh Sports Village, Sale Way, Leigh",WN7 4JY,1942510468,http://www.ssphealth.com,Wigan,E08000010,-2.531079,53.489454
Railway Surgery,Doctors/GPs|Doctors/GPs,"Kid Glove House, Kid Glove Road, Golborne, Warrington",WA3 3GS,1942510468,http://www.ssphealth.com,Wigan,E08000010,-2.595867,53.478431
Rivington Way Surgery,Doctors/GPs|Doctors/GPs,"Rivington Avenue, Platt Bridge, Wigan",WN2 5NG,1942510468,http://www.ssphealth.com,Wigan,E08000010,-2.595925,53.522279
Spring View Medical Centre,Doctors/GPs|Doctors/GPs,"Mytham Road, Little Lever, Bolton",BL3 1HQ,1204578128,http://www.springviewmedicalcentre.nhs.uk,Bolton,E0800001,-2.369742,53.560837
Unsworth Medical Centre,Doctors/GPs|Doctors/GPs,"Parr Lane, Unsworth, Bury",BL9 8JR,1617664092,NA,Bury,E0800002,-2.273074,53.560681
Garnet Fold Practice,Doctors/GPs|Doctors/GPs,"374-376 St Helens Road, Bolton",BL3 3RR,1204665588,NA,Bolton,E0800001,-2.457847,53.559568
Bredbury Medical Centre,Doctors/GPs|Doctors/GPs,"1 Auburn Avenue, Bredbury, Stockport",SK6 2AH,1614269730,NA,Stockport,E0800007,-2.114054,53.422915
Tame Valley Medical Centre,Doctors/GPs|Doctors/GPs,"Glebe Street, Ashton Under Lyne",OL6 6HD,1613307747,http://www.tamevalleymedcentre.co.uk,Tameside,E0800008,-2.089184,53.489361
Dr Nityananda Hati-Kakoty,Doctors/GPs|Doctors/GPs,"Bee Fold Medical Centre, Bee Fold Lane, Atherton, Manchester",M46 0BD,1942876011,NA,Wigan,E08000010,-2.499759,53.521372
Dr George Bhima,Doctors/GPs|Doctors/GPs,"1st Floor, Nye Bevan House, Maclure Road, Rochdale",OL11 1DN,1706261810,NA,Rochdale,E0800005,-2.154239,53.611617
Eastlands Medical Practice,Doctors/GPs|Doctors/GPs,"Clayton Health Centre, 89 North Road, Clayton, Manchester",M11 4EJ,1612239229,http://www.drsgoodallglassandsingh.nhs.uk,Manchester,E0800003,-2.184157,53.484308
IntraHealth Family Practice,Doctors/GPs|Doctors/GPs,"Leigh Sports Village, Leigh Stadium, Sale Way, Leigh",WN7 4JY,1942483121,http://www.intrahealth.co.uk,Wigan,E08000010,-2.531079,53.489454
IntraHealth Leigh Sports Village Practice,Doctors/GPs|Doctors/GPs,"Leigh Stadium, Sale Way, Leigh Sports Village, Leigh",WN7 4JY,1942483121,http://www.intrahealth.co.uk,Wigan,E08000010,-2.531079,53.489454
Alvanley Family Practice,Doctors/GPs|Doctors/GPs,"Woodley Health Centre, Hyde Road, Woodley, Stockport",SK6 1ND,1614265757,http://www.alvanleyfamilypractice.co.uk,Stockport,E0800007,-2.0996610000000002,53.426289
Albion Medical Practice,Doctors/GPs|Doctors/GPs,"1 Albion Street, Ashton Under Lyne",OL6 6HF,1612148717,http://www.albionmedicalpractice.co.uk,Tameside,E0800008,-2.088476,53.489604
Fig Tree Medical Practice,Doctors/GPs|Doctors/GPs,"Farnworth Health Centre 1, Frederick Street, Farnworth, Bolton",BL4 9AH,1204795170,http://www.farnworthhealthcentre.nhs.uk,Bolton,E0800001,-2.397759,53.546123
Burnside Surgery,Doctors/GPs|Doctors/GPs,"Navigation Park, Waters Meeting Road, Bolton",BL1 8TT,1204462930,NA,Bolton,E0800001,-2.42777,53.590359
Market Street Medical Practice,Doctors/GPs|Doctors/GPs,"76 Market Street, Droylsden, Manchester",M43 6DE,1613716188,NA,Tameside,E0800008,-2.145635,53.478959
Boundary House Medical Centre,Doctors/GPs|Doctors/GPs,"Boundary House,, 462, Northenden Road,, Sale",M33 2RH,1619729999,NA,Trafford,E0800009,-2.288936,53.415635
Stonefield Street Surgery,Doctors/GPs|Doctors/GPs,"Stonefield Street, Milnrow, Rochdale",OL16 4JQ,1706646234,http://www.stonefieldstreetsurgery.co.uk,Rochdale,E0800005,-2.108991,53.608017
Dr Hendy & Rizwan,Doctors/GPs|Doctors/GPs,"The Halliwell Surgery, Lindfield Drive, Halliwell, Bolton",BL1 3RG,1204523642,http://www.ehealthservice.co.uk/bolton/halliwellwh,Bolton,E0800001,-2.431738,53.588322
St Andrews Medical Centre 3,Doctors/GPs|Doctors/GPs,"30 Russell Street, Eccles, Manchester",M30 0NU,1617075500,http://www.standrewsmc.co.uk,Salford,E0800006,-2.339619,53.484875
The Brooke Surgery,Doctors/GPs|Doctors/GPs,"20 Market Street, Hyde",SK14 1AT,1613683312,NA,Tameside,E0800008,-2.081215,53.452136
Bracondale Medical Centre,Doctors/GPs|Doctors/GPs,"141 Buxton Road, Heaviley, Stockport",SK2 6EQ,1614269050,http://www.bracondalemedicalcentre.co.uk,Stockport,E0800007,-2.147089,53.393998
York House Surgery,Doctors/GPs|Doctors/GPs,"19 York Street, Heywood",OL10 4NN,1706628628,http://www.yorkhousesurgery.nhs.uk,Rochdale,E0800005,-2.217672,53.593638
Chadderton Medical Practice,Doctors/GPs|Doctors/GPs,"Chadderton Town Health Centre, Middleton Road, Chadderton, Oldham",OL9 0LH,1619098144,http://www.chaddertonmedicalpractice.nhs.uk,Oldham,E0800004,-2.142182,53.545559
Caritas General Practice Partnership,Doctors/GPs|Doctors/GPs,"Dial House Medical Centre, 131 Mile End Lane, Stockport",SK2 6BZ,1614265775,http://www.dialhousemedicalcentre.nhs.uk,Stockport,E0800007,-2.134599,53.395928
Lilford Park Surgery,Doctors/GPs|Doctors/GPs,"Leigh Health Centre, The Avenue, Leigh",WN7 1HR,1942483438,http://www.lilfordparksurgery.co.uk,Wigan,E08000010,-2.511455,53.503236
Dr Mokashi,Doctors/GPs|Doctors/GPs,"Clayton Health Centre, 89 North Road, Clayton, Manchester",M11 4EJ,1612238388,NA,Manchester,E0800003,-2.184157,53.484308
Bodmin Road Health Centre,Doctors/GPs|Doctors/GPs,"Bodmin Road,, Sale",M33 5JH,1619624625,http://www.bodminroadhealthcentre.co.uk,Trafford,E0800009,-2.351718,53.428123
"Drs Chiu, Koh and Gan",Doctors/GPs|Doctors/GPs,"The Vallance Centre, Brunswick Street, Manchester",M13 9UJ,1612741500,NA,Manchester,E0800003,-2.224542,53.469786
Archwood Medical Practice,Doctors/GPs|Doctors/GPs,"Woodley Health Centre, Hyde Road, Woodley, Stockport",SK6 1ND,1614265800,http://www.archwoodmp.co.uk,Stockport,E0800007,-2.0996610000000002,53.426289
The Village Surgery,Doctors/GPs|Doctors/GPs,"31 Bramhall Lane South, Bramhall, Stockport",SK7 2DN,1614393322,http://www.thevillagesurgerybramhall.co.uk,Stockport,E0800007,-2.165195,53.35927
Bolton Community Practice CIC,Doctors/GPs|Doctors/GPs,"Navigation Park, Waters Meeting Road, Bolton",BL1 8TT,1204463444,http://www.boltoncommunitypractice.nhs.uk,Bolton,E0800001,-2.42777,53.590359
Mocha Parade Medical Practice,Doctors/GPs|Doctors/GPs,"The Surgery, 4-5 Mocha Parade, Salford",M7 1QE,1618392721,NA,Salford,E0800006,-2.260831,53.491734
Chadsfield Medical Practice,Doctors/GPs|Doctors/GPs,"The Romiley Health Centre, Chichester Road, Romiley, Stockport",SK6 4QR,1614269388,http://www.chadsfieldmedicalpractice.co.uk,Stockport,E0800007,-2.08993,53.414998
Gordon Street Medical Centre,Doctors/GPs|Doctors/GPs,"171 Mossley Road, Ashton Under Lyne",OL6 6NE,1613305104,NA,Tameside,E0800008,-2.078053,53.49291
Dr Pal & Partners,Doctors/GPs|Doctors/GPs,"Royton Health Wellbeing Centre, Park Street, Royton, Oldham",OL2 6QW,1613624004,NA,Oldham,E0800004,-2.121594,53.566109
Altrincham Medical Practice,Doctors/GPs|Doctors/GPs,"Lloyd House, 7 Lloyd Street, Altrincham",WA14 2DD,1619282424,http://www.altrinchammedicalpractice.co.uk,Trafford,E0800009,-2.351614,53.38451
Clarendon Medical Centre,Doctors/GPs|Doctors/GPs,"Clarendon Street, Hyde",SK14 2AQ,1613685224,NA,Tameside,E0800008,-2.079951,53.45264
The Borchardt Medical Centre,Doctors/GPs|Doctors/GPs,"62 Whitchurch Road, Withington, Manchester",M20 1EB,1614382821,http://www.borchardtmc.nhs.uk,Manchester,E0800003,-2.237419,53.434193
Washway Road Medical Centre,Doctors/GPs|Doctors/GPs,"67 Washway Road, Sale",M33 7SS,1619624354,http://www.wrmc.org.uk,Trafford,E0800009,-2.328392,53.4224
Deakin Norman Sutcliffe,Doctors/GPs|Doctors/GPs,"Minden Family Practices, Moorgate Primary Care Centre, 22 Derby Way, Bury",BL9 0NJ,1614478282,http://www.mindenfamilypractices.co.uk,Bury,E0800002,-2.288591,53.59553
Knowsley Medical Centre,Doctors/GPs|Doctors/GPs,"9-11 Knowsley Street, Bury",BL9 0ST,1617641217,http://www.knowsleymedicalcentre.co.uk,Bury,E0800002,-2.300551,53.588497
Surrey Lodge Group Practice,Doctors/GPs|Doctors/GPs,"11 Anson Road, Victoria Park, Manchester",M14 5BY,1612242471,NA,Manchester,E0800003,-2.218728,53.458264
Unsworth Group Practice,Doctors/GPs|Doctors/GPs,"Peter House Surgery, Captain Lees Road, Westhoughton, Bolton",BL5 3UB,1942812525,NA,Bolton,E0800001,-2.508554,53.550458
New Collegiate Medical Centre,Doctors/GPs|Doctors/GPs,"407 Cheetham Hill Road, Cheetham, Manchester",M8 0DA,1612054364,NA,Manchester,E0800003,-2.236077,53.504378
Kearsley Medical Centre,Doctors/GPs|Doctors/GPs,"Jackson Street, Kearsley, Bolton",BL4 8EP,1204462200,http://www.kearsleymedicalcentre.nhs.uk,Bolton,E0800001,-2.382838,53.543205
Kingsway Medical Practice,Doctors/GPs|Doctors/GPs,"720 Burnage Lane, Manchester",M19 1UG,3444773625,http://www.kingswaymedicalpractice.co.uk,Manchester,E0800003,-2.212694,53.420137
"Drs D'Arifat, Elislam, Wan & Saroha",Doctors/GPs|Doctors/GPs,"Newtown Medical Practice, Pemberton Primary Care Resource Centre, Sherwood Drive, Wigan",WN5 9QX,1942481900,http://www.newtownmedicalpractice.nhs.uk,Wigan,E08000010,-2.669697,53.538479
Cheadle Medical Practice,Doctors/GPs|Doctors/GPs,"1-5 Ashfield Crescent, Cheadle",SK8 1BH,1614269090,http://www.cheadlemedical.co.uk,Stockport,E0800007,-2.213539,53.393745
Alexandra Group Medical Practice,Doctors/GPs|Doctors/GPs,"Glodwick Primary Care Centre, 137 Glodwick Road, Oldham",OL4 1YN,1616229210,http://www.alexandrapractice.org.uk,Oldham,E0800004,-2.095095,53.537786
Bramhall Health Centre,Doctors/GPs|Doctors/GPs,"66 Bramhall Lane South, Bramhall, Stockport",SK7 2DY,1614265850,NA,Stockport,E0800007,-2.162929,53.36001
Dr Tun & Partners,Doctors/GPs|Doctors/GPs,"The Health Centre, 17 Liverpool Road, Hindley, Wigan",WN2 3HQ,1942482505,http://www.hindleyhealthcentre.co.uk,Wigan,E08000010,-2.583571,53.532102
Littleborough Group Practice,Doctors/GPs|Doctors/GPs,"Littleborough Health Centre, Featherstall Road, Littleborough",OL15 8HF,1706393e3,http://www.littleboroughgrouppractice.nhs.uk,Rochdale,E0800005,-2.103349,53.642995
Spring House Surgery,Doctors/GPs|Doctors/GPs,"555 Chorley Old Road, Bolton",BL1 6AF,1204848411,http://www.springhousesurgery.com,Bolton,E0800001,-2.463553,53.588374
The Mosslands Medical Practice,Doctors/GPs|Doctors/GPs,"Irlam Medical Centre, Macdonald Road, Irlam, Manchester",M44 5LH,1617760737,http://www.mosslandsmedicalpractice.co.uk,Salford,E0800006,-2.432258,53.437925
Halliwell Surgery 3,Doctors/GPs|Doctors/GPs,"The Halliwell Surgery, Lindfield Drive, Halliwell, Bolton",BL1 3RG,1204523716,http://www.bolton.nhs.uk/gp/halliwell,Bolton,E0800001,-2.431738,53.588322
St Johns Medical Centre,Doctors/GPs|Doctors/GPs,"St Johns Road, Altrincham",WA14 2NW,1619285522,http://www.stjohnsmedicalcentre.co.uk,Trafford,E0800009,-2.353809,53.38276
Newton Heath Medical Centre,Doctors/GPs|Doctors/GPs,"Newton Heath Health Centre, 2 Old Church Street, Manchester",M40 2JF,1616811353,NA,Manchester,E0800003,-2.181199,53.500995
Park View Medical Centre,Doctors/GPs|Doctors/GPs,"66 Delaunays Road, Crumpsall, Manchester",M8 4RF,1617955667,http://www.parkviewmedicalcentre.nhs.uk,Manchester,E0800003,-2.233306,53.518504
Pendleton Medical Centre,Doctors/GPs|Doctors/GPs,"Pendleton Gateway, 1 Broadwalk, Salford",M6 5FX,1612117420,http://www.pendletonmedicalcentre.nhs.uk,Salford,E0800006,-2.284742,53.488361
Cornishway Group Practice,Doctors/GPs|Doctors/GPs,"Forum Health, Simonsway, Wythenshawe, Manchester",M22 5RX,1614902293,http://www.cornishwaygp.co.uk,Manchester,E0800003,-2.265017,53.379925
St Mary's Medical Centre,Doctors/GPs|Doctors/GPs,"Rock Street, Oldham",OL1 3UL,1616206667,http://www.stmarymc.co.uk,Oldham,E0800004,-2.108554,53.543625
Tregenna Group Practice,Doctors/GPs|Doctors/GPs,"Portway, Woodhouse Park, Wythenshawe, Manchester",M22 0EP,1614993777,NA,Manchester,E0800003,-2.256528,53.370756
Beech Hill Medical Practice,Doctors/GPs|Doctors/GPs,"278 Gidlow Lane, Beech Hill, Wigan",WN6 7PD,1942821899,http://www.beechhillmedical.co.uk,Wigan,E08000010,-2.644352,53.555654
The Dunstan Partnership,Doctors/GPs|Doctors/GPs,"Breightmet Health Centre,, Breightmet Fold Lane, Breightmet,, Bolton",BL2 6NT,1204463777,http://www.thedunstanpartnership.co.uk,Bolton,E0800001,-2.384279,53.582354
The Lakes Medical Practice,Doctors/GPs|Doctors/GPs,"The Lakes Medical Centre, 21 Chorley Road, Swinton, Manchester",M27 4AF,1617275241,http://www.thelakesmedicalcentre.co.uk,Salford,E0800006,-2.33372,53.509205
Marple Cottage Surgery,Doctors/GPs|Doctors/GPs,"50 Church Street, Marple, Stockport",SK6 6BW,1614260011,http://www.marplecottage.co.uk,Stockport,E0800007,-2.061042,53.392725
Levenshulme Medical Practice,Doctors/GPs|Doctors/GPs,"Levenshulme Health Centre, Dunstable Street, Levenshulme, Manchester",M19 3BX,1612254033,http://www.levenshulmemedicalpractice.co.uk,Manchester,E0800003,-2.188524,53.446352
Davyhulme Medical Centre,Doctors/GPs|Doctors/GPs,"130 Broadway, Davyhulme, Urmston, Manchester",M41 7WJ,1617485559,http://www.davyhulmemedicalcentre.co.uk,Trafford,E0800009,-2.366782,53.459483
Marple Medical Practice,Doctors/GPs|Doctors/GPs,"50 Stockport Road, Marple, Stockport",SK6 6AB,1614265375,http://www.marple.medicalpractice.co.uk,Stockport,E0800007,-2.064638,53.394852
Kildonan House,Doctors/GPs|Doctors/GPs,"Ramsbottom Road, Horwich, Bolton",BL6 5NW,1204468161,NA,Bolton,E0800001,-2.545363,53.594788
Springfield House,Doctors/GPs|Doctors/GPs,"275 Huddersfield Road, Oldham",OL4 2RJ,1616672480,http://www.springfieldhousemedicalcentre.nhs.uk,Oldham,E0800004,-2.082714,53.548913
Ladybarn Group Practice,Doctors/GPs|Doctors/GPs,"54 Briarfield Road, Withington, Manchester",M20 4SS,1614484500,http://www.ladybarngp.co.uk,Manchester,E0800003,-2.213962,53.429923
Cornerstone Medical Practice,Doctors/GPs|Doctors/GPs,"451 Liverpool Street, Salford",M6 5QQ,1612124445,NA,Salford,E0800006,-2.296843,53.483785
Irlam Clinic,Doctors/GPs|Doctors/GPs,"125 Liverpool Road, Irlam, Manchester",M44 6DP,NA,NA,Salford,E0800006,-2.417074,53.449107
Ordsall Health Surgery,Doctors/GPs|Doctors/GPs,"118 Phoebe Street, Ordsall, Salford",M5 3PH,1612126600,http://www.ordsallhealthsurgery.nhs.uk,Salford,E0800006,-2.280971,53.473981
Manchester Medical,Doctors/GPs|Doctors/GPs,"Moss Side Health Centre, Monton Street, Manchester",M14 4GP,1612267615,http://www.manchestermedical.org.uk,Manchester,E0800003,-2.23745,53.45875
Harwood Medical Centre,Doctors/GPs|Doctors/GPs,"Harwood Medical Centre, Hough Fold Way, Harwood, Bolton",BL2 3HQ,1204300033,http://www.harwoodmedicalcentre.co.uk,Bolton,E0800001,-2.398153,53.604069
Mauldeth Medical Centre,Doctors/GPs|Doctors/GPs,"112 Mauldeth Road, Fallowfield, Manchester",M14 6SQ,1614346678,http://www.mauldethmedicalcentre.co.uk,Manchester,E0800003,-2.213429,53.434823
Dr BN Macdonald & Partners,Doctors/GPs|Doctors/GPs,"68 Barrington Road, Altrincham",WA14 1JB,1619289621,NA,Trafford,E0800009,-2.35098,53.395191
The Dicconson Group Practice,Doctors/GPs|Doctors/GPs,"Boston House,, Frog Lane,, Wigan",WN6 7LB,1942482e3,http://www.thedicconsongrouppracticewigan.nhs.uk,Wigan,E08000010,-2.644891,53.549467
Stable Fold Surgery,Doctors/GPs|Doctors/GPs,"119 Church Street, Westhoughton, Bolton",BL5 3SF,1942813678,NA,Bolton,E0800001,-2.52343,53.552405
Oldham Family Practice,Doctors/GPs|Doctors/GPs,"Integrated Care Centre, New Radcliffe Street, Oldham",OL1 1NL,1616213456,NA,Oldham,E0800004,-2.116945,53.543824
Dr Ellis and Kreppel,Doctors/GPs|Doctors/GPs,"Mesnes View Surgery, Mesnes Street, Wigan",WN1 1ST,1942242350,http://www.mesnesviewsurgery.co.uk,Wigan,E08000010,-2.633048,53.550807
Yorkshire Street Surgery,Doctors/GPs|Doctors/GPs,"188-190 Yorkshire Street, Rochdale",OL16 2DN,1706390243,NA,Rochdale,E0800005,-2.152215,53.620446
Five Oaks Family Practice,Doctors/GPs|Doctors/GPs,"47 Graham Street, Beswick, Manchester",M11 3BB,8444778670,http://www.fiveoaksfamilypractice.co.uk,Manchester,E0800003,-2.19447,53.47569
Dr Carmel Morris and Partners,Doctors/GPs|Doctors/GPs,"Finney Lane, Heald Green, Cheadle",SK8 3JD,1614269020,http://www.healdgreenhealthcentre.nhs.uk,Stockport,E0800007,-2.229276,53.369878
Brookmill Medical Centre,Doctors/GPs|Doctors/GPs,"College Street, Leigh",WN7 2RB,1942681880,http://www.brookmillmedical.co.uk,Wigan,E08000010,-2.50958,53.496441
Grosvenor Medical Centre,Doctors/GPs|Doctors/GPs,"62 Grosvenor Street, Stalybridge",SK15 1RZ,1613034313,http://www.grosvenormedicalcentrestalybridge.nhs.uk,Tameside,E0800008,-2.059105,53.481452
Drs Joseph Borg-Costanzi/Ian Gilani/Brian Rhodes,Doctors/GPs|Doctors/GPs,"Monton Medical Centre, Canal Side, Monton Green, Eccles, Manchester",M30 8AR,8448151147,NA,Salford,E0800006,-2.356978,53.491862
Flixton Road Medical Centre,Doctors/GPs|Doctors/GPs,"132 Flixton Road, Urmston, Manchester",M41 5BG,1617482021,NA,Trafford,E0800009,-2.362664,53.448267
The Royton and Crompton Family Practice,Doctors/GPs|Doctors/GPs,"Royton Health Wellbeing Centre, Park Street, Royton, Oldham",OL2 6QW,1613624003,http://www.roytonandcromptonfamilypractice.co.uk,Oldham,E0800004,-2.121594,53.566109
Didsbury Medical Centre,Doctors/GPs|Doctors/GPs,"645 Wilmslow Road, Didsbury, Manchester",M20 6BA,1614453731,http://www.didsburymedicalcentre.co.uk,Manchester,E0800003,-2.231819,53.420371
The Smithy Surgery,Doctors/GPs|Doctors/GPs,"4 Market Street, Hollingworth, Hyde",SK14 8LN,1457767123,NA,Tameside,E0800008,-1.994509,53.461818
West Point Medical Centre,Doctors/GPs|Doctors/GPs,"167 Slade Lane, Manchester",M19 2AF,1612485100,http://www.westpoint-gp.nhs.uk,Manchester,E0800003,-2.197586,53.445978
Saxena Bowden Saxena,Doctors/GPs|Doctors/GPs,"Minden Family Practices, Moorgate Primary Care Centre, 22 Derby Way, Bury",BL9 0NJ,1614478283,http://www.mindenfamilypractices.co.uk,Bury,E0800002,-2.288591,53.59553
The Park Medical Centre,Doctors/GPs|Doctors/GPs,"434 Altrincham Road, Baguley, Wythenshaw, Manchester",M23 9AB,1619985538,NA,Manchester,E0800003,-2.28807,53.40104
Edenfield Road Surgery,Doctors/GPs|Doctors/GPs,"Cutgate Precinct, Rochdale",OL11 5AQ,1706344125,NA,Rochdale,E0800005,-2.188671,53.622297
Healey Surgery,Doctors/GPs|Doctors/GPs,"Whitworth Road, Rochdale",OL12 0SN,1706868468,http://www.healeysurgery.co.uk,Rochdale,E0800005,-2.162786,53.633087
The Avenue Medical Centre,Doctors/GPs|Doctors/GPs,"51-53 Victoria Avenue, Blackley, Manchester",M9 6BA,1617209441,http://www.theavenuemcblackley.nhs.uk,Manchester,E0800003,-2.211676,53.533178
West Timperley Medical Centre,Doctors/GPs|Doctors/GPs,"21 Dawson Road, West Timperley, Altrincham",WA14 5PF,1619291515,http://www.westtimperleymedicalcentre.co.uk,Trafford,E0800009,-2.353117,53.402699
Pennine Medical Centre,Doctors/GPs|Doctors/GPs,"193 Manchester Road, Mossley, Ashton Under Lyne",OL5 9AJ,1457832590,http://www.penninemedicalcentre.nhs.uk,Tameside,E0800008,-2.040966,53.515337
Fallowfield Medical Centre,Doctors/GPs|Doctors/GPs,"75 Ladybarn Lane, Fallowfield, Manchester",M14 6YL,1612244503,NA,Manchester,E0800003,-2.21351,53.438823
Dr Venkatachalum Raj,Doctors/GPs|Doctors/GPs,"37 Orient Road, Salford",M6 8LE,1617893029,http://www.orientroadmedicalpractice.co.uk,Salford,E0800006,-2.325434,53.494182
Peel GPs,Doctors/GPs|Doctors/GPs,"Townside Primary Care Centre, Knowsley Place, 1 Knowsley Place, Knowsley Street, Bury",BL9 0SN,1617621515,http://www.peelgps.nhs.uk,Bury,E0800002,-2.29898,53.59031
Dr AK and N Atrey,Doctors/GPs|Doctors/GPs,"Nelson Street, Atherton, Manchester",M46 0LE,1942481060,http://www.meadowviewsurgery.co.uk,Wigan,E08000010,-2.500811,53.527489
Wellfield Health Centre,Doctors/GPs|Doctors/GPs,"116 Oldham Road, Rochdale",OL11 1AD,1706397600,http://www.wellfieldhealthcentre.co.uk,Rochdale,E0800005,-2.147616,53.607039
Ramsbottom Medical Practice,Doctors/GPs|Doctors/GPs,"Ramsbottom Health Centre, Carr Street, Ramsbottom, Bury",BL0 9DD,1706824413,http://www.ramsbottomhc.nhs.uk,Bury,E0800002,-2.319287,53.64878
Brinnington Surgery,Doctors/GPs|Doctors/GPs,"Brinnington Health Centre, Brinnington Road, Brinnington, Stockport",SK5 8BS,1614304002,http://www.brinningtonsurgeries.nhs.uk,Stockport,E0800007,-2.132367,53.427651
Pennygate Medical Centre,Doctors/GPs|Doctors/GPs,"109 Ladies Lane, Hindley, Wigan",WN2 2QG,1942807500,http://www.pennygatemedical.org.uk,Wigan,E08000010,-2.576271,53.540002
The Junction Alkrington Surgery,Doctors/GPs|Doctors/GPs,"346 Grimshaw Lane, Middleton Junction, Middleton, Manchester",M24 2AU,1616557478,NA,Rochdale,E0800005,-2.174915,53.541857
Aspull Surgery,Doctors/GPs|Doctors/GPs,"The Surgery, Haigh Road, Aspull, Wigan",WN2 1XH,1942831263,http://www.aspullsurgery.co.uk,Wigan,E08000010,-2.586036,53.569599
Sorrel Bank Medical Practice,Doctors/GPs|Doctors/GPs,"23 Bolton Road, Salford",M6 7HL,1617361616,http://www.thesorrelgrouppractice.co.uk,Salford,E0800006,-2.294815,53.493344
Victoria Road Surgery,Doctors/GPs|Doctors/GPs,"9 Victoria Road, Salford, Lancashire",M6 8FZ,161789372,http://www.thesorrelgrouppractice.co.uk,Salford,E0800006,-2.326647,53.491149
Tonge Fold Health Centre,Doctors/GPs|Doctors/GPs,"Hilton Street, Tonge Fold, Bolton",BL2 6DY,1204521574,http://www.drlowe.co.uk,Bolton,E0800001,-2.405772,53.579119
Dr Artatran Mohanty & Dr A Khurana,Doctors/GPs|Doctors/GPs,"Featherstall Road South, Oldham",OL9 7AY,1616822512,NA,Oldham,E0800004,-2.130476,53.537321
Dr Sivakumar and Dr Gude,Doctors/GPs|Doctors/GPs,"The Surgery, 1 Coldalhurst Lane, Astley, Tyldesley, Manchester",M29 7BS,1942878711,http://www.thesurgeryastley.co.uk,Wigan,E08000010,-2.455594,53.500102
Corkland Road Medical Practice,Doctors/GPs|Doctors/GPs,"9 Corkland Road, Chorlton-Cum-Hardy, Manchester",M21 8UP,1618816223,NA,Manchester,E0800003,-2.273878,53.441827
Greenbank Medical Practice,Doctors/GPs|Doctors/GPs,"Barley Clough Medical Centre, Nugget Street, Oldham",OL4 1BN,1619098370,http://www.glodwickmp.co.uk,Oldham,E0800004,-2.096166,53.537929
Halliwell Surgery 2,Doctors/GPs|Doctors/GPs,"The Halliwell Surgery, Lindfield Drive, Halliwell, Bolton",BL1 3RG,1204523813,http://www.halliwellsurgery.co.uk,Bolton,E0800001,-2.431738,53.588322
The Range Medical Centre,Doctors/GPs|Doctors/GPs,"121 Withington Road, Whalley Range, Manchester",M16 8EE,8444996977,http://www.therangemedicalcentre.co.uk,Manchester,E0800003,-2.257066,53.452309
Dr JD Seabrook and Dr H L Chambers,Doctors/GPs|Doctors/GPs,"The Surgery, 1 Wrightington Street, Wigan",WN1 2AZ,1942231965,http://www.wrightingtonstreetsurgery.co.uk,Wigan,E08000010,-2.632499,53.55143
Dr Cunningham and Partners,Doctors/GPs|Doctors/GPs,"The Vallance Centre, Brunswick Street, Manchester",M13 9UJ,1612729616,NA,Manchester,E0800003,-2.224542,53.469786
"Drs. Liversedge, McCurdie and Wong",Doctors/GPs|Doctors/GPs,"Egerton/Dunscar Health Centre, Darwen Road, Bromley Cross, Bolton",BL7 9RG,1204463232,http://www.bolton.nhs.uk/gp/liversedge,Bolton,E0800001,-2.426383,53.617589
Bowland Medical Practice,Doctors/GPs|Doctors/GPs,"52 Bowland Road, Baguley, Manchester",M23 1JX,1619982014,http://www.bowlandmedicalpractice.co.uk,Manchester,E0800003,-2.285144,53.393146
"Drs Dickie, Pontefract & Saksena Joye",Doctors/GPs|Doctors/GPs,"306 Gorton Road, Stockport",SK5 6RN,1614321235,http://www.familysurgeryreddish.nhs.uk,Stockport,E0800007,-2.157026,53.446056
Churchgate Surgery,Doctors/GPs|Doctors/GPs,"119 Manchester Road, Denton, Manchester",M34 3RA,1613362114,http://www.millgatehealthcare.nhs.uk,Tameside,E0800008,-2.120468,53.456085
Gorse Hill Medical Centre,Doctors/GPs|Doctors/GPs,"879 Chester Road, Stretford, Manchester",M32 0RN,1618642496,http://www.ghmcars.co.uk,Trafford,E0800009,-2.296647,53.455651
Adshall Road Medical Practice,Doctors/GPs|Doctors/GPs,"97 Adshall Road, Cheadle",SK8 2JN,1614912292,http://www.adshallroadmedicalpractice.co.uk,Stockport,E0800007,-2.191072,53.390044
Pemberton Surgery,Doctors/GPs|Doctors/GPs,"Pemberton Pcrc, Sherwood Drive, Pemberton, Wigan",WN5 9QX,1942367199,http://www.pembertonsurgery.co.uk,Wigan,E08000010,-2.669697,53.538479
Heaton Norris Health Centre 1,Doctors/GPs|Doctors/GPs,"Heaton Norris Health Centre, Cheviot Close, Heaton Norris, Stockport",SK4 1JX,1614751600,http://www.drmarshallandpartners.co.uk,Stockport,E0800007,-2.16793,53.416532
West End Medical Centre,Doctors/GPs|Doctors/GPs,"98-102 Stockport Road, Ashton Under Lyne",OL7 0LH,1613395488,http://www.westendmedicalcentre.co.uk,Tameside,E0800008,-2.107504,53.480771
Kapur Family Care,Doctors/GPs|Doctors/GPs,"Werneth Primary Care Centre, Featherstall Road South, Oldham",OL9 7AY,1614841414,http://www.kapurfamilycare.nhs.uk,Oldham,E0800004,-2.130476,53.537321
Irlam Medical Practice 2,Doctors/GPs|Doctors/GPs,"Irlam Medical Centre, Macdonald Road, Irlam, Manchester",M44 5LH,1617752760,NA,Salford,E0800006,-2.432258,53.437925
Heaton Norris Health Centre 2,Doctors/GPs|Doctors/GPs,"Heaton Norris Health Centre, Cheviot Close, Heaton Norris, Stockport",SK4 1JX,1614802366,http://www.DrSen-HeatonNorris.nhs.uk,Stockport,E0800007,-2.16793,53.416532
"Dr Rubina Shahmalak, Dr Asif Javid and Dr Pirzada Anwer",Doctors/GPs|Doctors/GPs,"357-359 Dickenson Road, Longsight, Manchester",M13 0WQ,161225537,NA,Manchester,E0800003,-2.200961,53.455985
Dr Abid Hamid,Doctors/GPs|Doctors/GPs,"2nd Floor Nye Bevan House, Maclure Road, Rochdale",OL11 1DN,1706261888,http://www.drhamidspractice.co.uk,Rochdale,E0800005,-2.154239,53.611617
Parkside Medical Centre,Doctors/GPs|Doctors/GPs,"187 Northmoor Road, Longsight, Manchester",M12 5RU,1612573338,NA,Manchester,E0800003,-2.190843,53.453189
Pike View Medical Centre,Doctors/GPs|Doctors/GPs,"Albert Street, Horwich, Bolton",BL6 7AN,8443879793,NA,Bolton,E0800001,-2.550853,53.602151
Benchill Medical Practice,Doctors/GPs|Doctors/GPs,"171 Brownley Road, Manchester",M22 9UH,1614939101,http://www.benchillmedicalpractice.co.uk,Manchester,E0800003,-2.255632,53.386597
Hopwood House Medical Practice,Doctors/GPs|Doctors/GPs,"Hopwood House, The Vineyard, Lees Road, Oldham",OL4 1JN,1616283628,http://www.hopwood-house-medical-practice.co.uk,Oldham,E0800004,-2.095467,53.542109
Blackfriars Medical Practice,Doctors/GPs|Doctors/GPs,"Fresh Towers, 138 Chapel Street, Salford, Manchester",M3 6AF,1618194790,http://www.blackfriarsmedicalpractice.co.uk,Salford,E0800006,-2.254244,53.484135
Cornbrook Medical Practice,Doctors/GPs|Doctors/GPs,"204 City Road, Hulme, Manchester",M15 4EA,1612279785,http://www.boundarymedicalpractice.co.uk,Manchester,E0800003,-2.259873,53.468141
Dr D T Brazier & Dr D York,Doctors/GPs|Doctors/GPs,"22 Winton Street, Littleborough",OL15 8AR,1706378476,NA,Rochdale,E0800005,-2.0994,53.642442
Little Lever Health Centre 1,Doctors/GPs|Doctors/GPs,"Mytham Road, Little Lever, Bolton",BL3 1JF,1204462640,NA,Bolton,E0800001,-2.370624,53.559818
The Alexandra Practice,Doctors/GPs|Doctors/GPs,"365 Wilbraham Road, Manchester",M16 8NG,1618604400,NA,Manchester,E0800003,-2.255745,53.443126
Dr Counsell and Partners,Doctors/GPs|Doctors/GPs,"The Pikes Lane Centre, Deane Road, Bolton",BL3 5HP,1204463636,http://www.drgreenhalghandpartners.co.uk,Bolton,E0800001,-2.446348,53.572728
The Alastair Ross Medical Practice,Doctors/GPs|Doctors/GPs,"Breightmet Health Centre,, Breightmet Fold Lane, Breightmet,, Bolton",BL2 6NT,1204463800,NA,Bolton,E0800001,-2.384279,53.582354
Tottington Medical Practice,Doctors/GPs|Doctors/GPs,"16 Market Street, Tottington, Bury",BL8 4AD,1204885106,http://www.tottingtonmp.nhs.uk,Bury,E0800002,-2.341432,53.614725
Heady Hill Surgery,Doctors/GPs|Doctors/GPs,"114 Bury New Road, Heywood",OL10 4RG,1706622600,NA,Rochdale,E0800005,-2.241622,53.593657
Lostock Medical Centre,Doctors/GPs|Doctors/GPs,"431 Barton Road, Stretford, Manchester",M32 9PA,1618651100,NA,Trafford,E0800009,-2.328128,53.45458
Heaton Medical Centre,Doctors/GPs|Doctors/GPs,"2 Lucy Street, Bolton",BL1 5PU,1204843677,http://www.boltongp.co.uk,Bolton,E0800001,-2.46832,53.587976
North Trafford Group Practice,Doctors/GPs|Doctors/GPs,"864 866 Chester Road, Stretford, Manchester",M32 0PA,1618655556,http://www.chesterroadsurgery.co.uk,Trafford,E0800009,-2.299481,53.453882
The Olive Family Practice Ltd,Doctors/GPs|Doctors/GPs,"The Pikes Lane Centre, Deane Road, Bolton",BL3 5HP,1204462299,http://www.theolivefamilypractice.nhs.uk,Bolton,E0800001,-2.446348,53.572728
Dr Karim & Dr James-Authe,Doctors/GPs|Doctors/GPs,"46 Wyresdale Road, Bolton",BL1 4DN,1204494133,http://www.ehealthservice.co.uk/bolton/singh,Bolton,E0800001,-2.452196,53.581577
Dr Esa Surgery Limited,Doctors/GPs|Doctors/GPs,"Leigh Health Centre, The Avenue, Leigh",WN7 1HR,1942483488,http://www.grasmeresurgery.co.uk,Wigan,E08000010,-2.511455,53.503236
The Doc's Surgery,Doctors/GPs|Doctors/GPs,"55-59 Bloom Street, Manchester",M1 3LY,1612379490,http://www.thedocsmanchester.co.uk,Manchester,E0800003,-2.238064,53.476932
Dr Robert Mathewson,Doctors/GPs|Doctors/GPs,"The Village Green, High Lane, Stockport",SK6 8DR,1663762222,NA,Stockport,E0800007,-2.075293,53.364978
Hill Top Surgery,Doctors/GPs|Doctors/GPs,"Fitton Hill Neighbourhood Centre, Fircroft Road, Oldham",OL8 2QD,1616222760,http://www.hilltopsurgery.org,Oldham,E0800004,-2.100756,53.52011
The Poplars Medical Centre,Doctors/GPs|Doctors/GPs,"202 Partington Lane, Swinton, Manchester",M27 0NA,1617946237,http://www.thepoplersmedicalcentre.co.uk,Salford,E0800006,-2.34171,53.510603
Little Hulton Health Centre,Community services - Healthcare|Doctors/GPs|Doctors/GPs|Long-term conditions|Urgent care centres,"Haysbrook Avenue, Worsley, Manchester",M28 0AY,NA,http://www.srht.nhs.uk,Salford,E0800006,-2.423902,53.529872
Pendleton House,Community services - Healthcare|Doctors/GPs|Doctors/GPs|Mobile doctors|Urgent care centres,"Back of Pendleton House, off Broughton Road, Salford",M6 6LS,NA,http://www.srht.nhs.uk,Salford,E0800006,-2.283855,53.493074
Sandringham House,Community services - Healthcare|Doctors/GPs|Diagnosis/screening|Hospice|Long-term conditions|Mobile doctors,"Castle Courts, Windsor Street, Salford",M5 4DG,NA,http://www.srht.nhs.uk,Salford,E0800006,-2.279832,53.47952
Stepping Hill Hospital,Hospital|Community services - Healthcare|Homecare agencies|Doctors/GPs|Doctors/GPs|Rehabilitation (illness/injury),"Poplar Grove, Stockport",SK2 7JE,1614831010,http://www.stockport.nhs.uk,Stockport,E0800007,-2.13202,53.383778
Bridgewater CHCFT Leigh Walk In Centre,Community services - Healthcare|Doctors/GPs|Dentist|Doctors/GPs|Urgent care centres,"Leigh Health Centre, The Avenue, Leigh",WN7 1HR,1942483453,NA,Wigan,E08000010,-2.511455,53.503236
Bridgewater CHCFT Bevan House,Community services - Healthcare|Doctors/GPs|Dentist|Doctors/GPs|Community services - Learning disabilities|Rehabilitation (illness/injury),"17 Beecham Court, Pemberton Business Park, Smithy Brook Road, Wigan",WN3 6PR,1942482630,NA,Wigan,E08000010,-2.658337,53.528915
Bridgewater CHCFT Barton Moss Secure Home,Community services - Healthcare|Doctors/GPs|Doctors/GPs,"Barton Moss Road, Chat Moss, Eccles",M30 7RL,NA,NA,Salford,E0800006,-2.39687,53.468834
