name,type,address,postcode,telephone,website,area_name,area_code,lon,lat
The Foothills,Residential homes,"9 The Foothills, Rochdale",OL16 2AY,7976848608,NA,Rochdale,E0800005,-2.142585,53.624754
Neville House Residential Home,Residential homes,"Neville Street, Chadderton, Oldham",OL9 6LD,1616275874,NA,Oldham,E0800004,-2.13315,53.543922
Higher Tunshill Farm,Residential homes,"Tunshill Lane, Milnrow, Rochdale",OL16 3TS,1706843777,http://www.nestlingscare.com,Rochdale,E0800005,-2.085094,53.614301
House Martins Care Limited Number Two,Residential homes,"2 Rivington Road, Salford",M6 8GQ,1617368057,http://www.housemartinscare.co.uk,Salford,E0800006,-2.311377,53.492934
House Martins Care Limited Number One,Residential homes,"1 Sumner Road, Salford",M6 7QH,1706602404,NA,Salford,E0800006,-2.308515,53.497364
The Grange,Residential homes,"154 Reddish Road, Stockport",SK5 7HZ,1614760702,NA,Stockport,E0800007,-2.153808,53.42651
Bourne House,Residential homes,"12 Taunton Road, Ashton Under Lyne",OL7 9DR,1613307911,NA,Tameside,E0800008,-2.10288,53.493934
Claremont Lodge,Residential homes,"66 Claremont Road, Salford",M6 7GP,1617370864,NA,Salford,E0800006,-2.309772,53.498097
Cherryfield House,Residential homes,"Petersburg Road, Edgeley, Stockport",SK3 9QZ,1614741787,http://www.swanvale.com,Stockport,E0800007,-2.171714,53.396033
Anbridge Care Home,Residential homes,"1 Herbert Street, Oldham",OL4 2QU,1616652232,http://www.anbridgecarehome.co.uk,Oldham,E0800004,-2.083596,53.552391
Thicketford Place,Residential homes,"132 Thicketford Road, Bolton",BL2 2LU,1204392043,NA,Bolton,E0800001,-2.407275,53.58937
The White House,Residential homes,"84 Wythenshawe Road, Northenden, Manchester",M23 0DF,1619987632,NA,Manchester,E0800003,-2.271165,53.408153
Sunnyside Residential Home,Residential homes,"Adelaide Street, Bolton",BL3 3NY,1204653694,http://www.sunnysideresidentialhome.com,Bolton,E0800001,-2.445532,53.564039
Bickham House,Residential homes,"Green Walk, Bowdon, Altrincham",WA14 2SN,1619282514,NA,Trafford,E0800009,-2.371445,53.381196
Lyngate Care Home,Residential homes,"236 Wigan Road, Bolton",BL3 5QE,120462150,NA,Bolton,E0800001,-2.460819,53.568942
Park House Residential Care Home,Residential homes,"77 Queens Road, Oldham",OL8 2BA,1616260802,NA,Oldham,E0800004,-2.100384,53.534689
Charnley House,Residential homes,"Albert Road, Hyde",SK14 1DH,1613684664,http://www.charnleyhouse.co.uk,Tameside,E0800008,-2.082667,53.447452
Cheddle Lodge,Residential homes|Supported living,"29 Ashfield Road, Cheadle, Stockport",SK8 1BB,1614285189,http://www.stockportcp.co.uk,Stockport,E0800007,-2.21303,53.39406
Polebank Hall Residential Care Home,Residential homes,"Stockport Road, Gee Cross, Hyde",SK14 5EZ,1613682171,http://www.polebankhall.co.uk,Tameside,E0800008,-2.081409,53.435633
Order of The Sisters of St Joseph of The Apparition,Nursing homes,"Lady of the Vale Nursing Home, Grange Road, Bowdon, Altrincham",WA14 3HA,1619282567,http://www.ladyofthevale.co.uk,Trafford,E0800009,-2.35257,53.371033
Lime Tree House,Residential homes,"264 Washway Road, Sale",M33 4RZ,1619737956,http://www.limetreehouse.org.uk,Trafford,E0800009,-2.335899,53.416537
The Lakes Care Centre,Nursing homes,"Off Boyds Walk, Dukinfield",SK16 4TX,1613302444,http://www.lakescare.co.uk,Tameside,E0800008,-2.089028,53.472768
Headonhey,Residential homes,"34 Harboro Road, Sale",M33 5AH,1619693527,http://www.stockdales.org.uk,Trafford,E0800009,-2.337812,53.422473
Hayling Road,Residential homes,"34 Hayling Road, Sale",M33 6GW,1619734306,http://www.stockdales.org.uk,Trafford,E0800009,-2.341116,53.425394
Ashton Lane,Residential homes,"47 Ashton Lane, Sale",M33 5PA,1619620978,http://www.stockdales.org.uk,Trafford,E0800009,-2.332693,53.425957
Park Hills Nursing Home,Nursing homes|Homecare agencies,"199 Chamber Road, Coppice, Oldham",OL8 4DJ,1616246671,NA,Oldham,E0800004,-2.125681,53.528275
Abbey Grove Residential Home,Residential homes,"2-4 Abbey Grove, Eccles, Manchester",M30 9QN,1617890425,NA,Salford,E0800006,-2.341489,53.486955
Hope Manor Residential Home,Residential homes,"220 Eccles Old Road, Salford",M6 8AL,1617887121,NA,Salford,E0800006,-2.318633,53.489778
Lynmere Nursing Home,Nursing homes,"278 Buxton Road, Great Moor, Stockport",SK2 7AN,1614562634,NA,Stockport,E0800007,-2.139765,53.389279
The Old Vicarage,Residential homes,"Ivy Bank Road, Bolton",BL1 7EQ,1204594736,http://www.macdonaldcare.co.uk,Bolton,E0800001,-2.433837,53.605959
The Broughtons,Residential homes,"2 Moss Street, Salford",M7 1NF,1617089033,http://www.wellbeingresidential.co.uk,Salford,E0800006,-2.261017,53.497522
Pearce Lodge Care Home,Residential homes,"9 Dorchester Road, Hazel Grove, Stockport",SK7 5HE,1614835442,http://www.togethertrust.org.uk,Stockport,E0800007,-2.140071,53.372578
Abbey Hey Care Home,Residential homes,"Delamere Street, Oldham",OL8 2BY,1616244115,NA,Oldham,E0800004,-2.097844,53.532705
Victoria Nursing Home,Nursing homes,"9 Anson Road, Victoria Park, Manchester",M14 5BY,1612240302,NA,Manchester,E0800003,-2.218728,53.458264
Abbeywood Tottington Limited,Residential homes,"104 Market Street, Tottington, Bury",BL8 3LS,1204882370,http://www.abbeywood-bury.co.uk,Bury,E0800002,-2.339272,53.611199
Barley Brook,Residential homes,"Elmfield Road, Wigan",WN1 2RG,1942497114,NA,Wigan,E08000010,-2.639103,53.56894
Chaffinch Residential Care Home,Residential homes,"36 Chaffinch Drive, Bury",BL9 6JU,1617634579,NA,Bury,E0800002,-2.271451,53.601521
Maybank House,Residential homes,"588 Altrincham Road, Brooklands, Manchester",M23 9JH,1619986566,NA,Manchester,E0800003,-2.304253,53.400982
Abafields Residential Home,Residential homes,"3-9 Bromwich Street, Bolton",BL2 1JF,1204399414,NA,Bolton,E0800001,-2.41735,53.57543
Ashley House Residential Home,Residential homes,"155 Barlow Moor Road, Manchester",M20 2YA,1614453776,NA,Manchester,E0800003,-2.252229,53.423853
Little Heaton Care Home,Residential homes,"81 Walker Street, Middleton, Manchester",M24 4QF,1616554223,NA,Rochdale,E0800005,-2.228462,53.543366
Drakelow House Residential Home,Residential homes,"64 Parsonage Road, Heaton Moor, Stockport",SK4 4JR,1614324033,NA,Stockport,E0800007,-2.181216,53.420297
Wyncourt Nursing Home,Nursing homes,"162 Park Road, Timperley, Altrincham",WA15 6QH,1619621290,http://www.wyncourtnursinghome.co.uk,Trafford,E0800009,-2.331149,53.401593
Fairleigh House,Residential homes,"34 Wellington Road, Whalley Range, Manchester",M16 8EX,1612264550,http://www.citycarepartnership.co.uk,Manchester,E0800003,-2.25576,53.450586
Rivington View Nursing Home,Nursing homes,"Rivington View, Albert Street, Horwich, Bolton",BL6 7AW,1204694325,http://www.rivingtonview.com,Bolton,E0800001,-2.547552,53.601681
"Woodlands Atherton, Dementia Care Home and Services",Residential homes|Homecare agencies,"22 Woodlands Drive, Atherton, Manchester",M46 9HH,1942875054,http://www.woodlandscaregrp.com,Bolton,E0800001,-2.474272,53.533799
Heathside Retirement Home,Residential homes,"74 Barrington Road, Altrincham",WA14 1JB,1619413622,NA,Trafford,E0800009,-2.35098,53.395191
Leighton House Retirement Home Limited,Residential homes,"170-172 Milkstone Road, Deeplish, Rochdale",OL11 1NA,1706352075,NA,Rochdale,E0800005,-2.151044,53.605751
FieldHouse Care Home Limited,Residential homes|Rehabilitation (illness/injury),"Spinners Green, Fieldhouse, Rochdale",OL12 6EJ,1706632555,NA,Rochdale,E0800005,-2.157272,53.630569
Elizabeth House,Residential homes,"35 Queens Road, Oldham",OL8 2AX,1616266435,NA,Oldham,E0800004,-2.105335,53.535656
Marland Court,Residential homes,"Marland Old Road, Rochdale",OL11 4QY,1706638449,NA,Rochdale,E0800005,-2.183827,53.603
Epworth Grange,Residential homes,"1 Chirmside Street, Bury",BL8 2BX,1617617500,http://www.mha.org.uk/ch16.aspx,Bury,E0800002,-2.321932,53.586924
Avonleigh Gardens,Residential homes,"Clyde Street, Oldham",OL1 4HT,1616275722,http://www.mha.org.uk/ch17.aspx,Oldham,E0800004,-2.086676,53.553018
Beechville,Residential homes,"653 Chorley New Road, Lostock, Bolton",BL6 4AG,1204467480,http://www.mha.org.uk/ch13.aspx,Bolton,E0800001,-2.508474,53.580308
Handsworth,Residential homes,"West Road, Bowdon, Altrincham",WA14 2LA,1619285314,http://www.mha.org.uk/ch15.aspx,Trafford,E0800009,-2.360602,53.377131
Walshaw Hall,Residential homes,"Bradshaw Road, Tottington, Bury",BL8 3PJ,1204884005,http://www.walshawhall.co.uk,Bury,E0800002,-2.348228,53.604737
Church Walk,Nursing homes,"Cavendish Road, Kirkholt, Rochdale",OL11 2QX,1706717400,NA,Rochdale,E0800005,-2.162341,53.595885
Passmonds House,Residential homes,"Edenfield Road, Rochdale",OL11 5AG,1706644483,NA,Rochdale,E0800005,-2.186224,53.622402
Laurel Bank Residential Care Home,Residential homes,"21 Knott Lane, Gee Cross, Hyde",SK14 5HZ,1613684719,NA,Tameside,E0800008,-2.074159,53.438245
Primrose Villa Care Home,Residential homes,"258-260 Preston Road, Standish, Wigan",WN6 0NY,1257421737,http://www.primrosevilla.co.uk,Wigan,E08000010,-2.672341,53.593872
SignHealth Bowfell Road,Residential homes,"SignHealth, 100 Bowfell Road, Urmston, Manchester",M41 5RR,1617478156,http://www.signhealth.org.uk,Trafford,E0800009,-2.370201,53.451021
SignHealth Claridge Road,Residential homes,"SignHealth, 1 Claridge Road, Manchester",M21 9WQ,1618604365,http://www.signhealth.org.uk,Manchester,E0800003,-2.281,53.446476
Seymour Care Home,Residential homes,"327 North Road, Clayton, Manchester",M11 4NY,1612208688,http://www.theseymourhome.co.uk,Manchester,E0800003,-2.170873,53.486207
Thames House,Nursing homes,"Thames Street, Rochdale",OL16 5NY,1706751840,NA,Rochdale,E0800005,-2.14155,53.609394
Rosemount Care Home,Residential homes,"133 Cheadle Old Road, Edgeley, Stockport",SK3 9RH,1614771572,http://www.rosemountcare.co.uk,Stockport,E0800007,-2.17849,53.398027
Bange Nursing Homes Limited t/a Bradley House Nursing Home,Nursing homes,"2 Brooklands Crescent, Sale",M33 3NB,1619732580,http://www.bangenursinghomes.com,Trafford,E0800009,-2.322919,53.417047
Royal College Manchester,Residential homes|Education disability services,"Stanley Road, Cheadle Hulme, Cheadle",SK8 6RQ,1616100100,http://www.seashelltrust.org.uk,Stockport,E0800007,-2.213788,53.3593
Royley House Care Home,Residential homes,"Lea View, Royton, Oldham",OL2 5ED,1616334848,NA,Oldham,E0800004,-2.134841,53.56233
Strathmore Nursing Home,Nursing homes|Residential homes,"51 Seymour Road, Bolton",BL1 8PT,1204309795,NA,Bolton,E0800001,-2.429165,53.598263
Dom Polski Residential Care Home,Residential homes,"18 Carlton Road, Whalley Range, Manchester",M16 8BB,1612261836,http://www.societyofchrist.co.uk,Manchester,E0800003,-2.260346,53.454397
The Vicarage Residential Care Home,Residential homes,"109 Audenshaw Road, Audenshaw, Manchester",M34 5NL,1613014766,NA,Tameside,E0800008,-2.123259,53.473412
Clarkson House Residential Care Home,Residential homes,"56 Currier Lane, Ashton Under Lyne",OL6 6TB,1613084618,NA,Tameside,E0800008,-2.085319,53.486038
Cherrytrees Care Home,Nursing homes,"Mandley Park Avenue, Salford",M7 4BZ,1617926883,NA,Salford,E0800006,-2.251216,53.509704
Care at Parkside,Residential homes,"6-8 Edward Street, Oldham",OL9 7QW,1616246113,NA,Oldham,E0800004,-2.132345,53.536546
Royal Mencap Society - 62 Wright Street,Residential homes,"Horwich, Bolton",BL6 7HY,1204694286,http://www.mencap.org.uk,Bolton,E0800001,-2.549385,53.600792
Rushes House Care Home,Residential homes,"2 St. Martins Road, Marple",SK6 7BY,1614277332,NA,Stockport,E0800007,-2.058175,53.396879
Laburnum House Shaw Limited,Residential homes,"Laburnum Avenue, Shaw, Oldham",OL2 8RS,1706847846,NA,Oldham,E0800004,-2.097288,53.573744
Bamford Close,Residential homes,"Adswood Lane West, Cale Green, Stockport",SK3 8HT,1614806712,http://www.boroughcare.org.uk,Stockport,E0800007,-2.157415,53.396592
Bryn Haven,Residential homes,"Brinnington Road, Stockport",SK5 8BS,1614302337,http://www.boroughcare.org.uk,Stockport,E0800007,-2.132367,53.427651
Bruce Lodge,Residential homes,"Turncroft Lane, Offerton, Stockport",SK1 4AU,1614298797,http://www.boroughcare.org.uk,Stockport,E0800007,-2.141141,53.40978
Cawood House,Residential homes,"Lapwing Lane, Brinnington, Stockport",SK5 8JY,1614305441,http://www.boroughcare.org.uk,Stockport,E0800007,-2.136509,53.433891
Lisburne Court,Residential homes,"Alfreton Road, Offerton, Stockport",SK2 5LU,1614830671,http://www.boroughcare.org.uk,Stockport,E0800007,-2.124173,53.394591
Marbury House,Residential homes,"Marbury Road, Heaton Chapel, Stockport",SK4 5NU,1614322825,http://www.boroughcare.org.uk,Stockport,E0800007,-2.170733,53.436312
Meadway Court,Residential homes,"Bramhall, Stockport",SK7 1JZ,1614408150,http://www.boroughcare.org.uk,Stockport,E0800007,-2.161901,53.354447
Reinbek,Residential homes,"287 Bramhall Lane, Davenport, Stockport",SK3 8TB,1614835252,http://www.boroughcare.org.uk,Stockport,E0800007,-2.152587,53.388023
Shepley House,Residential homes,"Eyam Road, Hazel grove, Stockport",SK7 6HP,1614871304,http://www.boroughcare.org.uk,Stockport,E0800007,-2.11671,53.37076
Silverdale,Residential homes,"20 Bents Avenue, Bredbury, Stockport",SK6 2LF,NA,http://www.boroughcare.org.uk,Stockport,E0800007,-2.106756,53.417304
Wellcroft,Residential homes,"75 Church Road, Gatley, Stockport",SK8 4EY,1614285361,http://www.boroughcare.org.uk,Stockport,E0800007,-2.239836,53.390423
Moorfield House,Residential homes,"132 Liverpool Road, Irlam, Manchester",M44 6FF,1617753348,http://www.moorfield-house.co.uk,Salford,E0800006,-2.413693,53.451384
Jah-Jireh Charity Homes Wigan,Nursing homes,"141 Springfield Road, Beech Hill, Wigan",WN6 7RH,1942243533,http://www.jah-jireh.org,Wigan,E08000010,-2.650412,53.557155
Firbank Nursing Home,Nursing homes,"81 Fir Road, Bramhall, Stockport",SK7 2JF,1614408725,NA,Stockport,E0800007,-2.160313,53.367456
Cale Green Nursing Home,Nursing homes,"Adswood Lane West, Cale Green, Stockport",SK3 8HZ,1614771980,NA,Stockport,E0800007,-2.158737,53.396383
Brookfield Residential Care Home Limited,Residential homes,"St Anns Road, Prestwich, Manchester",M25 9QE,1617731165,NA,Bury,E0800002,-2.286378,53.527485
Abbeydale Residential Care Home - Bury,Residential homes,"179 Bolton Road, Bury",BL8 2NR,1617615613,http://www.abbeydalecarehome.com,Bury,E0800002,-2.315748,53.590204
Outreach Community & Residential Services - 86 Meade Hill Road,Residential homes,"Prestwich, Manchester",M8 4LP,1617403256,http://www.outreach.co.uk,Bury,E0800002,-2.250482,53.525858
Highbury Court Flats,Residential homes,"443 Bury Old Road, Manchester",M25 1QP,1617730776,http://www.outreach.co.uk,Bury,E0800002,-2.273555,53.536674
Outreach Community & Residential Services - 118 Kings Road,Residential homes,"Prestwich, Manchester",M25 0FY,1617732432,http://www.outreach.co.uk,Bury,E0800002,-2.264622,53.519634
Outreach Community & Residential Services - 17 York Avenue,Residential homes,"Prestwich, Manchester",M25 0FZ,1617735053,http://www.outreach.co.uk,Bury,E0800002,-2.264152,53.519168
Fernica (Residential Care Home),Residential homes,"18-20 Kings Road, Prestwich, Manchester",M25 0LE,1617736603,NA,Bury,E0800002,-2.270288,53.518831
Chataway Nursing Home,Nursing homes,"19-21 Chataway Road, Crumpsall, Manchester",M8 5UU,1612055546,NA,Manchester,E0800003,-2.226253,53.511003
Alexandra - Oldham,Nursing homes,"71-75 Queens Road, Oldham",OL8 2BA,1616272970,NA,Oldham,E0800004,-2.100384,53.534689
Ashbourne House - Stockport,Residential homes,"147-149 Gatley Road, Gatley, Cheadle",SK8 4PD,1614911201,NA,Stockport,E0800007,-2.228761,53.391595
Oakwood Acquired Brain Injury Rehabilitation Service,Residential homes|Rehabilitation (illness/injury),"Radford Close, Offerton, Stockport",SK2 5DL,1614199139,http://www.leonardcheshire.org,Stockport,E0800007,-2.121105,53.399681
Shawe House,Nursing homes,"Pennybridge Lane, Flixton, Manchester",M41 5DX,1617487867,NA,Trafford,E0800009,-2.373763,53.446768
The Brandles,Residential homes,"23-25 Birks Drive, Bury",BL8 1JA,1617976367,NA,Bury,E0800002,-2.319719,53.609815
Parkview Residential Home,Residential homes,"54 Chorley New Road, Bolton",BL1 4AP,1204363105,NA,Bolton,E0800001,-2.44329,53.582159
Hazelbrook Christian Nursing Home,Nursing homes,"1 Albert Street, Horwich, Bolton",BL6 7AW,1204693175,NA,Bolton,E0800001,-2.547552,53.601681
The Ferns,Residential homes,"175 Walmersley Road, Bury",BL9 5DF,1617616694,http://www.parkviewbury.com,Bury,E0800002,-2.292261,53.604051
The Elms,Residential homes,"230 Walmersley Road, Bury",BL9 6NH,1617633855,http://www.parkviewbury.com,Bury,E0800002,-2.291945,53.606344
The Coppice,Residential homes,"51 Wellington Road, Altrincham",WA15 7RQ,1619294178,http://www.efitzroy.org.uk,Trafford,E0800009,-2.336017,53.39518
Chadderton Total Care Unit Limited,Nursing homes,"Middlewood Court, Chadderton, Oldham",OL9 9SR,1616270027,http://www.total-care.org.uk,Oldham,E0800004,-2.1505,53.546411
Stoneswood Residential Home,Residential homes|Homecare agencies,"Oldham Road, Delph, Oldham",OL3 5EB,1457874300,NA,Oldham,E0800004,-2.024568,53.562394
The Heathlands Village,Nursing homes,"Heathlands Drive, Prestwich, Manchester",M25 9SB,1617724800,http://www.heathlandsvillage.com,Bury,E0800002,-2.281199,53.517637
Brookvale - Prestwich,Residential homes,"Simister Lane, Prestwich, Manchester",M25 2SF,1616531767,NA,Bury,E0800002,-2.245484,53.551018
Prema Court,Nursing homes,"Clifton Court, Ayres Road, Manchester",M16 7NX,1612267698,http://www.deepdenecare.org,Trafford,E0800009,-2.258786,53.460422
Norton Street,Residential homes,"28 Norton Street, Old Trafford, Manchester",M16 7GQ,1612262979,http://www.deepdenecare.org,Trafford,E0800009,-2.263454,53.457733
Heartly Green,Residential homes,"Cutnook Lane, Irlam, Salford",M44 6JX,1617777e3,http://www.c-i-c.co.uk,Salford,E0800006,-2.414711,53.452342
Pemberton Fold,Residential homes,"Pemberton Street, Little Hulton, Salford",M38 9LR,1617025100,http://www.c-i-c.co.uk,Salford,E0800006,-2.413521,53.52811
The Dell,Residential homes,"55 Sibley Street, Gorton, Manchester",M18 8LN,1612234709,http://www.c-i-c.co.uk,Manchester,E0800003,-2.17369,53.463965
The Peele,Nursing homes,"15a Walney Road, Benchill, Wythenshawe, Manchester",M22 9TP,1614908057,http://www.c-i-c.co.uk,Manchester,E0800003,-2.259671,53.385779
Gorsey Clough Nursing Home,Nursing homes,"Harwood Road, Tottington, Bury",BL8 3PT,1204882976,http://www.gorseyclough.co.uk,Bury,E0800002,-2.355831,53.610618
Oakland House Nursing Home,Nursing homes,"290-292 Dickenson Road, Longsight, Manchester",M13 0YL,1612572395,NA,Manchester,E0800003,-2.208542,53.454175
Beechill Nursing Home,Nursing homes|Rehabilitation (substance abuse),"25 Smedley Lane, Cheetham Hill, Manchester",M8 8XB,1612050069,http://www.beechillnursinghome.co.uk,Manchester,E0800003,-2.232127,53.504250999999996
Mona Cliffe Care Home,Residential homes,"Black Stone edge Old Road, Littleborough",OL15 0JG,1706372566,NA,Rochdale,E0800005,-2.082272,53.647854
Oak Lodge Care Home,Nursing homes,"514 Bury New Road, Prestwich, Manchester",M25 3AN,1617980005,http://www.oak-lodge.com,Bury,E0800002,-2.286476,53.535233
Staley House Care Home,Residential homes,"Huddersfield Road, Stalybridge",SK15 2PT,1613048939,http://www.staleyhouse.co.uk,Tameside,E0800008,-2.046286,53.484945
Somerset House,Nursing homes,"17 Somerset Road, Heaton, Bolton",BL1 4NE,1204493126,http://www.perpetualcare.co.uk,Bolton,E0800001,-2.457737,53.58134
Hartington House,Nursing homes,"14 Hartington Road, Heaton, Bolton",BL1 4DP,1204493126,http://www.perpetualcare.co.uk,Bolton,E0800001,-2.451729,53.581687
Bowerfield House,Nursing homes,"1 Broadwood Close, Disley, Stockport",SK12 2NJ,1663764291,NA,Stockport,E0800007,-2.063885,53.363151
St James House,Residential homes,"Danes Road, Manchester",M14 5LB,1612256999,http://www.standwalk.com,Manchester,E0800003,-2.216052,53.450314
Ambleside Bank Care Home,Residential homes,"High Street (Off Ince Green Lane), Lower Ince, Wigan",WN3 4RL,1942321112,http://www.centuryhealthcare.co.uk,Wigan,E08000010,-2.614866,53.538695
Beverley Park Nursing Home,Nursing homes,"22 Sandy Lane, Stretford, Manchester",M32 9DA,1618651883,NA,Trafford,E0800009,-2.319437,53.44433
Hyde Lea,Residential homes,"49 Sharples Park, Astley Bridge, Bolton",BL1 6PG,1204419883,NA,Bolton,E0800001,-2.439786,53.601029
Withins (Breightmet) Limited,Residential homes|Homecare agencies,"38-40 Withins Lane, Breightmet, Bolton",BL2 5DZ,1204362626,http://www.withinsresidentialhome.co.uk,Bolton,E0800001,-2.390392,53.585165
Mellor Nook,Residential homes,"133-135 Moor End Road, Mellor, Stockport",SK6 5NQ,1614274293,http://www.mellornook.co.uk,Stockport,E0800007,-2.008395,53.391723
The Beeches,Residential homes,"Yew Trees Lane, Dukinfield",SK16 5BJ,1613384922,NA,Tameside,E0800008,-2.072271,53.469975
Daisy Nook House,Residential homes,"Bamburgh Drive, Ashton Under Lyne",OL7 9SX,1613431033,NA,Tameside,E0800008,-2.11549,53.497428
Fir Trees,Residential homes,"Gorse Hall Road, Dukinfield",SK16 5HN,1613382977,NA,Tameside,E0800008,-2.067304,53.473043
Greatwood House,Residential homes,"Mancunian Road, Denton, Manchester",M34 7GX,1613365324,NA,Tameside,E0800008,-2.101751,53.444534
Holme Lea,Residential homes,"Astley Road, Stalybridge",SK15 1RA,1613385187,NA,Tameside,E0800008,-2.06841,53.486013
Hurst Hall,Residential homes,"Kings Road, Ashton Under Lyne",OL6 9EG,1613304772,NA,Tameside,E0800008,-2.074841,53.500768
Hyde Nursing Home,Nursing homes,"Grange Road South, Gee Cross, Hyde",SK14 5NB,1613679467,NA,Tameside,E0800008,-2.064099,53.445747
Kingsfield Care Centre,Residential homes,"Union Road, Ashton Under Lyne",OL6 9JF,1613301853,NA,Tameside,E0800008,-2.087835,53.493522
Sandon House,Residential homes,"Market Street, Mossley, Ashton Under Lyne",OL5 0JG,1457834747,NA,Tameside,E0800008,-2.045974,53.516746
Sunnyside,Residential homes,"Sunnyside Road, Droylsden, Manchester",M43 7QE,1613701793,NA,Tameside,E0800008,-2.156297,53.489615
The Sycamores,Residential homes,"Victoria Street, Newton, Hyde",SK14 4DH,1613684297,NA,Tameside,E0800008,-2.063308,53.460632
Yew Trees,Residential homes,"Yew Trees Lane, Dukinfield",SK16 5BJ,1613383053,NA,Tameside,E0800008,-2.072271,53.469975
Westwood Lodge,Nursing homes,"Brookview, Helmsman Way, off Poolstock Lane, Wigan",WN3 5DJ,1942829999,NA,Wigan,E08000010,-2.639472,53.532373
Stamford Court,Nursing homes,"Astley Road, Stalybridge",SK15 1RA,1613039955,NA,Tameside,E0800008,-2.06841,53.486013
The Knoll,Residential homes,"109 Church Road, Urmston, Manchester",M41 9FJ,1617553818,NA,Trafford,E0800009,-2.361556,53.445324
The Fairways,Residential homes,"269 Church Road, Urmston, Manchester",M41 6EP,1617468160,http://www.knollcarepartnership.co.uk/the-fairways,Trafford,E0800009,-2.375405,53.441659
The Old Rectory,Residential homes,"195 Wigan Road, Standish, Wigan",WN6 0AE,1257421635,NA,Wigan,E08000010,-2.643655,53.573401
Norfolk House,Residential homes,"34 Norfolk House, Springfield, Wigan",WN6 7BJ,1942495777,NA,Wigan,E08000010,-2.646175,53.555474
Doves Nest Nursing Home,Nursing homes|Residential homes,"15-19 Windsor Road, Clayton Bridge, Manchester",M40 1QQ,1616817410,http://www.dovesnest.co.uk,Manchester,E0800003,-2.165586,53.494762
Woodlands Court Care Home,Residential homes,"Ash Lane, New Springs, Wigan",WN2 1EZ,1942323352,NA,Wigan,E08000010,-2.59953,53.558557
Richard House Care Home,Residential homes,"69-73 Beech Road, Cale Green, Stockport",SK3 8HD,1614296877,NA,Stockport,E0800007,-2.156521,53.394795
The Willows,Nursing homes,"1 Murray Street, Salford",M7 2DX,1617924809,NA,Salford,E0800006,-2.262665,53.503127
Oakbank Care Home,Nursing homes,"Oakbank, off Rochdale Road, Manchester",M9 5YA,1612058848,NA,Manchester,E0800003,-2.216677,53.51103
Mary & Joseph House,Residential homes|Rehabilitation (illness/injury),"217 Palmerston Street, Ancoats, Manchester",M12 6PT,1612736881,http://www.maryandjosephhouse.co.uk,Manchester,E0800003,-2.209187,53.481274
Alexandra Lodge Care Centre,Nursing homes,"355-357 Wilbraham Road, Chorlton, Manchester",M16 8NP,1618605400,NA,Manchester,E0800003,-2.252735,53.443141
Davenport Manor,Residential homes,"170 Bramhall Lane, Davenport, Stockport",SK3 8SB,1614834598,NA,Stockport,E0800007,-2.153691,53.390044
Turning Point - Birchwood Nursing Home,Nursing homes,"Lees New Road, Oldham",OL4 5PP,1616212750,http://www.turning-point.co.uk,Oldham,E0800004,-2.06648,53.533122
Starmount Villa Residential Care Home,Residential homes,"Browns Road, Bradley Fold, Bolton",BL2 6RG,1204525811,NA,Bury,E0800002,-2.371421,53.57353
Richmond Care,Nursing homes,"9 Plymouth Grove West, Manchester",M13 0AQ,1612734557,NA,Manchester,E0800003,-2.210569,53.462421
Norlands Nursing Home,Nursing homes,"Monsall Road, Newton Heath, Manchester",M40 8NQ,1612059525,NA,Manchester,E0800003,-2.208835,53.505092
Cameron House Care Home,Nursing homes,"Cameron Street, Bury",BL8 2QH,1617648571,http://www.fshc.co.uk,Bury,E0800002,-2.31464,53.593586
Ashgrove House Care Limited,Residential homes,"72 Butterworth Lane, Chadderton, Oldham",OL9 8DX,1616812183,NA,Oldham,E0800004,-2.160475,53.522757
The Cedars Rest Home Limited,Residential homes,"23 Langham Road, Bowdon, Altrincham",WA14 2HX,1619284361,http://www.caringuk.com,Trafford,E0800009,-2.355688,53.375572
Brierfields,Residential homes,"Brierley Avenue, Failsworth, Manchester",M35 9HB,1616815484,NA,Oldham,E0800004,-2.145993,53.508486
Hadfield House,Residential homes,"39-41 Queens Road, Oldham",OL8 2AX,1616200348,NA,Oldham,E0800004,-2.105335,53.535656
Springfields,Residential homes,"Springfield House, 79 Waterworks Road, Oldham",OL4 2JL,1616204794,NA,Oldham,E0800004,-2.072019,53.552129
Stoneleigh House,Residential homes,"Cooper Street, Oldham",OL4 4QS,1616245983,NA,Oldham,E0800004,-2.058944,53.538456
Alfred House Residential Care Home,Residential homes,"29-31 Horne Street, Bury",BL9 9BW,1617642442,NA,Bury,E0800002,-2.296434,53.584869
Kara House Residential Care Home,Residential homes,"29 Harboro Road, Sale",M33 5AN,1619693393,NA,Trafford,E0800009,-2.338593,53.422228
Lynwood Lodge Residential Care Home,Residential homes,"20-22 Broad Road, Sale",M33 2AL,1619737210,http://www.excelsiacare.co.uk,Trafford,E0800009,-2.315949,53.424654
Glenbank Care Home,Residential homes,"803 Chorley Old Road, Bolton",BL1 5SL,1204841349,NA,Bolton,E0800001,-2.476521,53.590237
Holmfield Care,Residential homes,"2 & 4 Darley Avenue, West Didsbury, Manchester",M20 2XF,1614341480,NA,Manchester,E0800003,-2.252268,53.422927
Arbour Court,Nursing homes,"Buxton Lane, Marple, Stockport",SK6 7QL,1614278599,http://www.barchester.com,Stockport,E0800007,-2.07224,53.389968
Marple Dale Hall - The New Windsor,Nursing homes,"Dale Road, Marple, Stockport",SK6 6NL,1614490771,http://www.barchester.com,Stockport,E0800007,-2.077333,53.40414
Lime House,Residential homes,"Newton Road, Lowton, Nr Warrington",WA3 1HF,1942674135,http://www.nugentcare.org,Wigan,E08000010,-2.573488,53.464726
Holt House,Residential homes,"Headlands Drive, Prestwich, Manchester",M25 9YF,1617730220,http://www.salvationarmy.org.uk,Bury,E0800002,-2.286212,53.518497000000004
Beechfield Lodge,Residential homes,"232 Eccles Old Road, Salford",M6 8AG,1617076747,http://www.anchor.org.uk,Salford,E0800006,-2.32157,53.489473
Israel Sieff Court,Residential homes,"7a Bennett Road, Crumpsall, Manchester",M8 5DU,1617408597,http://www.anchor.org.uk,Manchester,E0800003,-2.247628,53.51755
Millfield,Residential homes,"Huddersfield Road, Waterhead, Oldham",OL4 3NN,NA,http://www.anchor.org.uk,Oldham,E0800004,-2.072135,53.549325
Wellington Lodge,Residential homes,"334a Waterloo Road, Cheetham, Manchester",M8 0AX,1617408549,http://www.anchor.org.uk,Manchester,E0800003,-2.242466,53.506289
Yorklea Nursing Home,Nursing homes|Residential homes,"15-17 York Road, Manchester",M21 9HP,1618629338,http://www.yorklea.co.uk,Manchester,E0800003,-2.279733,53.441625
Chestnut House,Residential homes,"69 Crumpsall Lane, Crumpsall, Manchester",M8 5SR,1617214949,NA,Manchester,E0800003,-2.238958,53.517873
St Bonaventures,Residential homes,"62 Kenworthy Lane, Northenden, Manchester",M22 4EJ,1619456265,NA,Manchester,E0800003,-2.259885,53.40852
Southfield House Residential Care Home,Residential homes,"Woodford Road, Woodford, Stockport",SK7 1QF,1614408432,NA,Stockport,E0800007,-2.160157,53.346153
Dryclough Manor,Residential homes,"20 Shaw Road, Royton, Oldham",OL2 6DA,1616267454,http://www.drycloughmanor.co.uk,Oldham,E0800004,-2.118807,53.562015
Springbank Rest Home,Residential homes,"143 Rochdale Road East, Heywood",OL10 1QU,1706365497,NA,Rochdale,E0800005,-2.20377,53.595885
Laburnum Lodge,Residential homes,"Breightmet Fold Lane, Bolton",BL2 6PP,1204337837,http://www.bolton.gov.uk,Bolton,E0800001,-2.382316,53.582459
Wilfred Geere House,Residential homes,"310 Highfield Road, Farnworth, Bolton",BL4 0PG,1204337839,http://www.bolton.gov.uk,Bolton,E0800001,-2.436308,53.547984
Littleborough Home for the Elderly,Residential homes,"Regent Street, Littleborough",OL15 8BH,1706370801,NA,Rochdale,E0800005,-2.098693,53.644096
The Elton Unit - The Priory Highbank Centre,Nursing homes|Rehabilitation (illness/injury),"Walshaw Road, Bury",BL8 3AS,1706829540,http://www.priorygroup.com,Bury,E0800002,-2.33665,53.60264
Grove Lodge Care Home,Residential homes,"62 Buxton Road, Hazel Grove, Stockport",SK7 6AF,1614838654,NA,Stockport,E0800007,-2.108931,53.373473
Marple Lodge Care Home,Residential homes,"19 Arkwright Road, Marple, Stockport",SK6 7DB,1614277248,NA,Stockport,E0800007,-2.057304,53.39777
Ann Challis,Residential homes,"128 Stretford Road, Urmston, Manchester",M41 9LT,1617483597,http://www.jemcareltd.co.uk,Trafford,E0800009,-2.342776,53.446521
Oaklands Rest Home Limited,Residential homes,"Shaw Road, Royton, Oldham",OL2 6DA,1616271142,NA,Oldham,E0800004,-2.118807,53.562015
Newlands Care Home,Nursing homes,"18 Tetlow Lane, Manchester",M7 4BU,1617920993,NA,Salford,E0800006,-2.249905,53.50986
Sunrise of Bramhall,Nursing homes,"1 Dairyground Road, Bramhall, Stockport",SK7 2HW,1614402200,http://www.sunrise-care.co.uk,Stockport,E0800007,-2.158733,53.363036
Woodend Care Home,Nursing homes,"Bradgate Road, Altrincham",WA14 4QU,1619295127,NA,Trafford,E0800009,-2.373015,53.388832
Rookwood Residential Care Home,Residential homes,"219 Walmersley Road, Bury",BL9 5DF,1617617952,NA,Bury,E0800002,-2.292261,53.604051
Abbotsford Nursing Home - Manchester,Nursing homes,"8-10 Carlton Road, Whalley Range, Manchester",M16 8BB,1612268822,NA,Manchester,E0800003,-2.260346,53.454397
Belong Wigan Care Village,Nursing homes,"Millers Lane, Platt Bridge, Wigan",WN2 5DD,1942855600,http://www.belong.org.uk,Wigan,E08000010,-2.599941,53.519311
Heath Cottage,Residential homes,"119 Station Road, Pendlebury, Swinton, Manchester",M27 6BU,1617941658,NA,Salford,E0800006,-2.33531,53.51747
Wellfield House,Residential homes,"38-44 Athol Road, Whalley Range, Manchester",M16 8QN,1618819700,NA,Manchester,E0800003,-2.250573,53.441726
Beckdale House,Residential homes,"3 Beaufort Road, Sale",M33 3WR,1619739393,http://www.milewood.co.uk,Trafford,E0800009,-2.315423,53.416629
Ashwood Court - Unit 1,Residential homes,"Woodford Avenue, Lowton, Warrington",WA3 2RB,1925571680,http://www.makingspace.co.uk,Wigan,E08000010,-2.575777,53.472474
Kingshill,Residential homes,"Kingshill Court, Standish, Wigan",WN6 0AR,1925571680,http://www.makingspace.co.uk,Wigan,E08000010,-2.658085,53.579731
Syrian House,Residential homes,"Sandiway Road, Ashton-on-Mersey, Sale",M33 5AL,1925571680,http://www.makingspace.co.uk,Trafford,E0800009,-2.337394,53.422933
Beyer Lodge Nursing Home,Nursing homes,"65 Taylor Street, Manchester",M18 8DF,1612237785,NA,Manchester,E0800003,-2.180174,53.465466
Heaton Lodge,Residential homes,"320 Wellington Road North, Heaton Chapel, Stockport",SK4 5BT,1614328589,NA,Stockport,E0800007,-2.175112,53.425043
Parkhill Nursing Home,Nursing homes,"319 Huddersfield Road, Millbrook, Stalybridge",SK15 3EP,1613038643,NA,Tameside,E0800008,-2.034279,53.491617
Shawcross Care Home,Nursing homes,"Bolton Road, Ashton in Makerfield, Wigan",WN4 8TU,1942276628,http://www.fshc.co.uk,Wigan,E08000010,-2.625201,53.494544
St Catherine's Care Home,Nursing homes,"5 Queen Street, Horwich, Bolton",BL6 5QU,1204668740,http://www.fshc.co.uk,Bolton,E0800001,-2.552301,53.597318
Fairfield View,Nursing homes,"88 Manchester Road, Audenshaw, Manchester",M34 5GB,1613706719,NA,Tameside,E0800008,-2.146021,53.472802
Ashbourne Nursing Home,Nursing homes,"Ashbourne Street, Norden, Rochdale",OL11 5XF,1706639944,NA,Rochdale,E0800005,-2.210737,53.626406
Amadeus,Residential homes|Rehabilitation (illness/injury),"Hampden Grove, Patricroft, Eccles, Manchester",M30 0QU,1617878638,http://www.russleycarehomes.co.uk,Salford,E0800006,-2.348467,53.48511
Brownlow House,Residential homes,"142 North Road, Clayton, Manchester",M11 4LE,1612317456,http://www.russleycarehomes.co.uk,Manchester,E0800003,-2.170238,53.485758
St Joseph's - Manchester,Nursing homes,"52 Plymouth Grove West, Longsight, Manchester",M13 0AR,1612734147,http://www.littlesistersofthepoor.co.uk,Manchester,E0800003,-2.21328,53.462004
Millview Short Stay Respite,Residential homes,"Westbury Drive, Marple, Stockport",SK6 6FW,1614277697,NA,Stockport,E0800007,-2.071071,53.393149
Firbank House,Nursing homes,"24 Smallshaw Lane, Ashton Under Lyne",OL6 8PN,1613431251,NA,Tameside,E0800008,-2.092276,53.497331
Thorncliffe Grange,Nursing homes,"2 Windmill Lane, Denton, Manchester",M34 3RN,1613200740,NA,Tameside,E0800008,-2.12268,53.455552
Walmersley Road,Residential homes,"267 Walmersley Road, Bury",BL9 6NX,1617612484,http://www.potensial.co.uk,Bury,E0800002,-2.292617,53.607448
High Barn,Residential homes,"39 High Barn Close, Rochdale",OL11 3PW,1706648535,http://www.potensial.co.uk,Rochdale,E0800005,-2.166426,53.60512
Pendleton Care Limited - 384 Lower Broughton Road,Residential homes,"386 Lower Broughton Road, Salford",M7 2HH,1617926046,http://www.potensial.co.uk,Salford,E0800006,-2.268089,53.50305
Park View,Residential homes,"2a Seedley Park Road, Salford",M6 5WR,1617378387,http://www.potensial.co.uk,Salford,E0800006,-2.298651,53.48796
Bankfield House Care Home,Residential homes,"Bankfield Road, Woodley, Stockport",SK6 1RQ,1614066468,http://www.bankfieldcare.co.uk,Stockport,E0800007,-2.099109,53.428222
Coppice Nursing Home,Nursing homes,"84 Windsor Road, Oldham",OL8 1RQ,1616268522,NA,Oldham,E0800004,-2.124413,53.533148
Brocklehurst Nursing Home,Nursing homes,"65 Cavendish Road, Withington, Manchester",M20 1JG,1614481776,NA,Manchester,E0800003,-2.241527,53.428648
Haighfield Care Home,Nursing homes,"241 Wigan Road, Wigan",WN1 2DN,1942821165,NA,Wigan,E08000010,-2.629163,53.554536
Windsor House Care Home,Residential homes,"209 Wigan Road, Standish, Wigan",WN6 0AE,1257421325,NA,Wigan,E08000010,-2.643655,53.573401
Chester House Care Home,Residential homes,"138 Chester Road, Hazel Grove, Stockport",SK7 6HE,1614568500,NA,Stockport,E0800007,-2.124689,53.370258
Oakview Residential Care Home,Residential homes,"19 Oakwood Avenue, Gatley, Cheadle",SK8 4LR,1614910106,NA,Stockport,E0800007,-2.233529,53.39191
Bakewells Care Home,Residential homes,"102 Junction Road, Deane, Bolton",BL3 4NE,1204655772,http://www.morgancare.co.uk,Bolton,E0800001,-2.470793,53.568301
Stansfield Hall Care Home,Residential homes,"Temple Lane, Littleborough",OL15 9QH,1706370096,NA,Rochdale,E0800005,-2.08466,53.661481
The Royal Elms Care Home,Residential homes,"23 Windsor Road, Newton Heath, Manchester",M40 1QQ,1616819173,NA,Manchester,E0800003,-2.165586,53.494762
Mainwaring Terrace,Residential homes,"1, 2, 3, 5 Mainwaring Terrace, Northern Moor, Manchester",M23 0EW,1619459585,http://www.nas.org.uk,Manchester,E0800003,-2.280522,53.412815
Norwood Trust,Residential homes,"21 Arkwright Road, Marple, Stockport",SK6 7DB,1614490391,NA,Stockport,E0800007,-2.057304,53.39777
Alderwood Care Home,Residential homes,"Simpson Road, Boothstown, Worsley, Manchester",M28 1LT,1617039777,http://www.hillcare.net,Salford,E0800006,-2.418748,53.502969
Lever Edge Care Home,Residential homes,"Lever Edge Lane, Great Lever, Bolton",BL3 3EP,1204660011,http://www.hillcare.net,Bolton,E0800001,-2.43944,53.558974
Faversham House Nursing Home,Nursing homes,"59 Church Road, Urmston, Manchester",M41 9EJ,1617485998,NA,Trafford,E0800009,-2.358775,53.445818
Hillcrest Residential Home,Residential homes,"Hillcrest, Elliott Street, Tyldesley",M29 8JE,1942891949,http://www.caringalternatives.co.uk,Wigan,E08000010,-2.474448,53.513089
Brookdale Care Home,Residential homes,"5 St Pauls Court, Chesham Crescent, Bury",BL9 6BX,1617977160,NA,Bury,E0800002,-2.281589,53.598972
Walkden Manor,Residential homes,"41 Manchester Road, Walkden, Worsley, Manchester",M28 3WS,1617609951,NA,Salford,E0800006,-2.393584,53.52229
Stamford House Care Home,Residential homes,"3 Stamford Street, Rochdale",OL16 5DS,1706645401,NA,Rochdale,E0800005,-2.143193,53.612376
Braeside Care Home,Nursing homes,"8 Royal Street, Smallbridge, Rochdale",OL16 2PU,1706526080,NA,Rochdale,E0800005,-2.135622,53.631656
Meadowview Care Home,Residential homes,"Rear of 1072 Manchester Road, Castleton, Rochdale",OL11 2XJ,1706711620,NA,Rochdale,E0800005,-2.175029,53.584102
Springfield House,Residential homes,"57 Warburton Lane, Partington, Manchester",M31 4NL,1617761757,http://www.fairfieldresidential.co.uk,Trafford,E0800009,-2.430075,53.417053
Heathside Residential Home,Residential homes,"Plank Lane, Leigh",WN7 4QE,1942602328,http://www.wigan.gov.uk,Wigan,E08000010,-2.550433,53.494256
Newhey Manor Residential Care Home,Residential homes,"64A Huddersfield Road, Newhey, Rochdale",OL16 3RL,1706291860,http://www.lilycare.com,Rochdale,E0800005,-2.093305,53.601721
Limefield Court Retirement Home,Residential homes,"15 Limefield Road, Bury",BL9 5ET,1617615164,http://www.lilycare.com,Bury,E0800002,-2.294322,53.613439
Abbeyfield House - Stockport,Residential homes,"120 Moss Lane, Bramhall, Stockport",SK7 1EE,1614390046,http://www.abbeyfield.com,Stockport,E0800007,-2.175434,53.357232
Downing House,Residential homes,"14 Swinbourne Grove, Withington, Manchester",M20 4PP,1614348717,http://www.abbeyfield.com,Manchester,E0800003,-2.226221,53.43435
Half Acre House,Residential homes,"Roch Valley Way, Rochdale",OL11 4DB,1706861098,NA,Rochdale,E0800005,-2.181745,53.610841
Knightswood Care Home,Nursing homes|Residential homes,"Off Manchester Road, Blackrod, Bolton",BL6 5LS,1204692689,NA,Bolton,E0800001,-2.573177,53.589058
Moorhaven Care Home Ltd,Nursing homes,"Moorhaven Nursing Home, 193 Ripponden Road, Oldham",OL1 4HR,1616282064,NA,Oldham,E0800004,-2.08592,53.552228
Hall Field Guest House,Residential homes,"50 Hall Street, Offerton, Stockport",SK1 4DA,1614800574,http://www.indpendentptions.org.uk,Stockport,E0800007,-2.146986,53.407823
Peel Moat,Residential homes,"2 Peel Moat Road, Heaton Moor, Stockport",SK4 4PL,1614422597,NA,Stockport,E0800007,-2.182741,53.425076
Werneth Lodge Care Home,Residential homes,"38 Manchester Road, Oldham",OL9 7AP,1616244085,NA,Oldham,E0800004,-2.132291,53.533975
Ashbourne House Care Home,Residential homes,"230 Lees New Road, Oldham",OL4 5PP,1616241013,NA,Oldham,E0800004,-2.06648,53.533122
St George's (Wigan) Limited,Nursing homes,"Windsor Street, Wigan",WN1 3TG,1942821399,http://www.stgeorgescarehome.co.uk,Wigan,E08000010,-2.62352,53.549473
Whitefield House,Residential homes,"26 Church Lane, Whitefield, Bury",M45 7NF,1617969666,http://www.whitefieldhouse.co.uk,Bury,E0800002,-2.298252,53.551311
Sunny Bank PRS,Residential homes|Rehabilitation (illness/injury),"Sunny Bower Street, Tottington, Bury",BL8 3HL,1204883621,http://www.sunnybankprs.co.uk,Bury,E0800002,-2.341431,53.610851
De Brook Lodge,Residential homes,"110 Irlam Road, Flixton, Manchester",M41 6NA,1617485403,http://www.idealcarehomes.co.uk,Trafford,E0800009,-2.393185,53.448253
Cleggsworth Care Home,Residential homes,"7-15 Little Clegg Road, Littleborough",OL15 0EA,1706379788,NA,Rochdale,E0800005,-2.111941,53.631779
Plane Tree Court,Nursing homes,"11-13 St Lesmo Road, Edgeley, Stockport",SK3 0TX,1614806919,http://www.swanvale.com,Stockport,E0800007,-2.178969,53.401226
Kenyon Lodge,Nursing homes,"99 Manchester Road West, Little Hulton, Manchester",M38 9DX,1617904448,NA,Salford,E0800006,-2.432233,53.533248
Moston Grange Nursing Home,Nursing homes,"29 High Peak Street, Manchester",M40 3AT,1612191300,http://www.equilibrium.healthcare/services/moston-grange-care-home,Manchester,E0800003,-2.182483,53.505576
Agricola House,Residential homes|Homecare agencies,"17 Kirklees Street, Tottington, Bury",BL8 3NE,1204880023,NA,Bury,E0800002,-2.335922,53.615603
St George's Nursing Home (Oldham),Nursing homes,"Northgate Lane, Moorside, Oldham",OL1 4RU,1616264433,http://www.stgeorgescarecentre.co.uk,Oldham,E0800004,-2.075315,53.563731
Harmony House,Residential homes,"651-653 Liverpool Road, Peel Green, Eccles, Manchester",M30 7BY,1617877401,NA,Salford,E0800006,-2.370576,53.476604
Haylands Residential Home for Gentlemen,Residential homes,"93 Crofts Bank Road, Urmston, Manchester",M41 0US,1617498887,http://www.jemcareltd.co.uk,Trafford,E0800009,-2.355098,53.452669
Four Seasons Residential Care Home,Residential homes,"81 Halifax Road, Littleborough",OL15 0HL,1706376809,NA,Rochdale,E0800005,-2.08915,53.645218
Moss Cottage Nursing Home,Nursing homes,"34 Manchester Road, Ashton Under Lyne",OL7 0BZ,1613432557,NA,Tameside,E0800008,-2.110298,53.483411
Allendale Residential Home Limited,Residential homes,"53 Polefield Road, Blackley, Manchester",M9 7EN,1617953051,NA,Manchester,E0800003,-2.210085,53.522718
The Hamlet,Residential homes,"21 Cromwell Road, Eccles",M30 0QT,7808716379,NA,Salford,E0800006,-2.349077,53.484174
Firs Hall Care Home Limited,Residential homes,"Firs Avenue, Oldham Road, Manchester",M35 0BL,1616835154,NA,Oldham,E0800004,-2.16204,53.509409
The Clough Care Home,Residential homes,"Chorley New Road, Bolton",BL1 5BB,1204492488,http://www.pearlcare.co.uk,Bolton,E0800001,-2.481836,53.582046
Belvoir Care Home Limited,Residential homes,"632 Halifax Road, Wardle, Rochdale",OL16 2SQ,1706377925,NA,Rochdale,E0800005,-2.119837,53.637821
Montrose Hall,Residential homes,"Sherwood Crescent, Wigan",WN5 9RN,1942629511,http://www.anchor.org.uk,Wigan,E08000010,-2.665879,53.544202
Ash Tree House,Residential homes,"Warwick Drive, Hindley, Wigan",WN2 4DT,1942256089,http://www.idealcarehomes.co.uk,Wigan,E08000010,-2.563945,53.535594
Brinnington Hall,Residential homes,"Middlesex Road, Stockport",SK5 8HT,1614063040,http://www.idealcarehomes.co.uk,Stockport,E0800007,-2.130021,53.428964
Bowerfield Court,Nursing homes,"Broadwood Close, Disley, Stockport",SK12 2NJ,1663721464,NA,Stockport,E0800007,-2.063885,53.363151
Priestnall Court,Residential homes,"14-16 Priestnall Road, Heaton Mersey, Stockport",SK4 3HR,1614321124,http://www.priestnallcourt.co.uk,Stockport,E0800007,-2.197133,53.416496
Marion Lauder House,Nursing homes,"20 Lincombe Road, Wythenshawe, Manchester",M22 1PY,1614373246,http://www.careconcepts.co.uk,Manchester,E0800003,-2.265535,53.36885
Balmoral Care Home,Residential homes,"29 Old Road, Mottram, Hyde",SK14 6LW,1457765879,NA,Tameside,E0800008,-2.019061,53.464602
Berrycroft Manor,Residential homes,"32 Berrycroft Lane, Romiley, Stockport",SK6 3AU,1614943990,http://www.berrycroftmanor.co.uk,Stockport,E0800007,-2.10421,53.415724
Acorn Lodge Nursing Home,Nursing homes,"1 Guido Street, Failsworth, Manchester",M35 0AL,1616818e3,http://www.acornlodgecarehome.co.uk,Oldham,E0800004,-2.164399,53.507249
Clyde House Limited,Residential homes,"330 Wellington Road North, Heaton Chapel, Stockport",SK4 5DA,1614328880,http://www.carefirsthomes.com,Stockport,E0800007,-2.175975,53.426408
Wingates Residential Home,Residential homes,"95 Chorley Road, Westhoughton, Bolton",BL5 3PG,1942813840,NA,Bolton,E0800001,-2.529207,53.561756
Beech House,Residential homes,"68 Manchester Road, Heywood",OL10 2AP,1706368710,NA,Rochdale,E0800005,-2.2097,53.585509
Mariana House,Residential homes,"45-47 Alexandra Road South, Whalley Range, Manchester",M16 8GH,1612264e3,http://www.marianahouse.co.uk,Manchester,E0800003,-2.251406,53.44514
Eden House,Residential homes,"2 Lawton Street, Droylsden, Manchester",M43 7XD,1616378661,NA,Tameside,E0800008,-2.137912,53.485593
Thornton Lodge Care Home,Nursing homes,"67 Broom Lane, Salford",M7 4FF,1617922020,NA,Salford,E0800006,-2.259028,53.510029
Farnworth Care Home,Nursing homes,"Church Street, Farnworth, Bolton",BL4 8AG,1204578555,NA,Bolton,E0800001,-2.3922,53.548721
Spennymoor Care Home Limited,Residential homes,"Ivy Road, Church Road, Bolton",BL1 6EE,1204846008,NA,Bolton,E0800001,-2.454253,53.591672
Southlands Residential Home Limited,Residential homes,"Withins Lane, Breightmet, Bolton",BL2 5DZ,1204528369,NA,Bolton,E0800001,-2.390392,53.585165
EAM Lodge CIC,Nursing homes,"21 Fouracres Road, Manchester",M23 1FG,1619451015,http://www.eamhouse.co.uk,Manchester,E0800003,-2.286003,53.391175
St Lawrences Lodge,Residential homes,"275 Stockport Road, Denton, Manchester",M34 6AX,1613362783,NA,Tameside,E0800008,-2.10973,53.450064
Short Breaks - 8 Broadlands Walk,Residential homes,"8 Broadlands Walk, Moston, Manchester",M40 5LT,1612055286,http://www.mldp.org.uk,Manchester,E0800003,-2.193184,53.504311
Short Breaks - 7 Edlington Walk,Residential homes,"7 Edlington Walk, Newton Heath, Manchester",M40 1JA,1616835211,http://www.mldp.org.uk,Manchester,E0800003,-2.176043,53.501003
The Riverside Nursing Home,Nursing homes,"9 Church Street, Littleborough",OL15 8DA,1706372647,NA,Rochdale,E0800005,-2.094426,53.643767
Norley Hall Care Home,Residential homes,"Norley Hall Avenue, Wigan",WN5 9LP,1942224334,http://www.millennium-care.co.uk,Wigan,E08000010,-2.676383,53.539529
Lakeside Nursing & Residential Home,Nursing homes,"Chorley Road, Worthington, Standish",WN1 2XN,1257422931,http://www.millennium-care.co.uk,Wigan,E08000010,-2.634805,53.592531
Beechwood Lodge,Residential homes,"Meadow View, Norden, Rochdale",OL12 7PB,1706860369,http://www.berrycroftcare.co.uk,Rochdale,E0800005,-2.191375,53.624623
Harelands House,Residential homes,"Samson Street, Belfield, Rochdale",OL16 2XW,1706651712,http://www.possabilities.org.uk,Rochdale,E0800005,-2.132881,53.621017
Fernlea,Nursing homes,"20 Torkington Road, Hazel Grove, Stockport",SK7 4RQ,1619470874,http://www.oleacare.co.uk,Stockport,E0800007,-2.110762,53.378639
Bankfield,Residential homes,"Gigg Lane, Bury",BL9 9HQ,1617648552,http://www.bankfield.org,Bury,E0800002,-2.296439,53.581283
Lyndhurst Residential Care Home,Residential homes,"120 Manchester Old Road, Middleton, Manchester",M24 4DY,1616439222,NA,Rochdale,E0800005,-2.205711,53.547461
Norwood Drive,Residential homes,"2 Norwood Drive, Timperley, Altrincham",WA15 7LD,1619049228,NA,Trafford,E0800009,-2.306023,53.389975
Alexander Care Home,Residential homes,"164 Rochdale Road, Bury",BL9 7BY,1617971104,NA,Bury,E0800002,-2.281258,53.592447
Heathcotes (Middleton),Residential homes,"485 Rochdale Road, Middleton, Manchester",M24 2GN,1616540226,http://www.heathcotes.net,Rochdale,E0800005,-2.184445,53.564538
Hollands Nursing Home,Nursing homes,"2 Church Road, Farnworth, Bolton",BL4 8AL,1204574386,http://www.hollandsnursinghome.co.uk,Bolton,E0800001,-2.391384,53.547061
Mediline Supported Living Averill,Residential homes,"47 Averill Street, Newton Heath, Manchester",M40 1PH,1616822062,http://www.northwestcommunityservices.co.uk,Manchester,E0800003,-2.17227,53.500092
Mediline Supported Living Bacup,Residential homes,"11 Bacup Street, Moston, Manchester",M40 9HF,1616819455,http://www.northwestcommunityservices.co.uk,Manchester,E0800003,-2.192458,53.510398
Mediline Supported Living Swallow,Residential homes,"20 Swallow Street, Longsight, Manchester",M12 4GH,1613209060,http://www.northwestcommunityservices.co.uk,Manchester,E0800003,-2.193974,53.449561
Mediline Supported Living Bradgate,Residential homes,"62 Bradgate Close, Northenden, Manchester",M22 4LX,1619455810,http://www.northwestcommunityservices.co.uk,Manchester,E0800003,-2.253899,53.40365
Six Acres Residential and Supported Accommodation Limited,Residential homes,"401 Bickershaw Lane, Bickershaw, Wigan",WN2 5TE,1942861113,NA,Wigan,E08000010,-2.57563,53.515017
Manorhey Care Centre,Nursing homes,"130 Stretford Road, Urmston, Manchester",M41 9LT,1617476888,NA,Trafford,E0800009,-2.342776,53.446521
Allingham House Care Centre,Nursing homes,"Deansgate Lane, Timperley, Altrincham",WA15 6SQ,1619291783,NA,Trafford,E0800009,-2.341537,53.399099
Dean Wood Manor,Nursing homes,"Spring Road, Orrell, Wigan",WN5 0JH,1942223982,NA,Wigan,E08000010,-2.697706,53.549746
Mahogany Care Home,Nursing homes,"Marsden Street, Newtown, Wigan",WN5 0TS,1942820800,http://www.astonbrookcare.co.uk,Wigan,E08000010,-2.655051,53.539794
Wentworth House,Residential homes,"8 Blantyre Road, Swinton, Manchester",M27 5ER,1617939090,http://www.wentworthhousecare.co.uk,Salford,E0800006,-2.319923,53.504938
Carr Bank House,Residential homes|Rehabilitation (illness/injury),"9-11 Heywood Street, Bury",BL9 7EB,1617977130,NA,Bury,E0800002,-2.287858,53.58987
Yew Tree,Residential homes,"Fairy Lane, Sale, Trafford",M33 2JT,1619739616,NA,Trafford,E0800009,-2.285748,53.420443
Edge Hill Rest Home,Residential homes,"315 Oldham Road, Royton, Oldham",OL2 6AB,1616248149,NA,Oldham,E0800004,-2.120268,53.555524
Morden Grange,Nursing homes,"15 Chadwick Street, The Haulgh, Bolton",BL2 1JN,1204393963,http://www.perpetualcare.co.uk,Bolton,E0800001,-2.415214,53.576327
Lang Riggs House,Residential homes,"Breeze Hill Road, Manchester",M46 9HJ,1942871162,NA,Bolton,E0800001,-2.469635,53.536091
Blackrod House,Residential homes,"Chorley Road, Blackrod, Bolton",BL6 5JS,1204690287,http://www.blackrodhouse.co.uk,Bolton,E0800001,-2.587549,53.595981
Max Potential UK Ltd,Residential homes,"125 Mayor Street, Bolton",BL1 4SJ,7538613409,NA,Bolton,E0800001,-2.443442,53.576397
York Lodge Residential Home,Residential homes,"54-56 Crofts Bank Road, Urmston, Manchester",M41 0UH,1617482315,NA,Trafford,E0800009,-2.353157,53.451048
Granville,Residential homes,"10 Victoria Road, Eccles, Manchester",M30 9HB,1617891041,NA,Salford,E0800006,-2.343113,53.488353
Brabyns House,Residential homes,"98 Station Road, Marple, Stockport",SK6 6PA,1614274886,NA,Stockport,E0800007,-2.060223,53.398245
Middleton Hall Care Home,Residential homes,"205-207 Grimshaw Lane, Middleton, Manchester",M24 2BW,NA,NA,Rochdale,E0800005,-2.177983,53.543468
Woodlands Westhoughton Dementia Care Home and Services,Residential homes,"4 Wigan Road, Westhoughton, Bolton",BL5 3RJ,1942819207,http://www.woodlandscaregrp.com,Bolton,E0800001,-2.526743,53.548193
Hamilton Rest Home,Residential homes,"211-213 Bury New Road, Whitefield, Manchester",M45 8GW,1617667418,NA,Bury,E0800002,-2.295923,53.550715
Bank House Care Home,Nursing homes,"Brandleshome Road, Bury",BL8 1DJ,1617644358,NA,Bury,E0800002,-2.311161,53.603294
Oakwood Care Centre,Residential homes,"400A Huddersfield Road, Millbrook, Stalybridge",SK15 3ET,1613032540,http://www.oakwoodcarecentre.co.uk,Tameside,E0800008,-2.032021,53.493417
Byron Lodge,Residential homes,"1 Coldstream Avenue, Manchester",M9 6PG,1617954084,http://www.accomplish-group.co.uk,Manchester,E0800003,-2.213035,53.530434
St George's Residential Care Home,Residential homes,"Abbey Hey Lane, Abbey Hey, Gorton, Manchester",M18 8RB,1612208885,NA,Manchester,E0800003,-2.16219,53.465941
Dennis Moore Care Ltd,Residential homes,"Brideoake Care Home, Widdows Street, Leigh",WN7 2AE,1942601770,NA,Wigan,E08000010,-2.502901,53.495059
Archmoor Care Home,Residential homes,"116 Sandy Lane, Middleton, Manchester",M24 2FU,1616532454,http://www.archmoor.co.uk,Rochdale,E0800005,-2.181154,53.54698
Glenhomes Care Home,Residential homes,"9 Greenmount Lane, Bolton",BL1 5JF,1204841988,NA,Bolton,E0800001,-2.467583,53.581444
Grange Lea Residential Home Limited,Residential homes,"Grange Road, Bolton",BL3 5QQ,1204665903,NA,Bolton,E0800001,-2.461278,53.569534
Vale House,Nursing homes,"Vale Avenue, Horwich, Bolton",BL6 5RF,1204639539,NA,Bolton,E0800001,-2.558461,53.595806
"Hall Lane Resource Centre (Respite Care, Short Breaks Service)",Residential homes,"157-159 Hall Lane, Baguley, Manchester",M23 1WD,1612192413,NA,Manchester,E0800003,-2.278904,53.393213
Ascot House,Residential homes,"Ascot Ave, Sale, Manchester",M33 4GT,1619620996,NA,Trafford,E0800009,-2.355164,53.417245
Belong Atherton Care Village,Nursing homes,"Mealhouse Lane, Atherton, Manchester",M46 0EW,1942898410,http://www.clsgroup.org.uk,Wigan,E08000010,-2.493581,53.524524
Leighton House,Residential homes,"1 Leighton Avenue, Littleborough, Rochdale",OL15 0BW,NA,http://www.possabilities.org.uk,Rochdale,E0800005,-2.108111,53.630255
Cheshire House,Nursing homes,"22 St Marys Road, Sale",M33 6SA,1619051228,http://www.consensussupport.com,Trafford,E0800009,-2.332335,53.424403
Abney Court,Nursing homes,"Abney Park, Cheadle",SK8 2PD,3333211922,http://www.careuk.com,Stockport,E0800007,-2.212682,53.399787
Browfield Residential Home Limited,Residential homes,"159-161 Walmersley Road, Bury",BL9 5DE,1617978457,NA,Bury,E0800002,-2.291389,53.602463
Mayfield Care Home,Residential homes,"Beaufort Road, Sale",M33 3WR,1619732371,NA,Trafford,E0800009,-2.315423,53.416629
Queens Park View,Residential homes|Homecare agencies,"102 Park Road, Bolton",BL1 4RQ,1204386186,http://www.intelligentcare.co.uk,Bolton,E0800001,-2.447671,53.5779
Woodbury Short Stay and Shared Lives Scheme,Residential homes|Homecare agencies|Shared lives,"Elmhurst, Whalley Road, Whitefield",M45 8WZ,1612536e3,NA,Bury,E0800002,-2.288653,53.555766
Grange Ave,Nursing homes,"41 Grange Avenue, Levenshulme, Manchester",M19 2FZ,1617699e3,NA,Manchester,E0800003,-2.196478,53.441187
Alness Lodge Limited,Residential homes,"50 Alness Road, Manchester",M16 8HW,1612264313,NA,Manchester,E0800003,-2.254864,53.446768
Broughton House - Home for Ex-Service Men and Women,Nursing homes,"Park Lane, Salford",M7 4JD,1617402737,http://www.broughtonhouse.com,Salford,E0800006,-2.261049,53.51538
Heaton Vale,Residential homes,"Belmont, Basil Street, Stockport",SK4 1QL,7557232278,http://www.citycarepartnership.co.uk,Stockport,E0800007,-2.166612,53.418107
Polefield Nursing Home,Nursing homes,"77 Polefield Road, Manchester",M9 7EN,1617954102,NA,Manchester,E0800003,-2.210085,53.522718
463,Nursing homes,"463-465 Parrswood Road, Didsbury, Manchester",M20 5NE,1614344118,NA,Manchester,E0800003,-2.222852,53.409062
Abbeyfield House,Nursing homes,"114-116 Gatley Road, Gatley",SK8 4AB,1614285434,http://www.caritasservices.com,Stockport,E0800007,-2.232722,53.392702
Castlerea House,Residential homes,"18 Hope Street, Higher Broughton, Salford",M7 2ES,1612780181,NA,Salford,E0800006,-2.264886,53.506349
Kingarth,Nursing homes|Homecare agencies,"17 New Road, Radcliffe, Manchester",M26 1LS,1617258008,http://www.consensussupport.com/accommodation/kingarth,Bury,E0800002,-2.319983,53.556882
New Lane,Residential homes,"2-4 New Lane, Breightmet, Bolton",BL2 5BN,1204337830,NA,Bolton,E0800001,-2.39586,53.590242
Mere Hall View,Residential homes,"7 Merehall Street, Bolton",BL1 2QT,1204337098,NA,Bolton,E0800001,-2.43902,53.587143
Bradmere Residential Care Home,Residential homes,"14-18 Franklin Street, Patricroft, Eccles",M30 0QZ,1617878631,http://www.bradmereandmerrymeetcare.co.uk,Salford,E0800006,-2.353569,53.484277
Merrymeet Residential Care Home,Residential homes,"5 & 7 Tootal Grove, Salford",M6 8DN,1617375606,http://www.bradmereandmerrymeetcare.co.uk,Salford,E0800006,-2.312719,53.48476
Ecclesholme,Residential homes,"Vicars Street, Eccles, Manchester",M30 0DG,1617889517,http://www.rmbi.org.uk,Salford,E0800006,-2.333458,53.48714
Wellesley House,Residential homes,"10 Wellington Road, Bury",BL9 9BG,1617616932,NA,Bury,E0800002,-2.297254,53.585505
Apsley House,Residential homes,"103 Queens Park Road, Heywood",OL10 4JR,1706360309,NA,Rochdale,E0800005,-2.217268,53.596778
Mornington House,Residential homes,"10 Ashfield Lane, Milnrow, Rochdale",OL16 4EW,1706633777,NA,Rochdale,E0800005,-2.112425,53.60343
St. Euphrasia's Care Home,Residential homes,"116 Chain Road, Blackley, Manchester",M9 6GN,1616532010,NA,Manchester,E0800003,-2.216555,53.537232
Spurr House Short Stay Service,Residential homes,"243 Pole Lane, Bury",BL9 8QL,1612536767,NA,Bury,E0800002,-2.27189,53.559338
Elmhurst Short Stay Service,Residential homes,"Whalley Road, Whitefield, Manchester",M45 8WZ,1612536833,NA,Bury,E0800002,-2.288653,53.555766
Langfield Nursing and Residential Home,Nursing homes,"Wood Street, Middleton, Manchester",M24 5QH,1616535319,NA,Rochdale,E0800005,-2.214547,53.557872
Blackley Premier Care,Residential homes,"70 Hill Lane, Blackley, Manchester",M9 6PF,1617408552,http://www.blackleypremiercare.org,Manchester,E0800003,-2.215368,53.526439
Sunrise of Hale Barns,Residential homes,"295 Hale Road, Hale Barns, Altrincham",WA15 8SN,1619809500,http://www.sunrise-care.co.uk,Trafford,E0800009,-2.316703,53.37249
Four Oaks Care Home,Nursing homes,"28 Wood Lane, Partington, Manchester",M31 4LX,1613593983,NA,Trafford,E0800009,-2.432407,53.415534
Homeleigh,Residential homes,"Middleton Road, Crumpsall, Manchester",M8 4JX,1617407313,http://www.regard.co.uk,Manchester,E0800003,-2.248393,53.519561
Fern Bank Therapeutic Community Ltd,Residential homes,"91-95 Queens Road, Oldham",OL8 2BA,1616264079,NA,Oldham,E0800004,-2.100384,53.534689
Cuerden Developments Limited - Appleby Court,Nursing homes,"Appleby Court, Ellesmere Road, Wigan",WN5 9LA,1942215e3,http://www.cuerden.com,Wigan,E08000010,-2.66651,53.536393
Cuerden Developments Limited - Berkeley House,Nursing homes,"Berkeley House, Ellesmere Road, Wigan",WN5 9LA,1942737372,http://www.cuerden.com,Wigan,E08000010,-2.66651,53.536393
Cuerden Developments Limited - Alexandra Court,Nursing homes,"Alexandra Court, Howard Street, Wigan",WN5 8BH,1942215555,http://www.cuerden.com,Wigan,E08000010,-2.678991,53.534654
Cuerden Developments Limited - Alexandra Grange,Nursing homes,"Alexandra Grange, Howard Street, Wigan",WN5 8BH,1942215222,http://www.cuerden.com,Wigan,E08000010,-2.678991,53.534654
Beenstock Home,Nursing homes|Homecare agencies,"19-21 Northumberland Street, Salford",M7 4RP,NA,NA,Salford,E0800006,-2.259742,53.508356
EAM House,Nursing homes,"Manchester Road, Partington, Manchester",M31 4DJ,1617778511,http://www.eamcaregroup.co.uk,Trafford,E0800009,-2.421986,53.420801
Hollybank Care Home,Nursing homes|Residential homes,"211a Bolton Road, Radcliffe, Manchester",M26 3GN,1617249400,http://www.oak-lodge.com,Bury,E0800002,-2.340031,53.562624
Yew Tree Manor Nursing and Residential Care Home,Nursing homes,"Yew Tree Lane, Northern Moor, Manchester",M23 0EA,1619452083,NA,Manchester,E0800003,-2.273115,53.412086
Greave Project,Residential homes,"Greave House, Greave Avenue, Rochdale",OL11 5EQ,1706658559,NA,Rochdale,E0800005,-2.186284,53.618851
Rowsley House,Residential homes,"3 Rowsley Avenue, Didsbury, Manchester",M20 2XD,1614344183,http://www.standwalk.com,Manchester,E0800003,-2.2531,53.423582
EAM Lodge (Trafford),Nursing homes,"46 Manchester Road, Partington, Manchester",M31 4DJ,1617778511,http://www.eamcaregroup.co.uk,Trafford,E0800009,-2.421986,53.420801
Roselands Residential Home Limited,Residential homes,"Perth Street, Heyside Royton, Oldham",OL2 6LY,1706881720,http://www.dignitycaregroup.co.uk,Oldham,E0800004,-2.102856,53.564861
Coppull Lane Respite Services,Nursing homes,"Flat 1, 3 Coppull Lane, Wigan",WN1 2LQ,1942705970,NA,Wigan,E08000010,-2.626259,53.554093
Woodland Care Home,Residential homes,"69 Queens Road, Oldham",OL8 2BA,1616249344,NA,Oldham,E0800004,-2.100384,53.534689
Sunrise of Bramhall,Nursing homes,"1 Dairyground Road, Bramhall, Stockport",SK7 2HW,1618209656,NA,Stockport,E0800007,-2.158733,53.363036
Ferrol Lodge,Residential homes,"49 Northenden Road, Sale",M33 2DL,1619624056,NA,Trafford,E0800009,-2.313983,53.423392
Mount View House,Residential homes,"Mount View House, Pot House Lane, Wardle, Rochdale",OL12 9PP,1706350916,http://www.craegmoor.co.uk,Rochdale,E0800005,-2.152527,53.643797
Lowry House,Residential homes,"Pudding Lane, Hyde",SK14 3HZ,1132391507,http://www.casbehaviouralhealth.com,Tameside,E0800008,-2.036884,53.452167
Flixton Manor,Nursing homes,"2-8 Delamere Road, Urmston, Manchester",M41 5QL,1617467175,http://www.flixtonmanor.com,Trafford,E0800009,-2.378333,53.449209
Millbrook Care Centre,Residential homes,"Huddersfield Road, Millbrook, Stalybridge",SK15 3ET,1613042600,http://www.meridiancare.co.uk/millbrook,Tameside,E0800008,-2.032021,53.493417
New Willow House,Residential homes,"167 Hunt Lane, Chadderton, Oldham",OL9 9JJ,1617705092,http://www.miocare.co.uk,Oldham,E0800004,-2.14974,53.544731
Timperley Care Home,Nursing homes,"53d Mainwood Road, Timperley, Altrincham",WA15 7JW,1619808001,NA,Trafford,E0800009,-2.312943,53.392375
Riverside,Nursing homes,"Broomstairs Bridge, Manchester Road, Hyde",SK14 2DE,1613660600,http://www.careuk.com/care-homes/riverside-hyde,Tameside,E0800008,-2.094698,53.45485
The Chanters,Residential homes,"Tyldesley Old Road, Atherton, Manchester",M46 9AF,1942884500,NA,Wigan,E08000010,-2.481178,53.520181
Regency Care Centre,Nursing homes,"140 Lilly Hill, Whitefield, Bury",M45 7SG,1617961811,http://www.fshc.co.uk,Bury,E0800002,-2.298445,53.557279
Barton Brook Care Home,Nursing homes,"201 Trafford Road, Eccles, Manchester",M30 0GP,1617878437,NA,Salford,E0800006,-2.351366,53.47845
Laurel Court (Didsbury),Nursing homes,"1a Candleford Road, Didsbury",M20 3JH,1614462844,NA,Manchester,E0800003,-2.231975,53.432343
Ringway Mews Care Home,Nursing homes,"5 Stancliffe Road, Manchester",M22 4RY,1614914887,NA,Manchester,E0800003,-2.253655,53.390538
Half Acre Care Home,Residential homes,"Higher Ainsworth Road, Radcliffe, Manchester",M26 4JH,1617259876,NA,Bury,E0800002,-2.340828,53.577254
Heywood Court Care Home,Residential homes,"Green Lane, Heywood, Rochdale",OL10 1NQ,1706541184,NA,Rochdale,E0800005,-2.208004,53.593397
Holly Court Care Home,Residential homes,"8 Priory Grove, Off Lower Broughton Road, Salford",M7 2HT,1617080174,NA,Salford,E0800006,-2.267579,53.503008
Hulton Care Centre,Nursing homes,"Clarkes Brow, Middleton, Manchester",M24 6BW,1616546693,NA,Rochdale,E0800005,-2.194195,53.553889
Laburnum Court Care Home,Nursing homes,"8 Priory Grove, Off Lower Broughton Road, Salford",M7 2HT,1617080171,NA,Salford,E0800006,-2.267579,53.503008
Appleton Lodge,Residential homes,"Lingard Lane, Bredbury, Stockport, Manchester",SK6 2QT,1614306479,http://www.hc-one.co.uk/homes/appleton-lodge,Stockport,E0800007,-2.124079,53.429313
Appleton Manor,Nursing homes,"Lingard Lane, Bredbury, Stockport, Manchester",SK6 2QT,1614067261,http://www.hc-one.co.uk/homes/appleton-manor,Stockport,E0800007,-2.124079,53.429313
Ashton View Nursing Home,Nursing homes,"Wigan Road, Aston-in-Makerfield, Wigan",WN4 9BJ,1942722988,http://www.hc-one.co.uk/homes/ashton-view,Wigan,E08000010,-2.638749,53.4894
Avalon Park Nursing Home,Nursing homes,"Dove Street, Salem, Oldham",OL4 5HG,1616335500,http://www.hc-one.co.uk/homes/avalon-park,Oldham,E0800004,-2.084818,53.536966
Averill House,Nursing homes,"Averill Street, Newton Heath, Manchester",M40 1PF,161688,http://www.hc-one.co.uk/homes/averill-house,Manchester,E0800003,-2.171983,53.499778
Brookdale View,Nursing homes,"Averill Street, Newton Heath, Manchester",M40 1PF,1616887600,http://www.hc-one.co.uk/homes/brookdale-view,Manchester,E0800003,-2.171983,53.499778
Carrington Court,Nursing homes,"190 Darby Lane, Hindley, Wigan",WN2 3DU,1942526220,http://www.hc-one.co.uk/homes/carrington-court,Wigan,E08000010,-2.584035,53.536241
Chorlton Place Nursing Home,Nursing homes,"290 Wilbraham Road, Manchester",M16 8LT,1618820102,http://www.hc-one.co.uk/homes/chorlton-place,Manchester,E0800003,-2.255327,53.443666
Four Seasons,Nursing homes,"Breightmet Fold Lane, Bolton",BL2 6PP,1204392005,http://www.hc-one.co.uk/homes/four-seasons,Bolton,E0800001,-2.382316,53.582459
Guide Lane Nursing Home,Nursing homes,"232 Guide Lane, Audenshaw, Manchester",M34 5HA,161335989,http://www.hc-one.co.uk/homes/guide-lane,Tameside,E0800008,-2.11393,53.472145
Kings Park Nursing Home,Nursing homes,"Kings Road, Hurst Cross, Ashton Under Lyne",OL6 8EZ,1613434733,http://www.hc-one.co.uk/homes/kings-park,Tameside,E0800008,-2.081998,53.498956
Meadow Bank House,Nursing homes,"Green Lane, Great Lever, Bolton",BL3 2EF,1204366258,http://www.hc-one.co.uk/homes/meadowbank-house,Bolton,E0800001,-2.42598,53.559589
Newlands Nursing & Residential Home,Nursing homes,"122 Heaton Moor Road, Heaton Moor, Stockport",SK4 4JY,1614322236,http://www.hc-one.co.uk/homes/newlands,Stockport,E0800007,-2.1853,53.421765
Oakland (Rochdale),Residential homes,"Bury Road, Rochdale",OL11 5EU,1706642448,http://www.hc-one.co.uk/homes/oakland,Rochdale,E0800005,-2.180124,53.613576
Pendleton Court Care Home,Nursing homes,"22 Chaplin Close, Chaseley Road, Salford",M6 8FW,1617439798,http://www.hc-one.co.uk/homes/pendleton-court,Salford,E0800006,-2.299728,53.49326
Richmond House,Nursing homes,"Mitchell Street, Leigh",WN7 4UH,1942682772,http://www.hc-one.co.uk/homes/richmond-house/,Wigan,E08000010,-2.546352,53.495776
Rose Court Nursing and Residential Home,Nursing homes,"44-48 Water Street, Radcliffe",M26 4DF,1617249040,http://www.hc-one.co.uk/homes/rose-court/,Bury,E0800002,-2.331297,53.563922
Rosebridge Court,Nursing homes,"191 Darby Lane, Hindley, Wigan",WN2 3DU,1942526240,http://www.hc-one.co.uk/homes/rosebridge/,Wigan,E08000010,-2.584035,53.536241
Westleigh Lodge,Nursing homes,"Nel Pan Lane, Leigh, Wigan",WN7 5JT,1942262521,http://www.hc-one.co.uk/homes/westleigh-lodge/,Wigan,E08000010,-2.532329,53.511108
Worsley Lodge,Residential homes,"119 Worsley Road, Worsley, Manchester",M28 2WG,1617940706,http://www.hc-one.co.uk/homes/worsley-lodge/,Salford,E0800006,-2.368038,53.501896
Next Steps,Nursing homes,"32 Kingscliffe Street, Moston, Manchester",M9 4PG,7515952199,NA,Manchester,E0800003,-2.204402,53.510755
The Mews,Nursing homes,"Fenton Street, Rochdale",OL11 3TH,1423859859,NA,Rochdale,E0800005,-2.161524,53.607517
Briarmede Care Home,Residential homes,"426-428 Rochdale Road, Middleton, Manchester",M24 2QW,1616532247,NA,Rochdale,E0800005,-2.180801,53.566881
Meavy View Retirement Home,Residential homes,"146 Milkstone Road, Rochdale",OL11 1NX,1706861876,NA,Rochdale,E0800005,-2.152785,53.606997
Handsale Limited - Treelands Care Home,Nursing homes|Diagnosis/screening,"Westerhill Road, Fitton Hill, Oldham",OL8 2QH,NA,NA,Oldham,E0800004,-2.105521,53.519719
Wigan Respite Service,Residential homes,"310 Ince Green Lane, Ince, Wigan",WN3 4QP,1942236823,http://www.lifeways.co.uk,Wigan,E08000010,-2.616385,53.536357
Acacia Lodge Care Home,Residential homes,"90a Broadway, New Moston, Manchester",M40 3WQ,1616881890,http://www.averyhealthcare.co.uk/care-homes/manchester-greater/manchester/acacia-lodge,Manchester,E0800003,-2.169681,53.516149
Russley Lodge,Residential homes,"276 Wilbraham Road, Manchester",M16 8WP,1618812989,NA,Manchester,E0800003,-2.2534,53.443697
Parkview Care Home,Residential homes,"56 Clayton Hall Road, Clayton, Manchester",M11 4WH,1612207145,NA,Manchester,E0800003,-2.179438,53.483785
Cliffemount Community Care,Residential homes,"411 Hale Road, Hale Barns, Altrincham",WA15 8XU,NA,NA,Trafford,E0800009,-2.299064,53.364742
Ashlands manor Care Centre,Nursing homes|Residential homes,"2 Ashlands, Sale",M33 5PD,1619050760,http://www.newcarehomes.com,Trafford,E0800009,-2.331857,53.424863
Lightbowne Hall,Residential homes,"262 Lightbowne Road, Moston, Manchester",M40 5HQ,NA,http://www.anchor.org.uk,Manchester,E0800003,-2.18851,53.511177000000004
Abbeydale Nursing Home,Nursing homes,"10-12 The Polygon, Wellington Road, Eccles",M30 0DS,1617072501,NA,Salford,E0800006,-2.332959,53.486952
Greenlands Residential Home,Residential homes,"44-46 Green Lane, Bolton",BL3 2EF,1204531691,NA,Bolton,E0800001,-2.42598,53.559589
Hatton Grange,Residential homes,"Oldham Street, Hyde",SK14 1LN,1613684484,http://www.anchor.org.uk,Tameside,E0800008,-2.079855,53.449845
St Marys Nursing Home,Nursing homes,"St Marys Road, Moston, Manchester",M40 0BL,1617111920,NA,Manchester,E0800003,-2.183304,53.510232
Oaklands House,Residential homes|Homecare agencies|Supported living,"119 Rochdale Road, Milnrow, Rochdale",OL16 4DU,1706750790,NA,Rochdale,E0800005,-2.118604,53.613527
Sunrise of Hale Barns,Residential homes,"295 Hale Road, Hale Barns, Altrincham",WA15 8SN,1619809500,http://www.sunrise.care.co.uk,Trafford,E0800009,-2.316703,53.37249
Oldfield Bank Residential Care Home,Residential homes,"5 Highgate Road, Altrincham",WA14 4QZ,1619280658,NA,Trafford,E0800009,-2.364967,53.388317
Belong Morris Feinmann,Nursing homes,"178 Palatine Road, Manchester",M20 2UW,1618504030,NA,Manchester,E0800003,-2.243796,53.420398
Downshaw Lodge,Nursing homes,"Downshaw Road, Ashton Under Lyne",OL7 9QL,1613307059,NA,Tameside,E0800008,-2.101727,53.503427
Hillbrook Grange,Residential homes,"Ack Lane East, Bramhall, Stockport",SK7 2BY,1614397377,NA,Stockport,E0800007,-2.167194,53.359384
Nazareth House - Manchester,Nursing homes,"Scholes Lane, Prestwich, Manchester",M25 0NU,1617732111,NA,Bury,E0800002,-2.267044,53.52575
3L Care - Atherton,Nursing homes,"Bee Fold Lane, Atherton, Manchester",M46 0BL,1942870254,NA,Wigan,E08000010,-2.499294,53.52034
Elizabeth House,Residential homes,"147-155 Walshaw Road, Bury",BL8 1NH,1612047082,http://www.elizabethhousecarehomebury.co.uk,Bury,E0800002,-2.317986,53.598476
Moorfields Care Home,Residential homes,"388 Tottington Road, Bury",BL8 1TU,1612047083,NA,Bury,E0800002,-2.324611,53.605262
Millfield Care Home,Nursing homes,"Bury New Road, Heywood",OL10 4RQ,1706621222,NA,Rochdale,E0800005,-2.239688,53.593733
Next Steps - The Elms,Residential homes,"72 Wigan Road, Bolton",BL3 5PZ,7515952199,NA,Bolton,E0800001,-2.45326,53.570895
Polonia Residential Home,Residential homes,"17 Demesne Road, Manchester",M16 8HG,1612320719,http://www.poloniahome.com,Manchester,E0800003,-2.25584,53.448869
Chamber Mount,Residential homes,"197 Chamber Road, Oldham",OL8 4DJ,1616653185,NA,Oldham,E0800004,-2.125681,53.528275
Heathcotes (Salford),Residential homes,"9 Cromwell Road, Eccles, Manchester",M30 0QT,1617070768,NA,Salford,E0800006,-2.349077,53.484174
Chorley House,Residential homes,"208 Chorley New Road, Bolton",BL1 5AA,7952960860,http://www.rainbowpersonnel.co.uk,Bolton,E0800001,-2.462693,53.580171
Hourigan House Residential Care Home,Residential homes,"Myrtle Avenue, Leigh",WN7 5QU,1942672922,http://www.minstercaregroup.co.uk,Wigan,E08000010,-2.524036,53.508657
Ancliffe Residential Care Home,Residential homes,"Warrington Road, Goose Green, Wigan",WN3 6QA,NA,http://www.minstercaregroup.co.uk,Wigan,E08000010,-2.654438,53.528472
Garswood House Residential Care Home,Nursing homes|Residential homes,"Garswood House, Wentworth Road, Ashton In Makerfield, Wigan",WN4 9TZ,2084227365,http://www.minstercaregroup.co.uk,Wigan,E08000010,-2.650334,53.493916
Golborne House Residential Care Home,Residential homes,"Derby Road, Golborne, Warrington",WA3 3JL,2084227365,http://www.minstercaregroup.co.uk,Wigan,E08000010,-2.588138,53.475191
Greenacres Residential Care Home,Residential homes,"Green Lane, Standish, Wigan",WN6 0TS,NA,http://www.minstercaregroup.co.uk,Wigan,E08000010,-2.666076,53.584631
The Fountains Nursing Home,Nursing homes,"Victoria Park, Swinton Hall Road, Swinton, Manchester",M27 4DZ,1617945814,http://www.thefountains.care,Salford,E0800006,-2.325854,53.509632
Serendipity Home,Nursing homes,"Greenfield Avenue, Urmston, Manchester",M41 0XN,1617473738,NA,Trafford,E0800009,-2.351358,53.450235
Bedford Care Home,Nursing homes,"Battersby Street, Leigh",WN7 2AH,1942262202,NA,Wigan,E08000010,-2.504373,53.494639
Burrswood Care Home,Nursing homes,"Newton Street, Bury",BL9 5HB,1617617526,NA,Bury,E0800002,-2.293552,53.609628
Gorton Parks Care Home,Nursing homes,"121 Taylor Street, Manchester",M18 8DF,1612209243,NA,Manchester,E0800003,-2.180174,53.465466
Eachstep Blackley,Nursing homes|Homecare agencies,"198 Charlestown Road, Blackley, Manchester",M9 7ED,1617956641,http://www.each-step.co.uk,Manchester,E0800003,-2.186902,53.52264
Lakelands Residential Care Home,Residential homes,"Grizedale Drive, Ince, Wigan",WN2 2LX,NA,http://www.minstercaregroup.co.uk,Wigan,E08000010,-2.599025,53.543162
Lyndhurst Residential Care Home,Residential homes,"College Street, Leigh",WN7 2RF,NA,http://www.minstercaregroup.co.uk,Wigan,E08000010,-2.509817,53.496045
Thorley House Residential Care Home,Residential homes,"Hazelmere Gardens, Hindley, Wigan",WN2 3QD,2084227365,http://www.minstercaregroup.co.uk,Wigan,E08000010,-2.567589,53.530552
Highgrove,Residential homes,"Broad Oak Lane, Bury",BL9 7NL,7809195902,NA,Bury,E0800002,-2.26805,53.599012
Cornish Close,Residential homes|Homecare agencies|Supported living,"1 Cornish Close, Off Staithes Road, Manchester",M22 0GJ,1614363848,http://www.potens-uk.com,Manchester,E0800003,-2.257769,53.369568
Claremont Care Home,Residential homes,"254-256 Washway Road, Sale",M33 4RZ,1619737130,NA,Trafford,E0800009,-2.335899,53.416537
Mill View Care Home,Nursing homes,"Bridgeman Street, Bolton",BL3 6SA,1204391211,NA,Bolton,E0800001,-2.434569,53.568517
Radcliffe House,Nursing homes,"26 Eastfields, Radcliffe, Manchester",M26 4QE,7869296256,NA,Bury,E0800002,-2.341458,53.571123
Next Steps Mental Health Levensulme,Nursing homes,"1055 Stockport Road, Manchester",M19 2TF,7515925199,NA,Manchester,E0800003,-2.186308,53.438868
Ashwood Residential Care Home,Residential homes,"1 Liverpool Road, Ashton In Makerfield, Wigan",WN4 9LH,1942722553,NA,Wigan,E08000010,-2.640327,53.486051
Oakdene Care Home,Nursing homes,"32-34 Stamford Road, Lees, Oldham",OL4 3LH,1616244594,NA,Oldham,E0800004,-2.067808,53.54326
Meade Close,Residential homes,"1-2 Meade Close, Urmston, Manchester",M41 5BL,1617468313,http://www.salutemhealthcareltd.com,Trafford,E0800009,-2.362477,53.447434
10 Spennithorne Road,Residential homes,"10 Spennithorne Road, Urmston, Manchester",M41 5BU,1617486414,NA,Trafford,E0800009,-2.365264,53.447614
Auden House Residential Home,Residential homes,"473 Audenshaw Road, Audenshaw, Manchester",M34 5PS,1613012424,http://www.audenhouse.com,Tameside,E0800008,-2.140224,53.473762
44 Glen Avenue,Residential homes,"44 Glen Avenue, Bolton",BL3 5QY,7538613409,NA,Bolton,E0800001,-2.460644,53.56817
Shannon Court Care Centre,Nursing homes,"112-114 Radcliffe Road, Bolton",BL2 1NY,1204396641,http://www.shannoncourt.co.uk,Bolton,E0800001,-2.410975,53.573627
Longwood Lodge Care Home,Residential homes,"61-63 Queens Road, Oldham",OL8 2BA,1616275868,NA,Oldham,E0800004,-2.100384,53.534689
Bamford Grange Care Home,Nursing homes,"239 Adswood Road, Shaw Heath, Stockport",SK3 8PA,1614778496,http://www.fshc.co.uk,Stockport,E0800007,-2.169126,53.391911
Hilltop Hall Nursing Home,Nursing homes,"Dodge Hill, Heaton Norris, Stockport",SK4 1RD,1614803634,http://www.harbourhealthcare.co.uk,Stockport,E0800007,-2.16061,53.41443
Hilltop Court Nursing Home,Nursing homes,"Dodge Hill, Heaton Norris, Stockport",SK4 1RD,1614804844,http://www.harbourhealthcare.co.uk,Stockport,E0800007,-2.16061,53.41443
Zeno Limited,Residential homes,"Newall Green Farm, 2 Newall Road, Manchester",M23 2TX,1617060360,http://www.zenoltd.co.uk,Manchester,E0800003,-2.290287,53.382157
The Crescent,Residential homes,"50 The Crescent, Davenport, Stockport",SK3 8SN,1612172300,http://www.engagesupport.co.uk,Stockport,E0800007,-2.149698,53.38764
Creative Support - Trafford Respite Service,Residential homes,"10 Shawe Road, Flixton, Trafford",M41 5DL,1617483562,http://www.creativesupport.co.uk,Trafford,E0800009,-2.371364,53.44782
Arden Court,Nursing homes,"76 Half Edge Lane, Eccles, Manchester",M30 9BA,1617079330,http://www.bloomcare.co.uk,Salford,E0800006,-2.33153,53.489176
Northenden House,Nursing homes,"448 Northenden Road, Sale",M33 2RB,1619626660,NA,Trafford,E0800009,-2.289269,53.415913
Choices for Living Well (Killelea),Residential homes|Homecare agencies|Rehabilitation (illness/injury),"Brandlesholme Road, Bury",BL8 1JJ,1612535900,NA,Bury,E0800002,-2.31831,53.613708
Urmston Manor,Residential homes,"61-63, Church Road, Urmston, Manchester",M41 9EJ,7429340652,NA,Trafford,E0800009,-2.358775,53.445818
Springfield Park Nursing Home,Nursing homes,"Springfield Park, Bolton Road, Rochdale",OL11 4RE,1706646333,http://www.selecthealthcaregroup.com,Rochdale,E0800005,-2.194836,53.604681
Heathcotes Wolsey House,Residential homes,"9a Cromwell Road, Eccles, Manchester",M30 0QT,1617079607,http://www.heathcotes.net,Salford,E0800006,-2.349077,53.484174
Brookfield Nursing Home,Nursing homes,"71 Crofts Bank Road, Urmston, Manchester",M41 0UB,1617475365,http://www.brookfieldnursinghome.com,Trafford,E0800009,-2.354257,53.451126
7 Fairmile Drive,Residential homes,"7 Fairmile Drive, Manchester",M20 5WS,7810523438,NA,Manchester,E0800003,-2.222014,53.40403
Sonning Drive,Residential homes,"12 Sonning Drive, Bolton",BL3 3RA,7869296256,http://www.nestlingscare.com,Bolton,E0800001,-2.468132,53.557085
Treetops Nursing Home,Nursing homes,"Carthage Street, Oldham",OL8 1LL,1616286811,http://www.treetopsnursinghome.co.uk,Oldham,E0800004,-2.110652,53.532271
92 Carlton Road,Residential homes,"92 Carlton Road, Whalley Range, Manchester",M16 8BE,1612493349,http://www.promisingfutures.care,Manchester,E0800003,-2.263656,53.451522
Franklin House Limited,Residential homes,"Franklin House, Franklin Street, Oldham",OL1 2DP,1616787870,http://franklinhouseoldham.co.uk,Oldham,E0800004,-2.117513,53.547374
Lakeview,Nursing homes,"121 Ena Crescent, Leigh",WN7 5ET,1709565700,http://www.exemplarhc.com,Wigan,E08000010,-2.538136,53.505179
Bluebell Court Care Home,Nursing homes,"Wellington Street West, Salford",M7 2FH,1617088604,http://www.unityhomes.co.uk,Salford,E0800006,-2.263602,53.503565
Elm Tree House,Residential homes,"Meadow View, Rochdale",OL12 7PB,1706868176,NA,Rochdale,E0800005,-2.191375,53.624623
Daisy House,Residential homes,"1139 Hyde Road, Manchester",M18 7LN,1613204915,NA,Manchester,E0800003,-2.154193,53.457925
The Bungalow,Residential homes,"54-56, Mossfield Road, Farnworth, Bolton",BL4 0AB,1204794172,NA,Bolton,E0800001,-2.410383,53.548372
Alexandra Lodge Care Centre,Nursing homes,"355-357 Wilbraham Road, Chorlton, Manchester",M16 8NP,1618605400,NA,Manchester,E0800003,-2.252735,53.443141
Springvale Resource Centre,Residential homes,"42 Springvale, Middleton, Manchester",M24 2HB,1616433142,NA,Rochdale,E0800005,-2.187946,53.550457
High Peak Lodge Residential & Nursing Home,Nursing homes,"Bedford Square, Leigh",WN7 2AA,1942262021,NA,Wigan,E08000010,-2.505267,53.495004
Crawford Street,Residential homes,"7 Crawford Street, Bolton",BL2 1JG,1204398122,http://www.boltoncares.org.uk,Bolton,E0800001,-2.416292,53.576872
Silverdene Residential Home,Residential homes,"709-711 Moston Lane, Moston, Manchester",M40 5QD,1612205840,http://www.vetacare.co.uk,Manchester,E0800003,-2.18494,53.518939
Paul Murphy Centre,Residential homes,"1067 - 1071 Rochdale Road, Rochdale Road, Manchester",M9 8AJ,1612205840,http://www.vestacare.co.uk,Manchester,E0800003,-2.213661,53.516851
Ashbrook Neuro Rehabilitation,Nursing homes,"Kitter Street, Rochdale",OL12 9SF,1706352159,NA,Rochdale,E0800005,-2.137684,53.633271
Albert Road,Residential homes,"24 Albert Road, Manchester",M19 2FP,1612248736,NA,Manchester,E0800003,-2.194522,53.44423
Woodrow House,Residential homes,"1 Brownsville Road, Stockport",SK4 4PE,1614709910,http://www.cygnethealth.co.uk,Stockport,E0800007,-2.181193,53.425492
Highfield Manor Care Home,Residential homes,"70 Manchester Road, Heywood",OL10 2AW,1706623388,NA,Rochdale,E0800005,-2.210416,53.586337
Highfield House Care Home,Residential homes,"Manchester Road, Heywood",OL10 2AN,1706624120,NA,Rochdale,E0800005,-2.210675,53.586615
The Willows,Residential homes,"Broad Lane, Rochdale",OL16 4PP,1706906940,NA,Rochdale,E0800005,-2.139781,53.599914
The Acres,Residential homes,"10 Rush Acre Close, Radcliffe, Manchester",M26 3XW,1618505333,NA,Bury,E0800002,-2.343631,53.561679
The Hamiltons Care Home,Residential homes,"350-352 Hamilton Street, Atherton, Manchester",M46 0BE,NA,NA,Wigan,E08000010,-2.501016,53.520495
Clare Mount,Nursing homes,"376-378, Rochdale Road, Middleton, Manchester",M24 2QQ,1616433317,NA,Rochdale,E0800005,-2.184788,53.563612
Bridge House Residential Home,Residential homes,"Bridge House Care Home, Topping Fold Road, Bury",BL9 7NQ,1617641736,NA,Bury,E0800002,-2.268392,53.59822
Carders Court Care Home,Nursing homes,"23 Ivor Street, Rochdale",OL11 3JA,1706712377,NA,Rochdale,E0800005,-2.18457,53.596572
The Oaks Private Residential Home,Residential homes,"Oak Avenue, Hindley Green, Wigan",WN2 4LZ,1942521485,NA,Wigan,E08000010,-2.557866,53.52542
Shaw Side Care Home,Nursing homes,"77 Oldham Road, Shaw, Oldham",OL2 8SP,1706882290,NA,Oldham,E0800004,-2.097752,53.570914
Next Steps Monton,Nursing homes,"69 Monton Street, Manchester",M14 4LS,7515925199,NA,Manchester,E0800003,-2.236868,53.457159
Beech Range,Residential homes,"3-5 Beech Range, Levenshulme, Manchester",M19 2EU,7741900429,http://www.homegroup.org.uk,Manchester,E0800003,-2.196535,53.443229
Lakeside Residential Care Home,Residential homes,"Smithy Bridge Road, Littleborough",OL15 0DB,1706377766,http://www.eldercare.org.uk,Rochdale,E0800005,-2.104742,53.631274
Worthington Lake Care Home,Residential homes,"Chorley Road, Standish, Wigan",WN1 2XN,7884433937,http://www.worthingtonlake.co.uk,Wigan,E08000010,-2.634805,53.592531
The Oaks Care Home,Residential homes,"Oak Avenue, Hindley Green, Wigan",WN2 4LZ,1942521485,http://www.theoakscare.co.uk,Wigan,E08000010,-2.557866,53.52542
Abbeycliffe Residential Care Home,Residential homes,"50 School Street, Radcliffe, Manchester",M26 3BP,1618502851,http://www.abbeycliffe.co.uk,Bury,E0800002,-2.329475,53.560388
Hurstead House Nursing Home,Nursing homes,"631 Halifax Road, Rochdale",OL12 9QU,1706379511,http://www.hursteadhouse.co.uk,Rochdale,E0800005,-2.126807,53.637265
Harboro,Residential homes,"34 Harboro Road, Sale",M33 5AH,1619732296,http://www.stockdales.org.uk,Trafford,E0800009,-2.337812,53.422473
Max Potential,Residential homes,"6 Meltham Place, Back Willows Lane, Bolton",BL3 4AD,1204416903,NA,Bolton,E0800001,-2.447006,53.566406
Medlock Court,Residential homes,"Medlock Way, Lees, Oldham",OL4 3LD,1617705081,NA,Oldham,E0800004,-2.071367,53.541308
Cherry Tree House,Nursing homes,"167 Compstall Road, Romiley, Stockport",SK6 4JA,1614496220,http://www.lmhealthcare.co.uk,Stockport,E0800007,-2.071305,53.415119
Take A Break With Choices,Residential homes|Homecare agencies,"9 Chadwick Street, The Hough, Bolton",BL2 1JN,1204393072,NA,Bolton,E0800001,-2.415214,53.576327
Rosemary Care Home,Residential homes,"13 Newhey Road, Milnrow, Rochdale",OL16 3NP,1706650429,NA,Rochdale,E0800005,-2.105754,53.606735
Park Crescent,Residential homes,"8 Park Crescent, Manchester",M14 5RE,7785465822,http://www.standwalk.com,Manchester,E0800003,-2.221476,53.453909
Griffin Lodge,Residential homes,"4-5 Griffin Lane, Heald Green, Cheadle",SK8 3PZ,1614371235,http://www.c-i-c.co.uk,Stockport,E0800007,-2.213969,53.362554
Astley Grange,Nursing homes,"288 Blackburn Road, Bolton",BL1 8DU,1204365435,NA,Bolton,E0800001,-2.431412,53.594831
Buccleugh Lodge,Nursing homes|Long-term conditions|Rehabilitation (illness/injury),"Elizabeth Slinger Road, Manchester",M20 2XA,1612173932,NA,Manchester,E0800003,-2.248027,53.425891
Short Break Service,Residential homes,"144 Wythenshawe Road, Manchester",M23 0PF,1619020951,http://www.cmft.nhs.uk,Manchester,E0800003,-2.280279,53.407917
Dermot Murphy Centre,Nursing homes|Long-term conditions,"91 Dermot Murphy Close, Withington, Manchester",M20 1FQ,1614453811,NA,Manchester,E0800003,-2.243866,53.432517
The Maples,Nursing homes|Long-term conditions,"Simpson Road, Boothstown, Worsley, Manchester",M28 1LT,1617897373,http://www.srft.nhs.uk,Salford,E0800006,-2.418748,53.502969
Heartly Green,Nursing homes|Hospice|Long-term conditions|Rehabilitation (illness/injury),"Cutnook Lane, Irlam, Salford",M44 6JX,NA,http://www.srht.nhs.uk,Salford,E0800006,-2.414711,53.452342
