name,address,ward,localAuthority,lon,lat
Coral Racing Ltd,"7 Smithy Green, Ince WN2 2AT",Ince,Wigan,-2.6059099,53.5433288
Totesport,115-117 Scholes Precinct WN1 3SD,Ince,Wigan,-2.6226455,53.5461666
Totesport,"162-164 Manchester Road, Ince WN2 2EA",Ince,Wigan,-2.6036955,53.5429369
Betfred,51 Chapel Street WN7 2PB,Leigh East,Wigan,-2.5094387,53.4954154
Betfred,6/8 King Street WN7 4LR,Leigh East,Wigan,-2.5197159,53.4944563
Ladbrokes,"Unit 23b, Spinning Gate WN7 4PG",Leigh East,Wigan,-2.5161095,53.4955014
Ladbrokes,"Unit 3-4, Market Arcade, 38A Leigh Road WN7 1QR",Leigh East,Wigan,-2.518471,53.5011587
Coral,34 Bradshawgate WN7 4LA,Leigh East,Wigan,-2.5175704,53.496236
Coral Racing Ltd,23 Market Street WN7 1DR,Leigh East,Wigan,-2.5187068,53.4970582
William Hill,2-8 Bradshawgate WN7 4LX,Leigh East,Wigan,-2.5189116,53.4963679
Totesport,92 Bradshawgate WN7 4NP,Leigh East,Wigan,-2.5149088,53.4959763
Ladbrokes,221 Chapel Street WN7 2AP,Leigh South,Wigan,-2.4997693,53.4924835
Coral Racing Ltd,44-46 Firs Lane WN7 4SB,Leigh West,Wigan,-2.5342827,53.4981699
Ashcrofts Bookmakers,230A City Road WN5 0BG,Pemberton,Wigan,-2.6825073,53.5440411
Coral Racing Ltd,646-648 Ormskirk Road WN5 8BE,Pemberton,Wigan,-2.6770093,53.5352856
William Hill,761-763 Ormskirk Road WN5 8AT,Pemberton,Wigan,-2.6838221,53.5364761
Ladbrokes,"3 Pole Street, Standish WN6 0HP",Standish with Langtree,Wigan,-2.6637228,53.5869874
Totesport,"9 Preston Road, Standish WN6 0HR",Standish with Langtree,Wigan,-2.6640961,53.5867583
Betfred,"215A-217 Elliott Street, Tyldesley M29 8DG",Tyldesley,Wigan,-2.464773,53.5141215
Ladbrokes,"159-161 Elliott Street, Tyldesley M29 8FL",Tyldesley,Wigan,-2.4683137,53.5141257
William Hill,189/191 Elliot Street M29 8DR,Tyldesley,Wigan,-2.466244,53.5140862
Betfred,"Unit 41/42, The Galleries, Mesnes Street WN1 1PX",Wigan Central,Wigan,-2.631536,53.548649
Ladbrokes,13-15 Market Place WN1 1PE,Wigan Central,Wigan,-2.6314157,53.546261
Coral,44 Wallgate WN1 1LD,Wigan Central,Wigan,-2.6335878,53.5440308
Coral Racing Ltd,9 Market Place WN1 1PE,Wigan Central,Wigan,-2.6315568,53.5460952
William Hill,7-9 Mesnes Street WN1 1QP,Wigan Central,Wigan,-2.6311697,53.5478242
Totesport,236 Scholes WN1 3NH,Wigan Central,Wigan,-2.6191998,53.5498811
Ladbrokes,57B Park Road WN6 7AE,Wigan West,Wigan,-2.6433226,53.5522548
Ladbrokes,"Unit 4, 8 Woodhouse Drive WN6 7NT",Wigan West,Wigan,-2.6589484,53.5562185
Corbett Bookmakers,445 Gidlow Lane WN6 7PN,Wigan West,Wigan,-2.6455327,53.5602723
Coral Betting Shop,"Winstanley District Centre, Holmes House Avenue WN3 6JA",Winstanley,Wigan,-2.6689261,53.5214026
Coral Racing Ltd,44 Carr Lane WN3 5ND,Worsley Mesnes,Wigan,-2.6421922,53.5238811
William Hill,165 Poolstock Lane WN3 5HW,Worsley Mesnes,Wigan,-2.6452915,53.5282077
William Hill,432 Warrington Road WN3 6QF,Worsley Mesnes,Wigan,-2.654795,53.5272337
Ladbrokes,13 Belmont Road BL1 7AF,Astley Bridge,Bolton,-2.4332348,53.6015298
Coral Racing Ltd,290-292 Bury Road BL2 6AY,Breightmet,Bolton,-2.3856641,53.5806664
Coral Racing Ltd,806 Bury Road BL2 6PA,Breightmet,Bolton,-2.3857351,53.5808262
Betfred,472-476 Halliwell Road BL1 8AN,Crompton,Bolton,-2.4451777,53.5946616
Ladbrokes,521 Tonge Moor Road BL2 3BG,Crompton,Bolton,-2.4114028,53.5968408
William Hill,227/229 Halliwell Road BL1 3NT,Crompton,Bolton,-2.436639,53.5919165
Totesport,150 Blackburn Road BL1 8DR,Crompton,Bolton,-2.4308157,53.5910599
Stan James,2 Slater Street BL4 9DP,Farnworth,Bolton,-2.3945241,53.5476539
Betfred,"124 Market Street, Farnworth BL4 9AE",Farnworth,Bolton,-2.3936906,53.5483602
William Hill,10 Brackley Street BL4 9DR,Farnworth,Bolton,-2.3936155,53.5480335
William Hill,"22 Glynne Street, Farnworth BL4 7DY",Farnworth,Bolton,-2.404358,53.550285
William Hill,"87 Glynne Street, Farnworth BL4 7DH",Farnworth,Bolton,-2.4066762,53.5495862
Betfred,12 Deansgate BL1 1BR,Great Lever,Bolton,-2.4273776,53.5796699
Betfred,33-35 Newport Street BL1 1NE,Great Lever,Bolton,-2.4289304,53.5763533
Betfred,"Unit 3,16-22 Oxford Street BL1 1RF",Great Lever,Bolton,-2.4299617,53.579275
Ladbrokes,21- 25 Great Moor Street BL1 1NZ,Great Lever,Bolton,-2.428369,53.5764204
Ladbrokes,223 Rishton Lane BL3 2BN,Great Lever,Bolton,-2.4281837,53.5626805
Ladbrokes,26 Market Street BL1 1BU,Great Lever,Bolton,-2.4291982,53.5791988
Ladbrokes,45-47 Deansgate BL1 1HQ,Great Lever,Bolton,-2.4289242,53.5795238
Coral Racing Ltd,1 Newport Street BL1 1NE,Great Lever,Bolton,-2.4288905,53.5771508
William Hill,22 Newport Street BL1 1NB,Great Lever,Bolton,-2.4288428,53.5763537
William Hill,279 Rishton Lane BL3 2EH,Great Lever,Bolton,-2.428439,53.560576
Ladbrokes,224-226 Chorley Old Road BL1 3BW,Halliwell,Bolton,-2.4495308,53.5857903
Ladbrokes,34 Newport Street BL1 1NB,Halliwell,Bolton,-2.4297651,53.5770218
William Hill,256-258 Chorley Old Road BL1 4JE,Halliwell,Bolton,-2.4512216,53.5865334
Betfred,"1 Derwent Road, Farnworth BL4 0QE",Harper Green,Bolton,-2.428964,53.5466068
Betfred,"20 Blackhorse Street, Blackrod BL6 5EW",Horwich and Blackrod,Bolton,-2.5875988,53.5940149
Betfred,"29-31 Winter Hey Lane, Horwich BL6 7AD",Horwich and Blackrod,Bolton,-2.5472019,53.5993121
Ladbrokes,"222 Chorley New Road, Horwich BL6 5NP",Horwich and Blackrod,Bolton,-2.5457292,53.5945135
Ladbrokes,"36 Lee Lane, Horwich BL6 7AE",Horwich and Blackrod,Bolton,-2.5459673,53.5997634
Bolton Wanderers Development Association (Chorley) Limited,"Bolton Wanderers Football Club, Macron Staduim, Burnden Way,Lostock BL6 6JW",Horwich and Blackrod,Bolton,-2.5369749,53.5813723
Ladbrokes,"33 Lee Lane, Horwich BL6 7AX",Horwich North East,Bolton,-2.5458792,53.5997822
Betfred,425-427 Wigan Road BL3 4QJ,Hulton,Bolton,-2.4665726,53.566617
Betfred,26 Manchester Road BL4 8NZ,Kearsley,Bolton,-2.3748398,53.5392862
Betfred,"Unit 1, 192 Manchester Road, Kearsley BL4 8QR",Kearsley,Bolton,-2.3690051,53.5374759
Ladbrokes,"2 -4 Norris Street, Farnworth BL4 9HG",Kearsley,Bolton,-2.3985779,53.5448886
Ladbrokes,"36-38 Higher Market Street, Farnworth BL4 9AJ",Kearsley,Bolton,-2.3918902,53.5462679
Betfred,"61 Market St, Little Lever BL3 1HH",Little Lever and Darcy Lever,Bolton,-2.371583,53.562262
William Hill,"5 Market Street, Little Lever BL3 1HH",Little Lever and Darcy Lever,Bolton,-2.3698579,53.5614549
Betfred,86 St. Helens Road BL3 3NP,Rumworth,Bolton,-2.4485386,53.5646814
Ladbrokes,171-173 St. Helens Road BL3 3PS,Rumworth,Bolton,-2.4510908,53.5631867
Ladbrokes,196 Deane Road BL3 5DP,Rumworth,Bolton,-2.4436182,53.5730606
Ladbrokes,"3-4 Derby Shopping Centre, Cannon Street BL3 5BP",Rumworth,Bolton,-2.4427942,53.5710679
Ladbrokes,147-151 Tonge Moor Road BL2 2HR,Tonge with the Haulgh,Bolton,-2.4127437,53.5893419
Coral Racing Ltd,322 Crompton Way BL2 2NE,Tonge with the Haulgh,Bolton,-2.4069976,53.5919143
William Hill,"32 Market Street, Westhoughton BL5 3AN",Westhoughton North and Chew Moor,Bolton,-2.5212728,53.548935
Betfred,57 Market Street BL5 3AG,Westhoughton South,Bolton,-2.5241818,53.548974
Ladbrokes,"7 Albert Place, Whitefield M45 8NE",Besses,Bury,-2.2770009,53.5513982
Ladbrokes,"Unit 4, Ribble Drive, Whitefield M45 8NA",Besses,Bury,-2.2852831,53.5508786
Betfred,30 Haymarket Street BL9 0AY,East,Bury,-2.2984214,53.5915236
Betfred,35 Market Street BL9 0BL,East,Bury,-2.2961236,53.5920545
Betfred,7 Silver Street BL9 0EU,East,Bury,-2.298309,53.5931428
Betfred,88 Rochdale Road BL9 7AY,East,Bury,-2.2868226,53.5930371
Coral,Unit 3 Princess Parade BL9 0QL,East,Bury,-2.2952592,53.5916488
Coral Racing Ltd,105 The Rock BL9 0NB,East,Bury,-2.2930754,53.5950339
Coral Racing Ltd,2 The Rock BL9 0NT,East,Bury,-2.2972745,53.593604
William Hill,1/3 Market Place BL9 0LD,East,Bury,-2.2973615,53.5934489
William Hill,4 Princess Parade BL9 0QL,East,Bury,-2.2952592,53.5916488
Totesport,58 Moorgate BL9 7AF,East,Bury,-2.2881885,53.5970225
Betfred,322 Tottington Road BL8 1TA,Elton,Bury,-2.3216896,53.6029921
Betfred,"417 Bury Old Road, Prestwich M25 1PS",Holyrood,Bury,-2.271555,53.536413
Betfred,168 Walmersley Road BL9 6LL,Moorside,Bury,-2.2902285,53.6019364
Ladbrokes,4 Ribble Drive BL9 6RT,North Manor,Bury,-2.292471,53.62208
Ladbrokes,"36 Stand Lane, Radcliffe M26 1LJ",Radcliffe East,Bury,-2.3232795,53.5578245
Coral Racing Ltd,"37-39 Cross Lane, Radcliffe M26 2QZ",Radcliffe East,Bury,-2.3168309,53.5640623
William Hill,"159 Ainsworth Road, Radcliffe M26 4FD",Radcliffe North,Bury,-2.3357511,53.5674536
Betfred,"130 Water Street, Radcliffe M26 4BE",Radcliffe West,Bury,-2.3348088,53.5630626
Betfred,"Unit 3 Apex Centre, Water Street, Radcliffe M26 4DF",Radcliffe West,Bury,-2.3341533,53.563032
Betfred,"11 Bridge Street, Ramsbottom BL0 9AB",Ramsbottom,Bury,-2.3150007,53.6480721
Ladbrokes,"35 Bolton Street, Ramsbottom BL0 9HU",Ramsbottom,Bury,-2.3188884,53.6479909
Betfred,203 Manchester Road BL9 9HL,Redvales,Bury,-2.2986306,53.5831521
Coral Racing Ltd,119-121 Radcliffe Road BL9 9LD,Redvales,Bury,-2.3030952,53.5806189
Betfred,"135 Bury New Road, Prestwich M25 9NX",St Mary's,Bury,-2.2767947,53.5236876
Betfred,"22 Longfield Centre, Prestwich M25 1AY",St Mary's,Bury,-2.2840896,53.5337397
Betfred,"Unit 5 Radius Devt Longfield Centre, Prestwich M25 1AY",St Mary's,Bury,-2.2838344,53.5329359
Coral Racing Ltd,"462 Bury New Road, Prestwich M25 1AX",St Mary's,Bury,-2.2850476,53.5329567
Ladbrokes,"48 Bury New Road, Prestwich M25 0JU",Sedgley,Bury,-2.2717099,53.5191012
William Hill,287 Middleton Road M8 4LY,Sedgley,Bury,-2.247248,53.5282801
Betfred,"7 Elms Square, Whitefield M45 7TA",Unsworth,Bury,-2.2947085,53.5530318
Coral Racing Ltd,384 Parr Lane BL9 8LU,Unsworth,Bury,-2.2808472,53.5564254
Betfred,586a and 586f Ashton New Road M11 4SG,Ancoats and Clayton,Manchester,-2.1867786,53.4833027
William Hill,593-595 Ashton New Road M11 4EA,Ancoats and Clayton,Manchester,-2.1875134,53.4834761
William Hill,1068 Ashton New Road M11 4PE,Ancoats and Clayton,Manchester,-2.1678531,53.4809437
Betfred,62 Hathersage Road M13 0FE,Ardwick,Manchester,-2.2183465,53.4598078
Betfred,"Unit 1 Grove Village Parade, Stockport Road M13 0SH",Ardwick,Manchester,-2.2156513,53.4656168
William Hill,58 Stockport Road M12 6AL,Ardwick,Manchester,-2.2219928,53.4685489
William Hill,62/64 Stockport Road M12 6AL,Ardwick,Manchester,-2.2217653,53.4684327
Lewis Bookmaker,Hall Lane M23 1AQ,Baguley,Manchester,-2.2783048,53.3966677
Betfred,83 Beswick Street M4 7HR,Bradford,Manchester,-2.2136682,53.4832036
Betfred,"Unit 9, Lime Square, Ashton Old Road M11 1DA",Bradford,Manchester,-2.1828822,53.4735267
William Hill,1294 Ashton Old Road M11 1JG,Bradford,Manchester,-2.1632778,53.4727517
William Hill,"Unit 3, Westlake Retail Park, Ashton Old Road M11 2SL",Bradford,Manchester,-2.1773182,53.4734748
Totesport,1299- 1303 Ashton Old Road M11 1JS,Bradford,Manchester,-2.163085,53.472939
Betfred,153 Moorcroft Road M23 0AE,Brooklands,Manchester,-2.2929741,53.4087442
Coral Racing Ltd,193 Fog Lane M20 6FJ,Burnage,Manchester,-2.2161657,53.4212624
William Hill,285-287 Mauldeth Road M19 1HL,Burnage,Manchester,-2.2009648,53.432695
William Hill,471 Kingsway M19 1NR,Burnage,Manchester,-2.2126776,53.4214447
William Hill,478 Burnage Lane M19 1LH,Burnage,Manchester,-2.2033594,53.4253576
Coral Racing Ltd,401 Hollinwood Avenue M40 0JQ,Charlestown,Manchester,-2.1742148,53.5246965
Ladbrokes,71 Cheetham Hill Road M4 4ES,Cheetham,Manchester,-2.2407393,53.4922556
Ladbrokes,"Unit 32 Manchester Fort Shopping Park, Cheetham Hill Road M8 8EP",Cheetham,Manchester,-2.2355575,53.4980882
David Pluck Bookmakers,481 Cheetham Hill Road M8 9LR,Cheetham,Manchester,-2.2418476,53.5081464
William Hill,283 Cheetham Hill Road M8 0SN,Cheetham,Manchester,-2.2360752,53.5010005
Coral Racing Ltd,442 Barlow Moor Road M21 0BQ,Chorlton,Manchester,-2.2773621,53.4430023
William Hill,168 Manchester Road M16 0DZ,Chorlton,Manchester,-2.2734504,53.4498818
William Hill,482 Wilbraham Road M21 9AS,Chorlton,Manchester,-2.2788294,53.4427387
William Hill,355 Barlow Moor Road M21 7FZ,Chorlton Park,Manchester,-2.2707994,53.4326754
William Hill,368 Barlow Moor Road M21 8AZ,Chorlton Park,Manchester,-2.2742865,53.438252
Paddy Power,"Unit F2, 44 City Tower,Piccadilly Plaza M1 4AJ",City Centre,Manchester,-2.237315,53.479833
Betfred,"De Quincy House, 86 Cross Street M2 4LA",City Centre,Manchester,-2.24526,53.4803825
Betfred,10 Mosley Street M2 3AQ,City Centre,Manchester,-2.2390918,53.4809011
Betfred,133 Deansgate M3 3WR,City Centre,Manchester,-2.2482598,53.4801951
Betfred,14 Nicholas Street M1 4EJ,City Centre,Manchester,-2.2405634,53.4784923
Betfred,18 Fountain Street M2 2AA,City Centre,Manchester,-2.240681,53.4816005
Betfred,7-9 Oldham Street M1 1LG,City Centre,Manchester,-2.2368633,53.4815558
Betfred,"Unit 3/5, 38 King Street West M3 2WZ",City Centre,Manchester,-2.2496,53.481446
Ladbrokes,15 Cross Street M2 1WE,City Centre,Manchester,-2.2439315,53.4820714
Ladbrokes,43 Deangate M3 2AY,City Centre,Manchester,-2.2466721,53.4828571
Ladbrokes,66-68 Bridge Street M3 2RJ,City Centre,Manchester,-2.2487802,53.480865
Coral Racing Ltd,"182C Arndale Centre, Market Street M4 2HU",City Centre,Manchester,-2.2402583,53.4843169
William Hill,18/20 Mosley Street M2 3AG,City Centre,Manchester,-2.2395265,53.4807484
William Hill,30 High Street M4 1QB,City Centre,Manchester,-2.23899,53.482845
William Hill,40-42 Oxford Street M1 5EJ,City Centre,Manchester,-2.2426317,53.4759219
William Hill,47 Deansgate M3 2AY,City Centre,Manchester,-2.2462888,53.4830007
William Hill,85 Piccadilly M1 2DA,City Centre,Manchester,-2.2336989,53.4803386
Raykin Limited,41 Faulkner Street M1 4EE,City Centre,Manchester,-2.2392002,53.4786725
Betfred,78 Bury Old Road M8 5BW,Crumpsall,Manchester,-2.2466258,53.514086
Ladbrokes,44 Bury Old Road M8 5BN,Crumpsall,Manchester,-2.2460154,53.5133029
David Pluck Bookmakers,11 -13 Lansdowne Road M8 5SF,Crumpsall,Manchester,-2.2367788,53.5155567
Coral Racing Ltd,24-26 Lansdowne Road M8 5SH,Crumpsall,Manchester,-2.2369646,53.5159344
David Pluck Racing,"Unit 2, 683-693 Wilmslow Road M20 6RE",Didsbury East,Manchester,-2.2309073,53.4169938
Betfred,487 Wilmslow Road M20 4AN,Didsbury West,Manchester,-2.2320489,53.4145768
Ladbrokes,11-13 Barlow Moor Road M20 6TN,Didsbury West,Manchester,-2.2323179,53.4176792
Betfred,334 Platt Lane M14 7DA,Fallowfield,Manchester,-2.238676,53.4467479
William Hill,315 Wilmslow Road M14 6NW,Fallowfield,Manchester,-2.2183943,53.4418409
Betfred,135-137 Chapman Street M18 8LY,Gorton North,Manchester,-2.1694129,53.464013
Betfred,582a Hyde Road M18 7EE,Gorton North,Manchester,-2.1753511,53.4612583
Coral Racing Ltd,"Unit 5, Gorton Retail Market, Garratt Way M18 8LD",Gorton North,Manchester,-2.1754002,53.462521
Coral Racing Ltd,155 Mount Road M18 7QT,Gorton South,Manchester,-2.1809275,53.4573069
Betfred,"Unit 15, North City Shoppping Centre, Lee Road M9 4DH",Harpurhey,Manchester,-2.2125722,53.5124516
Coral Racing Ltd,"21, North City Shopping Centre, 22 Lee Rd, Manchester M9 4DH",Harpurhey,Manchester,-2.211689,53.512951
William Hill,1 Harpurhey District Centre M9 5PR,Harpurhey,Manchester,-2.2114901,53.5123087
William Hill,317-319 Moston Lane M40 9NL,Harpurhey,Manchester,-2.1994185,53.5139929
Paddy Power,30 Hulme High Street M15 5JS,Hulme,Manchester,-2.2482322,53.4618715
Betfred,79 Erskine Street M15 4BS,Hulme,Manchester,-2.2596076,53.4651912
Ladbrokes,304-306 Oxford Road M13 9NS,Hulme,Manchester,-2.2303476,53.4627834
Paddy Power,958-960 Stockport Road M19 3NN,Levenshulme,Manchester,-2.1917816,53.4435667
Betfred,835-837 Stockport Road M19 3PW,Levenshulme,Manchester,-2.191148,53.4439301
William Hill,988-990 Stockport Road M19 3WN,Levenshulme,Manchester,-2.1907723,53.4424867
Paddy Power,551-553 Stockport Road M12 4JH,Longsight,Manchester,-2.2003337,53.4571371
Betfred,177 Dickenson Road M13 0YN,Longsight,Manchester,-2.2107902,53.4541749
William Hill,101 Beresford Road M13 0TA,Longsight,Manchester,-2.2020764,53.4510901
William Hill,108 Northmoor Road M12 5RS,Longsight,Manchester,-2.1931437,53.4558639
William Hill,562-564 Stockport Road M12 4JJ,Longsight,Manchester,-2.2007993,53.4568666
Ladbrokes,"20,22 Queens Walk, Droylsden M43 7AR",Longsight,Manchester,-2.1947889,53.4572719
Paddy Power,49 Old Church Street M40 2JN,Miles Platting and Newton Heath,Manchester,-2.1803931,53.5010487
Coral Racing Ltd,88-90 Old Church Street M40 2JF,Miles Platting and Newton Heath,Manchester,-2.1809527,53.5009545
William Hill,109 Culcheth Lane M40 1LY,Miles Platting and Newton Heath,Manchester,-2.175179,53.496556
William Hill,59/61 Old Church Street M40 2JN,Miles Platting and Newton Heath,Manchester,-2.1800527,53.5009008
Stan James,353 Claremont Road M14 7NB,Moss Side,Manchester,-2.2319278,53.4527992
Betfred,292-294 Claremont Road M14 4EP,Moss Side,Manchester,-2.2365725,53.4531833
William Hill,"Unit 5, 10A Wilmslow Road M14 5TP",Moss Side,Manchester,-2.2262629,53.45679
Coral Racing Ltd,14 Broadway M40 3LN,Moston,Manchester,-2.1672404,53.5205026
Betfred,344 Palatine Road M22 4HE,Northenden,Manchester,-2.2573234,53.4086812
William Hill,369-371 Palatine Road M22 4FY,Northenden,Manchester,-2.2572793,53.4079865
William Hill,"74 Mauldeth Road West, Withington M20 3FQ",Old Moat,Manchester,-2.231217,53.4383028
William Hill,"Unit 1, 21 Copson Street M20 3HE",Old Moat,Manchester,-2.2298209,53.4338126
William Hill,160 Hollyhedge Road M22 9UE,Sharston,Manchester,-2.2585751,53.3883868
William Hill,110-112 Withington Road M16 8FA,Whalley Range,Manchester,-2.2576175,53.4530459
Coral Racing Ltd,533 Wilmslow Road M20 4BA,Withington,Manchester,-2.2283961,53.4307635
William Hill,102 Mauldeth Road M14 6SQ,Withington,Manchester,-2.2139996,53.4351772
Stan James,"Unit C, Hale Top, Civic Centre, Wythenshawe M22 5RN",Woodhouse Park,Manchester,-2.2626544,53.3797771
Coral Racing,"Unit 24, Wythenshawe Shopping Centre, Wythenshawe M22 5RN",Woodhouse Park,Manchester,-2.2622497,53.378839
Totesport,"15  Hale Top, Civic Centre, Wythenshawe M22 5RP",Woodhouse Park,Manchester,-2.2618554,53.3792058
Totesport,5-6 Eldon Precinct OL8 1JP,Alexandra,Oldham,-2.1147149,53.5359698
Ladbrokes,"Unit 27, Chadderton PresinctChadderton OL9 0LQ",Chadderton North,Oldham,-2.140977,53.5452471
Ladbrokes Ltd,"Unit 10 Chadderton Shopping Precinct, Middleton Road, Chadderton OL9 0LQ",Chadderton North,Oldham,-2.1410034,53.5455849
Coral Racing Ltd,"Unit 26 Chadderton Precinct, Middleton Road, Chadderton OL9 0LJ",Chadderton North,Oldham,-2.140977,53.5452471
Coral Racing Ltd,"Top Flat, 347 Moston Lane M40 9NB",Chadderton South,Oldham,-2.1657509,53.521148
Betfred,"1/3 Coalshaw Green Road, Chadderton OL9 8JW",Chadderton South,Oldham,-2.1452813,53.5295556
Betfred,"Unit 36B, Spindles Shopping Centre OL1 1HE",Coldhurst,Oldham,-2.1147393,53.5411888
Ladbrokes,23A-25 Market Place OL1 3AB,Coldhurst,Oldham,-2.1149374,53.5421839
Ladbrokes,265 Featherstall Road North OL1 2NJ,Coldhurst,Oldham,-2.1248566,53.5488313
Ladbrokes,283 Featherstall Road North OL1 2NH,Coldhurst,Oldham,-2.1240736,53.5491428
Ladbrooks,35 Albion Street OL1 3BQ,Coldhurst,Oldham,-2.1197667,53.5494509
Paddy Power,13-15 Henshaw Street OL1 1NH,Coldhurst,Oldham,-2.115376,53.543534
Coral Racing Ltd,20-24 Henshaw Street OL1 3AA,Coldhurst,Oldham,-2.1149954,53.5442035
William Hill,18 High Street OL1 1JA,Coldhurst,Oldham,-2.1128119,53.5419228
Coral,"6 Partington Street, Failsworth M35 9RD",Failsworth East,Oldham,-2.1539996,53.5084669
William Hill,"2-4 Ashton Road East, Failsworth M35 9PT",Failsworth East,Oldham,-2.1534429,53.5101361
William Hill,"723A Oldham Road, Failsworth M35 9AU",Failsworth East,Oldham,-2.1465842,53.5180759
William Hill,"760/762 Oldham Road, Failsworth M35 9FE",Failsworth East,Oldham,-2.1472608,53.5170305
Coral Racing Ltd,"Unit 10, Failsworth Precinct, Failsworth M35 0EJ",Failsworth West,Oldham,-2.1587193,53.5097572
Coral Racing Ltd,Unit 2 Failsworth Precinct M35 0FF,Failsworth West,Oldham,-2.1587193,53.5097572
Whitehouse Bookmakers,692 Hollins Road OL8 4JZ,Hollinwood,Oldham,-2.1331788,53.5213191
Ladbrokes,2 Hollins Road OL8 3EA,Medlock Vale,Oldham,-2.1115575,53.5267141
Ladbrokes Ltd,312-318 Ashton Road OL8 3ED,Medlock Vale,Oldham,-2.1117499,53.5271718
Ladbrokes Ltd,"5-7 Market Square, Royton OL2 5QD",Royton North,Oldham,-2.1234234,53.5661897
Coral Racing Ltd,Unit 2 Market Square OL2 5QD,Royton North,Oldham,-2.1227419,53.5662577
William Hill,"11-13 Market Street, Royton OL2 5QA",Royton North,Oldham,-2.123694,53.565785
William Hill,"101 High Street, Lees OL4 4LY",Saddleworth West and Lees,Oldham,-2.0710219,53.5377683
William Hill,175 Huddersfield Road OL1 3PA,St James',Oldham,-2.0904054,53.5469885
Ladbrokes,13A Yorkshire Street OL1 3RZ,St Mary's,Oldham,-2.1109332,53.5422259
Whitehouse Bookmakers,300 Lees Road OL4 1NZ,St Mary's,Oldham,-2.0890317,53.5400443
Coral Racing Ltd,"11 Beal Lane, Shaw OL2 8UY",Shaw,Oldham,-2.0915982,53.5772956
Coral Racing Ltd,"86/88 Market Street, Shaw OL2 8NP",Shaw,Oldham,-2.0944144,53.5755343
William Hill,12 Market Street OL2 8NH,Shaw,Oldham,-2.0936391,53.5775045
Lewis Bookmakers,148 Huddersfield Road OL4 2RD,Waterhead,Oldham,-2.0889508,53.5473009
Coral Racing Ltd,461 Huddersfield Road OL4 2HT,Waterhead,Oldham,-2.0769436,53.549572
Ladbrokes,"2 The Strand, Kirkholt OL11 2JG",Balderstone and Kirkholt,Rochdale,-2.156443,53.5940025
Betfred,820-822 Manchester Road OL11 3AW,Castleton,Rochdale,-2.179992,53.5924025
Betfred,61-63 Halifax Road OL12 9BA,Central Rochdale,Rochdale,-2.1430536,53.6254758
William Hill,162 Whitworth Road OL12 0JG,Central Rochdale,Rochdale,-2.155972,53.6258458
William Hill,83 Whitworth Road OL12 0RD,Central Rochdale,Rochdale,-2.1560661,53.6247841
William Hill,"446/448 Oldham Road, Middleton M24 2FA",East Middleton,Rochdale,-2.1771672,53.5510239
Ladbrokes,"Unit 4, Amenity Building, Birch Motorway Service Station, Eastbound M62 OL10 2QH",Hopwood Hall,Rochdale,-2.2329082,53.5684756
Betfred,"Unit 2 Mayfiled Public House, Albert Royds Street OL16 2UE",Kingsway,Rochdale,-2.134339,53.623562
William Hill,409-411 Oldham Road OL16 4SZ,Kingsway,Rochdale,-2.1460765,53.6034493
Ladbrokes,29 Church Street OL15 8DA,Littleborough Lakeside,Rochdale,-2.094704,53.643767
William Hill,50 Church Street OL15 8AU,Littleborough Lakeside,Rochdale,-2.0966078,53.6440035
Paddy Power,15 Yorkshire Street OL16 1BH,Milkstone and Deeplish,Rochdale,-2.158605,53.617293
Betfred,7 Yorkshire Street OL16 1BH,Milkstone and Deeplish,Rochdale,-2.1584418,53.6170715
Ladbrokes,13 The Butts OL16 1ES,Milkstone and Deeplish,Rochdale,-2.1576655,53.6173396
Ladbrokes,29 Tweedale Street OL11 1HH,Milkstone and Deeplish,Rochdale,-2.1584145,53.6097455
Coral Racing Ltd,25 Drake Street OL16 1RX,Milkstone and Deeplish,Rochdale,-2.1556135,53.616332
Coral Racing Ltd,85 Milkstone Road OL11 1NT,Milkstone and Deeplish,Rochdale,-2.1548616,53.608394
William Hill,108 Yorkshire Street OL16 1JY,Milkstone and Deeplish,Rochdale,-2.1553632,53.619147
William Hill,4/6 Baillie Street OL16 1JG,Milkstone and Deeplish,Rochdale,-2.1576795,53.6175434
Ladbrokes,"Unit7, Stone Street Precint, Newhey Road, Milnrow OL16 4JD",Milnrow and Newhey,Rochdale,-2.107777,53.607687
Betfred,106 Manchester Street OL10 1DW,North Heywood,Rochdale,-2.211661,53.589735
David Pluck Racing,14-16 Market Street OL10 4LY,North Heywood,Rochdale,-2.2215648,53.5937895
William Hill,47/49 Market Place OL10 4NL,North Heywood,Rochdale,-2.2226335,53.5935785
William Hill,83 York Street OL10 4NR,North Heywood,Rochdale,-2.215976,53.5935989
Betfred,"23 Long Street, Middleton M24 6UQ",North Middleton,Rochdale,-2.1978975,53.5501083
Coral Racing Ltd,"14A-16 Wood Street, Middleton M24 5TF",North Middleton,Rochdale,-2.1994788,53.5502662
William Hill,"223 Boarshaw Road, Middleton M24 2WQ",North Middleton,Rochdale,-2.187107,53.556725
William Hill,"8A & 8B Wood Street, Middleton M24 5TF",North Middleton,Rochdale,-2.198885,53.549954
Bob Holmes Bookmaker,"6 Chapel Walks, Middleton M24 4QB",South Middleton,Rochdale,-2.224595,53.544149
Betfred,"183 Kirkway, Middleton M24 1LW",South Middleton,Rochdale,-2.1933288,53.5380082
Ladbrokes,"Unit 47/48, Middleton Shopping Centre, Middleton M24 4EL",South Middleton,Rochdale,-2.2007711,53.5483865
Coral Racing Ltd,"378 Lower Falinge, Rochdale OL12 6BR",Spotland and Falinge,Rochdale,-2.1670249,53.6235569
Betfred,80 Bury Street OL10 4QT,West Heywood,Rochdale,-2.2340543,53.5932385
Ladbrokes,20 Argyle Parade OL10 3RY,West Heywood,Rochdale,-2.241075,53.5878878
William Hill,"1A Lakeland Court, Middleton M24 5QJ",West Middleton,Rochdale,-2.2152981,53.5571431
Betfred,"276-278 Liverpool Road, Eccles M30 0RZ",Barton,Salford,-2.3565624,53.4820862
William Hill,"Unit C, 311 Liverpool Road, Eccles M30 0QN",Barton,Salford,-2.3577387,53.4812114
Betfred,5 Standfield Centre M28 1FB,Boothstown and Ellenbrook,Salford,-2.4160893,53.502771
Betfred,15 Mocha Parade M7 1QE,Broughton,Salford,-2.2606719,53.4917119
Ladbrokes,267 Great Cheetham Street East M7 4UF,Broughton,Salford,-2.2550428,53.503066
Betfred,"192A-192B Liverpool Road, Cadishead M44 5DB",Cadishead,Salford,-2.4389097,53.4242571
William Hill,"547 Liverpool Road, Irlam M44 6ZT",Cadishead,Salford,-2.4273551,53.4386415
William Hill,375 Bolton Road M6 7NJ,Claremont,Salford,-2.308753,53.5007597
Betfred,"110 Monton Road, Eccles M30 9PY",Eccles,Salford,-2.3481685,53.4895408
Betfred,"64 Church Street, Eccles M30 0DA",Eccles,Salford,-2.3358081,53.4830797
Coral Racing Ltd,"35-37 Church Street, Eccles M30 0BJ",Eccles,Salford,-2.335384,53.4837032
William Hill,"56 Church Street, Eccles M30 0DF",Eccles,Salford,-2.3370403,53.4838089
Betfred,"92-94 Liverpool Road, Irlam M44 6FN",Irlam,Salford,-2.4097773,53.4528806
Betfred,220 Chapel Street M3 5LE,Irwell Riverside,Salford,-2.2594837,53.4835372
Betfred,333-335 Bolton Road M6 7GU,Irwell Riverside,Salford,-2.3070465,53.499916
Betfred,Broughton Road M6 6LS,Irwell Riverside,Salford,-2.2839306,53.4930652
Betfred,307-309 Littleton Road M7 3TA,Kersal,Salford,-2.2799816,53.5040366
Betfred,6 Union Terrace M7 4ZH,Kersal,Salford,-2.2458434,53.5125891
William Hill,"12 Union Terrace, Bury Old Road M7 4ZH",Kersal,Salford,-2.2458434,53.5125891
Betfred,177-179 Langworthy Road M6 5PW,Langworthy,Salford,-2.2950678,53.485955
Betfred,43-44 Hankinson Way M6 5JA,Langworthy,Salford,-2.286436,53.4888132
Betfred,80 Pendleton Way M6 5FW,Langworthy,Salford,-2.2877905,53.4903935
Ladbrokes,"114 Sutton Way, Salford Shopping City M6 5HS",Langworthy,Salford,-2.2874613,53.4896761
William Hill,161 Langworthy Road M6 5PW,Langworthy,Salford,-2.2947677,53.4856548
William Hill,47-48 Market Way M6 5HG,Langworthy,Salford,-2.288072,53.4880936
William Hill,505-507 Liverpool Street M6 5QQ,Langworthy,Salford,-2.2978408,53.4838744
Ladbrokes,"38 Hulton District Centre, Worsley M28 0AU",Little Hulton,Salford,-2.4231123,53.5296967
William Hill,"Unit 9, Hulton District Centre, Worsley M28 0BA",Little Hulton,Salford,-2.4221821,53.5298867
Betfred,"582-584 Bolton Road, Pendlebury, Swinton M27 4ET",Pendlebury,Salford,-2.3296756,53.51706
Stan James,"696-698 Bolton Road, Pendlebury, Swinton M27 6EL",Swinton North,Salford,-2.3334748,53.5191396
William Hill,465 Chorley Road M27 9RH,Swinton North,Salford,-2.3511738,53.5168766
Betfred,"21 The Parade, Swinton M27 4BH",Swinton South,Salford,-2.3378012,53.5132947
Done Bookmakers,"Unit 21-23  The Parade, Swinton M27 4BH",Swinton South,Salford,-2.3378012,53.5132947
Coral Racing Ltd,"5 The Parade, Swinton M27 4BH",Swinton South,Salford,-2.3383925,53.5125091
William Hill,"243 Manchester Road, Swinton M27 4TT",Swinton South,Salford,-2.3319595,53.5078961
Betfred,"500 Manchester Road East, Little Hulton M38 9NS",Walkden North,Salford,-2.4234771,53.531182
Betfred,"Unit 150/151  Ellesmere Shopping Centre, Bolton Road, Worsley M28 3ZH",Walkden North,Salford,-2.400132,53.524892
Betfred,"Unit 4 Radclyffe Park, Trafford Road M5 3PH",Walkden North,Salford,-2.411549,53.5332496
Ladbrokes,"Unit 40, Ellesmere Shopping Centre, Bolton Road, Worsley M28 3ZD",Walkden North,Salford,-2.400132,53.524892
Coral Racing Ltd,"Unit 61, Ellesmere Shopping Centre, Bolton Road, Worsley M28 3ZD",Walkden North,Salford,-2.400132,53.524892
William Hill,132 Walkden Road M28 7DP,Walkden South,Salford,-2.3964039,53.5189642
Betfred,67 Tootal Road M5 5EG,Weaste and Seedley,Salford,-2.3116747,53.4845251
Betfred,"392 Worsley Road, Eccles M30 8HQ",Winton,Salford,-2.3719439,53.491028
Betfred,498-502 Liverpool Road M30 7HZ,Winton,Salford,-2.3655111,53.4786183
William Hill,"226 Moss Lane, Bramhall SK7 1BD",Bramhall South and Woodford,Stockport,-2.1667599,53.3571963
Ladbrokes,"Unit 1, Woodley Precinct, Woodley SK6 1RJ",Bredbury and Woodley,Stockport,-2.1011286,53.4262177
William Hill,"41 Woodley Precinct, Woodley SK6 1RJ",Bredbury and Woodley,Stockport,-2.1011286,53.4262177
Coral Racing Ltd,"21 The Precinct, Romiley SK6 4EA",Bredbury Green and Romiley,Stockport,-2.0860311,53.4137609
Corals,"162 Higher Bents Lane, Bredbury SK6 2LU",Bredbury Green and Romiley,Stockport,-2.1059243,53.4161497
Betfred,111 Princes Street SK1 1RW,Brinnington and Central,Stockport,-2.1625766,53.4107461
Betfred,19 Warren Street SK1 1UD,Brinnington and Central,Stockport,-2.1575623,53.4126116
Ladbrokes,16-18 Great Underbank SK1 1LW,Brinnington and Central,Stockport,-2.1583368,53.4114999
William Hill,18 Princes Street SK1 1SE,Brinnington and Central,Stockport,-2.1592113,53.4124966
William Hill,8 Little Underbank SK1 1JT,Brinnington and Central,Stockport,-2.1577816,53.4110183
William Hill,"7/8, Brinnington Village Centre, SK5 8BA",Brinnington and Central,Stockport,-2.133997,53.427092
Ladbrokes,"1 Church Road, Gatley SK8 4NG",Cheadle and Gatley,Stockport,-2.2360248,53.3918853
David Pluck Bookmakers,42 High Street SK8 1AE,Cheadle and Gatley,Stockport,-2.2161905,53.3946481
William Hill,19 High Street SK8 1AX,Cheadle and Gatley,Stockport,-2.2143368,53.3948272
William Hill,153 Councillor Lane SK8 2JE,Cheadle Hulme North,Stockport,-2.194189,53.3910669
Betfred,"Unit 30B, Cheadle Hulme Shopping Precinc SK8 5AF",Cheadle Hulme South,Stockport,-2.1898165,53.3776839
William Hill,"15 Station Road, Cheadle Hulme SK8 5AF",Cheadle Hulme South,Stockport,-2.1895295,53.3774803
William Hill,276 Adswood Road SK3 8PN,Davenport and Cale Green,Stockport,-2.1698678,53.3893928
Lewis Bookmakers,100-102 Castle Street SK3 9AL,Edgeley and Cheadle Heath,Stockport,-2.1683642,53.4016229
William Hill,154-156 Grenville Street SK3 9EU,Edgeley and Cheadle Heath,Stockport,-2.1700689,53.4017606
William Hill,17 Castle Street SK3 9AT,Edgeley and Cheadle Heath,Stockport,-2.1641242,53.4023034
Betfred,"101 London Road, Hazel Grove SK7 4AX",Hazel Grove,Stockport,-2.1240753,53.3818893
Betfred,"3 Fiveways Parade, Hazel Grove SK7 6DG",Hazel Grove,Stockport,-2.114207,53.3679225
William Hill,"186-188 London Road, Hazel Grove SK7 4DQ",Hazel Grove,Stockport,-2.1222071,53.3799317
Betfred,"236 Finney Lane, Heald Green SK8 3QA",Heald Green,Stockport,-2.2332893,53.3702288
Coral Racing Ltd,"258 Finney Lane, Heald Green SK8 3QD",Heald Green,Stockport,-2.2347932,53.3703657
Coral Bookmakers,108 Heaton Moor Road SK4 4NZ,Heatons North,Stockport,-2.1840961,53.4229556
Coral Bookmakers Paul Dean Bookmakers,478 Didsbury Road SK4 3BS,Heatons South,Stockport,-2.2061224,53.4121254
William Hill,64-66 Buxton Road SK2 6NB,Manor,Stockport,-2.1503013,53.396601
Coral,"95 Church Lane, Marple SK6 7AW",Marple South,Stockport,-2.0647342,53.3931931
William Hill,140 Lisburne Lane SK2 5RH,Offerton,Stockport,-2.1237151,53.3972697
Lewis Bookmakers,6-8 Broadstone Road SK5 7AE,Reddish North,Stockport,-2.1605275,53.4372844
William Hill,5-9 Leamington Road SK5 6BD,Reddish North,Stockport,-2.161314,53.4374575
William Hill,604-608 Gorton Road SK5 6RE,Reddish North,Stockport,-2.1575196,53.4534441
Totesport,32 Gorton Road SK5 6AE,Reddish North,Stockport,-2.1595393,53.4380341
David Pluck Racing,"105-107 Reddish Lane, Denton M34 2NF",Reddish North,Stockport,-2.1583238,53.4545271
William Hill,418-420 Manchester Road SK4 5BY,Reddish South,Stockport,-2.1745675,53.4281447
David Pluck Racing,349 Buxton Road SK2 7NL,Stepping Hill,Stockport,-2.1361228,53.388716
Coral Racing Ltd,240 Kings Road OL6 8HD,Ashton St Michael's,Tameside,-2.0790095,53.500338
Coral Racing Ltd,252-254 Whiteacre Road OL6 9QB,Ashton St Michael's,Tameside,-2.0795192,53.4957192
Coral Racing Ltd,48 Stamford Square OL6 6QW,Ashton St Michael's,Tameside,-2.0782193,53.4869047
Coral Racing Ltd,336 Oldham Road OL7 9AU,Ashton Waterloo,Tameside,-2.1031389,53.4984631
Lewis Bookmakers,"2-2A Stockport Road, Denton M34 6DA",Denton North East,Tameside,-2.1138713,53.4559296
Betfred,"177-179 Stockport Road, Denton M34 1AQ",Denton North East,Tameside,-2.1114988,53.4519216
Coral Racing Ltd,"32 Ashton Road, Denton M34 3EX",Denton North East,Tameside,-2.1140355,53.4570258
William Hill,"3-5 Manchester Road, Denton M34 3JU",Denton North East,Tameside,-2.1153057,53.4559853
Betfred,"101 Haughton Green Road, Denton M34 1GR",Denton South,Tameside,-2.0979813,53.4410783
David Pluck Racing,"130-132 Market Street, Droylsden M43 7AA",Droylsden East,Tameside,-2.1450515,53.480086
Coral Racing Ltd,"Unit L, Droylsden Shopping Centre M43 6DE",Droylsden East,Tameside,-2.1459747,53.4803082
William Hill,"135-137 Market Street, Droylsden M43 7AR",Droylsden East,Tameside,-2.1458199,53.4800289
William Hill,"Fiveways, 164A Greenside Lane, Droylsden M43 7UR",Droylsden West,Tameside,-2.151003,53.484872
William Hill,113-117 King Street SK16 4NQ,Dukinfield,Tameside,-2.0939855,53.4798473
Ladbrokes,"34, 36 & 38 Grosvenor Street SK15 2JN",Dukinfield Stalybridge,Tameside,-2.057121,53.481412
David Pluck Racing,Unit 1 28-36 Melbourne Street SK15 2JJ,Dukinfield Stalybridge,Tameside,-2.0571777,53.4825356
Coral Racing Ltd,45 Grosvenor Street SK15 2JN,Dukinfield Stalybridge,Tameside,-2.0577729,53.4813477
William Hill,10 Melbourne Street SK15 2JE,Dukinfield Stalybridge,Tameside,-2.0577216,53.4833309
William Hill,142 Cheetham Hill Road SK16 5JJ,Dukinfield Stalybridge,Tameside,-2.0701103,53.4753515
Betfred,16A Market Place SK14 2QU,Hyde Godley,Tameside,-2.0813138,53.4522986
William Hill,9 Market Place SK14 2LX,Hyde Godley,Tameside,-2.0787685,53.4516542
Betfred,2 Bennett Street SK14 4TQ,Hyde Newton,Tameside,-2.0766869,53.4629254
Ladbrokes,92 Market Street SK14 1ES,Hyde Werneth,Tameside,-2.0785222,53.4501017
Betfred,"Unit 16A, Katherine Street, Arcades Shopping Centre OL6 7JE",St Peter's,Tameside,-2.0951653,53.4896372
Betfred,"Unit 16C, Katherine Street, Arcades Shopping Centre OL6 7JE",St Peter's,Tameside,-2.0951653,53.4896372
Betfred,"Unit 40, The Arcades, Warrington Street OL6 7JD",St Peter's,Tameside,-2.0951653,53.4896372
Ladbrokes,"36-38 Staveleigh Mall, Ladysmith Centre OL6 7JJ",St Peter's,Tameside,-2.0958891,53.4887623
Ladbrokes,85 Old Street OL6 7RS,St Peter's,Tameside,-2.0939693,53.4879818
Coral Racing Ltd,"26 Warrington Street, OL6 6AS",St Peter's,Tameside,-2.093245,53.488037
Coral Racing Ltd,"7 Chapel Street, Audenshaw M34 5DE",St Peter's,Tameside,-2.1122083,53.46875
Coral Racing Ltd,86 Stockport Road OL7 0LH,St Peter's,Tameside,-2.107333,53.4807001
William Hill,37 Old Street OL6 6BB,St Peter's,Tameside,-2.0918037,53.4885064
Betfred,100 George Street WA14 1RF,Altrincham,Trafford,-2.3513727,53.3863497
Ladbrokes,2A-4 Regent Road WA14 1RE,Altrincham,Trafford,-2.3489495,53.3876928
William Hill,85 Manchester Road WA14 4RJ,Altrincham,Trafford,-2.3523246,53.396798
Coral Racing Ltd,8/10 Green Lane M33 5PH,Ashton upon Mersey,Trafford,-2.341546,53.42921
Betfred,8 Brooklands Road M33 3SQ,Brooklands,Trafford,-2.3252343,53.4168361
William Hill,5 Partington Shopping Centre M31 4EL,Bucklow-St Martins,Trafford,-2.4255998,53.4188142
Betfred,107 Ayres Road M16 7GS,Clifford,Trafford,-2.2681968,53.458376
Betfred,175 Chorlton Road M16 7WS,Clifford,Trafford,-2.2580326,53.4590315
William Hill,27 Chorlton Street M16 9HN,Clifford,Trafford,-2.2687535,53.4637423
Betfred,"9/9A Lostock Road, Urmston M41 0SU",Davyhulme East,Trafford,-2.355999,53.458276
Ladbrokes,"9b Lostock Road, Urmston M41 0SU",Davyhulme East,Trafford,-2.3561603,53.4583072
Coral Racing Ltd,"6 Davyhulme Circle, Urmston M41 0SS",Davyhulme East,Trafford,-2.3566101,53.457229
William Hill,"13 Woodsend Circle, Urmston M41 8GY",Davyhulme West,Trafford,-2.3942203,53.4527173
William Hill,"Unit 4  Woodsend Circle, Flixton M41 8GY",Davyhulme West,Trafford,-2.393459,53.452523
Betfred,"890 Chester Road, Stretford M32 0PA",Gorse Hill,Trafford,-2.2989021,53.4543995
Ladbrokes,"676 Chester Road, Stretford M32 0SF",Gorse Hill,Trafford,-2.2881284,53.4612387
Coral Racing Ltd,"408 Barton Road, Stretford M32 9RW",Gorse Hill,Trafford,-2.3252604,53.4543387
Betfred,34 Hale Road WA14 2EX,Hale Central,Trafford,-2.3485797,53.3815943
Coral Racing Ltd,"87 Great Stone Road, Stretford M32 8GR",Longford,Trafford,-2.2861085,53.4528601
William Hill,"5 Talbot Road, Old Trafford M16 0QT",Longford,Trafford,-2.2758461,53.462047
Ladbrokes,41 School Road M33 7YE,Priory,Trafford,-2.3228165,53.4249794
David Pluck Racing,12 Northenden Road M33 3BR,Priory,Trafford,-2.3169509,53.4238156
Coral Racing Ltd,19A School Road M33 7XX,Priory,Trafford,-2.3211566,53.4247841
William Hill,19C School Road M33 7XX,Priory,Trafford,-2.321041,53.424744
Betfred,58 Coppice Avenue M33 4WB,St Mary's,Trafford,-2.3512242,53.4145674
David Pluck Racing,141 Northenden Road M33 3HF,Sale Moor,Trafford,-2.3038403,53.4198924
Coral Racing Ltd,384 Northenden Road M33 2PT,Sale Moor,Trafford,-2.2912701,53.418803
William Hill,147-151 Northenden Road M33 2HS,Sale Moor,Trafford,-2.3032207,53.4199374
Ladbrokes,"Unit 123, Arndale Centre, Stretford M32 9BH",Stretford,Trafford,-2.3099387,53.4451707
William Hill,"28 Moss Road, Stretford M32 0AH",Stretford,Trafford,-2.318375,53.4480874
Betfred,"349 Stockport Road, Timperley WA15 7UG",Timperley,Trafford,-2.3192321,53.3974458
Coral Racing Ltd,5A-7  Flixton Road M41 5AW,Urmston,Trafford,-2.3554583,53.4483297
William Hill,"Plot 3, Unit 18, Golden Way, M41 0NA",Urmston,Trafford,-2.354178,53.449325
William Hill,"256 Stockport Road, Timperley WA15 7UT",Village,Trafford,-2.3179081,53.3974584
Betfred,"Unit 4 Walthew Parade, Walthew Lane WN2 5AL",Abram,Wigan,-2.598375,53.519929
Totesport,"48-50 Warrington Road, Platt Bridge WN2 5JA",Abram,Wigan,-2.5977454,53.5175714
Ladbrokes,"3 The Gerard Centre, Gerard Street, Ashton-In-Makerfield WN4 9AN",Ashton,Wigan,-2.6367043,53.4867736
Coral Racing Ltd,"12-14 Gerard Street, Ashton-In-Makerfield WN4 9AA",Ashton,Wigan,-2.6371055,53.487257
William Hill,"25A The Gerard Centre, Gerard Street, Ashton-In-Makerfield WN4 9AN",Ashton,Wigan,-2.6367043,53.4867736
Betfred,73 Westleigh Lane WN7 5JE,Atherleigh,Wigan,-2.5267231,53.5116063
Ladbrokes,"44 Market Street, Atherton M46 0DG",Atherleigh,Wigan,-2.4924417,53.5236198
William Hill,"46 Market Street, Atherton M46 0DG",Atherleigh,Wigan,-2.4925376,53.5236268
Betfred,"100 Bolton Road, Atherton M46 9JY",Atherton,Wigan,-2.4834346,53.5276163
William Hill,1 Brierfield Avenue M46 0HA,Atherton,Wigan,-2.4948484,53.5290702
Bet Fred,"Unit5/6 Bryn Road, Ashton-in-Makerfield WN4 0AA",Bryn,Wigan,-2.646485,53.5016186
Betfred,399-401 Ormskirk Road WN5 9DH,Douglas,Wigan,-2.6670732,53.535668
Betfred,6-10 Wallgate WN1 1JU,Douglas,Wigan,-2.6341682,53.5436026
William Hill,137 Ormskirk Road WN5 8AQ,Douglas,Wigan,-2.6552988,53.538514
Totesport,22 Wallgate WN1 1JU,Douglas,Wigan,-2.6339351,53.5437395
Totesport,397 Ormskirk Road WN5 9DH,Douglas,Wigan,-2.667068,53.5356597
Harold Smith Bookmakers,"3 , Stone Cross Lane North, Lowton WA3 2SA",Golborne and Lowton West,Wigan,-2.581768,53.4745776
Betfred,"26 Heath Street, Golborne WA3 3AD",Golborne and Lowton West,Wigan,-2.598562,53.476439
William Hill,"1-3 Heath Street, Golborne WA3 3BN",Golborne and Lowton West,Wigan,-2.5982398,53.4767409
Coral Racing Ltd,23 Borsdane Avenue Hindley WN2 3QN,Hindley,Wigan,-2.5643286,53.5339282
Coral Racing Ltd,"64 Market Street, Hindley WN2 3AN",Hindley,Wigan,-2.577498,53.5361501
Totesport,"83 Market Street, Hindley WN2 3AE",Hindley,Wigan,-2.5772811,53.5361095
William Hill,"548 Atherton Road, Hindley Green WN2 4SJ",Hindley Green,Wigan,-2.5575323,53.5265022
