ListEntry,Name,Location,Grade,ListDate,AmendDate,LegacyUID,NGR,CaptureSca,Easting,Northing,area_code,area_name,lat,lon
1067598,"Buckhall, The Four Seasons Hotel","Trafford, WA15",II,1986-11-17,NA,211672,SJ8023085291,1:2500,380230.2669,385291.21755,E08000009,Trafford,53.4167099,-2.36572003
1067865,Old Church Of Saint Werburg,"Warburton, Trafford, WA13",I,1959-03-05,NA,212951,SJ 69694 89576,1:2500,369694.15,389576.25384,E08000009,Trafford,53.4167099,-2.36572003
1067866,Ackers Farmhouse,"Carrington, Trafford, M31",II,1987-06-30,NA,212958,SJ7555892909,1:2500,375557.7735,392909.0549,E08000009,Trafford,53.4167099,-2.36572003
1067867,Westwood Lodge,"Carrington, Trafford, M31",II,1987-06-30,NA,212959,SJ 73891 92924,1:2500,373891,392924.36084,E08000009,Trafford,53.4167099,-2.36572003
1067868,Church Of St George,"Carrington, Trafford, M31",II*,1959-03-05,NA,212960,SJ 72795 92666,1:2500,372794.55,392666.24497,E08000009,Trafford,53.4167099,-2.36572003
1067869,Erlam Farmhouse,"Partington, Trafford, M31",II,1983-10-31,NA,212961,SJ 71542 91390,1:2500,371542,391390.36084,E08000009,Trafford,53.4167099,-2.36572003
1067870,Stocks,"Partington, Trafford, M31",II,1987-06-30,NA,212962,SJ7167691565,1:2500,371675.9141,391565.0145,E08000009,Trafford,53.4167099,-2.36572003
1067871,Trafford Park Hotel,"Trafford, M17",II,1987-06-30,NA,212965,SJ 79535 96749,1:2500,379535,396749.36084,E08000009,Trafford,53.4167099,-2.36572003
1067872,Bridgewater Canal Aqueduct Over River Mersey,"Trafford, M32",II,1987-06-30,NA,212967,SJ 79574 93362,1:2500,379574,393362.36084,E08000009,Trafford,53.4167099,-2.36572003
1067873,Civic Theatre,"Trafford, M32",II,1987-06-30,NA,212970,SJ 79704 94466,1:2500,379704,394466.36084,E08000009,Trafford,53.4167099,-2.36572003
1067874,Entrance Portal And Lodges To Former White City Greyhound Track,"Trafford, M16",II,1987-06-30,NA,212974,SJ 81254 96226,1:2500,381253.568,396226.53284,E08000009,Trafford,53.4167099,-2.36572003
1067875,The Great Stone At Entrance To Gorse Hill Park,"Trafford, M32",II,1963-06-20,1987-06-30,212976,SJ 80434 95579,1:2500,380433.784,395579.22384,E08000009,Trafford,53.4167099,-2.36572003
1067876,Church Of St Michael,"Trafford, M41",II*,1966-06-29,NA,212985,SJ 74729 93965,1:2500,374729,393965.36084,E08000009,Trafford,53.4167099,-2.36572003
1067878,Flixton House And Outbuilding Adjoining Immediately North Of Flixton House,"Trafford, M41",II,1981-01-08,NA,212991,SJ 74625 94381,1:2500,374625,394381.36084,E08000009,Trafford,53.4167099,-2.36572003
1067879,Church Of All Saints,"Trafford, M41",I,1978-05-09,NA,212996,SJ 76668 97467,1:1250,376667.575,397467.40409,E08000009,Trafford,53.4167099,-2.36572003
1067880,Larkrise,"Trafford, M41",II,1966-06-29,NA,213001,SJ 74598 93998,1:2500,374598,393998.36084,E08000009,Trafford,53.4167099,-2.36572003
1067881,Cintra,"Trafford, WA15",II,1975-10-13,NA,212899,SJ 78152 86501,1:2500,378152,386501.36084,E08000009,Trafford,53.4167099,-2.36572003
1067882,The Hollies,"Trafford, WA15",II,1975-10-13,NA,212901,SJ 78228 86534,1:2500,378228,386534.36084,E08000009,Trafford,53.4167099,-2.36572003
1067883,The Garth,"Trafford, WA15",II,1975-10-13,NA,212903,SJ 78356 86623,1:2500,378356,386623.36084,E08000009,Trafford,53.4167099,-2.36572003
1067884,Barn,"Trafford, WA15",II,1983-07-19,1985-07-12,212905,SJ 80431 86615,1:2500,380431,386615.36084,E08000009,Trafford,53.4167099,-2.36572003
1067885,Davenportgreen Farmhouse,"Trafford, WA15",II,1983-07-19,1985-07-12,212906,SJ 80414 86607,1:2500,380414,386607.36084,E08000009,Trafford,53.4167099,-2.36572003
1067886,Paddy's Hut,"Trafford, WA15",II,1985-07-12,NA,212907,SJ 80410 86620,1:2500,380410,386620.36084,E08000009,Trafford,53.4167099,-2.36572003
1067887,Rossmill Farmhouse,"Trafford, WA15",II,1985-07-12,NA,212908,SJ7859685041,1:2500,378596.0102,385041.42305,E08000009,Trafford,53.4167099,-2.36572003
1067888,The Old House,"Trafford, WA14",II,1981-11-26,NA,212910,SJ 77043 86146,1:2500,377043,386146.36084,E08000009,Trafford,53.4167099,-2.36572003
1067889,Barn Immediately To West Of Springvale,"Trafford, WA15",II,1983-07-05,NA,212912,SJ 78936 85771,1:2500,378936,385771.36084,E08000009,Trafford,53.4167099,-2.36572003
1067890,Springvale,"Trafford, WA15",II,1983-07-05,NA,212914,SJ7895485778,1:2500,378954.0404,385778.0223,E08000009,Trafford,53.4167099,-2.36572003
1067891,Barracks Farmhouse And Cottage,"Trafford, M33",II,1976-04-14,NA,212916,SJ 76646 92718,1:2500,376646,392718.36084,E08000009,Trafford,53.4167099,-2.36572003
1067892,Brooks' Institute,"Trafford, M33",II,1976-05-12,NA,212917,SJ 77381 92470,1:2500,377381,392470.36084,E08000009,Trafford,53.4167099,-2.36572003
1067893,Church Of St Martin,"Trafford, M33",II*,1966-11-11,NA,212919,SJ 77238 92993,1:2500,377238,392993.36084,E08000009,Trafford,53.4167099,-2.36572003
1067894,"118 And 120, Cross Street","Trafford, M33",II,1966-11-11,NA,212923,SJ 78751 92496,1:2500,378751,392496.36084,E08000009,Trafford,53.4167099,-2.36572003
1067895,Church Of Saint Mary Magdalene,"Trafford, M33",II,1985-07-12,NA,212926,SJ 77500 91909,1:2500,377500,391909.36084,E08000009,Trafford,53.4167099,-2.36572003
1067896,War Memorial,"Trafford, M33",II,1985-07-12,NA,212931,SJ 78854 92047,1:2500,378854,392047.36084,E08000009,Trafford,53.4167099,-2.36572003
1067897,Church House,"Warburton, Trafford, WA13",II,1985-07-12,NA,212934,SJ 70484 89184,1:2500,370484,389184.36084,E08000009,Trafford,53.4167099,-2.36572003
1067898,The Bent Farmhouse,"Warburton, Trafford, WA13",II,1985-07-12,NA,212937,SJ 70411 89163,1:2500,370411,389163.36084,E08000009,Trafford,53.4167099,-2.36572003
1067899,Barn To South West Of Overtown Farmhouse,"Warburton, Trafford, WA13",II,1985-07-12,NA,212941,SJ 70311 89372,1:2500,370311,389372.36084,E08000009,Trafford,53.4167099,-2.36572003
1067900,Shippon To West Of Wigsey Farmhouse,"Warburton, Trafford, WA13",II,1985-07-12,NA,212943,SJ 70038 89525,1:2500,370038,389525.36084,E08000009,Trafford,53.4167099,-2.36572003
1067901,"Stocks
Stocks South Of Junction With Wigsey Lane","Warburton, Trafford, WA13",II,1959-03-05,1985-07-12,212947,SJ 69893 89558,1:2500,369893,389558.36084,E08000009,Trafford,53.4167099,-2.36572003
1067902,Pier At South West Corner Of Forecourt Garden,"Dunham Massey, Trafford, WA14",II,1985-07-12,NA,212849,SJ7349287285,1:2500,373491.7025,387284.73975,E08000009,Trafford,53.4167099,-2.36572003
1067903,Sawmill,"Dunham Massey, Trafford, WA14",II*,1959-03-05,1985-07-12,212850,SJ 73457 87247,1:2500,373457,387247.36084,E08000009,Trafford,53.4167099,-2.36572003
1067904,2 Small Piers At South Of Garden Forecourt,"Dunham Massey, Trafford, WA14",II,1985-07-12,NA,212852,SJ7353487299,1:2500,373533.8011,387299.3282,E08000009,Trafford,53.4167099,-2.36572003
1067905,Stables To West Of Barn Cottages,"Dunham Massey, Trafford, WA14",II,1985-07-12,NA,212854,SJ 73335 87373,1:2500,373335,387373.36084,E08000009,Trafford,53.4167099,-2.36572003
1067906,Temple To West Of Dunham Hall,"Dunham Massey, Trafford, WA14",II,1985-07-12,NA,212856,SJ7316187404,1:2500,373160.6101,387403.69215,E08000009,Trafford,53.4167099,-2.36572003
1067907,Wellhouse And Adjoining Root Arbour,"Dunham Massey, Trafford, WA14",II,1985-07-12,NA,212857,SJ 73558 87552,1:2500,373558,387552.36084,E08000009,Trafford,53.4167099,-2.36572003
1067908,Aviary Adjoining Dunham Massey Lodge,"Dunham Massey, Trafford, WA14",II,1985-07-12,NA,212858,SJ7436686468,1:2500,374366.0133,386467.64035,E08000009,Trafford,53.4167099,-2.36572003
1067909,Dunham Massey Lodge,"Dunham Massey, Trafford, WA14",II,1985-07-12,NA,212859,SJ 74341 86444,1:2500,374341,386444.36084,E08000009,Trafford,53.4167099,-2.36572003
1067910,Home Farm Dovecote,"Dunham Massey, Trafford, WA14",II,1985-07-12,NA,212861,SJ 74382 86403,1:2500,374382,386403.36084,E08000009,Trafford,53.4167099,-2.36572003
1067911,Sinderland House,"Dunham Massey, Trafford, WA14",II,1985-07-12,NA,212862,SJ 73514 89609,1:2500,373514,389609.36084,E08000009,Trafford,53.4167099,-2.36572003
1067912,The Hollies,"Dunham Massey, Trafford, WA14",II,1985-07-12,NA,212864,SJ 72577 88250,1:2500,372577,388250.36084,E08000009,Trafford,53.4167099,-2.36572003
1067913,Dunham School,"Dunham Massey, Trafford, WA14",II,1985-07-12,1986-02-27,212867,SJ 74010 88144,1:2500,374010.246,388144.13884,E08000009,Trafford,53.4167099,-2.36572003
1067914,Agden View,"Dunham Massey, Trafford, WA14",II,1985-07-12,NA,212869,SJ7270887808,1:2500,372708.0078,387808.05355,E08000009,Trafford,53.4167099,-2.36572003
1067915,Big Tree Cottages,"Dunham Massey, Trafford, WA14",II,1985-07-12,NA,212871,SJ 73975 87607,1:2500,373974.597,387607.25184,E08000009,Trafford,53.4167099,-2.36572003
1067916,Kitchen Garden Bounding Wall And Gardener's Cottage,"Dunham Massey, Trafford, WA14",II,1985-07-12,NA,212874,SJ7372287629,1:2500,373721.5367,387628.6233,E08000009,Trafford,53.4167099,-2.36572003
1067917,Dunham School Bridge,"Dunham Massey, Trafford, WA14",II,1985-07-12,1986-02-27,212878,SJ 73980 88191,1:2500,373980,388191.36084,E08000009,Trafford,53.4167099,-2.36572003
1067918,"Footbridge, Hale Station","Trafford, WA14",II,1984-03-19,1985-07-12,212880,SJ 76981 86938,1:2500,376981,386938.36084,E08000009,Trafford,53.4167099,-2.36572003
1067919,Station Master's House,"Trafford, WA14",II,1977-05-02,NA,212883,SJ 76967 86914,1:2500,376967,386914.36084,E08000009,Trafford,53.4167099,-2.36572003
1067920,Barrowcroft,"Trafford, WA15",II,1985-07-12,NA,212887,SJ 78284 86817,1:2500,378284,386817.36084,E08000009,Trafford,53.4167099,-2.36572003
1067921,Cross Heyes,"Trafford, WA15",II,1985-07-12,NA,212889,SJ 78331 86772,1:2500,378331,386772.36084,E08000009,Trafford,53.4167099,-2.36572003
1067922,Royd House,"Trafford, WA15",I,1975-10-13,NA,212892,SJ 78348 86681,1:2500,378348,386681.36084,E08000009,Trafford,53.4167099,-2.36572003
1067923,Barrow Cottage,"Trafford, WA15",II,1985-07-12,NA,212896,SJ 78481 85675,1:2500,378481,385675.36084,E08000009,Trafford,53.4167099,-2.36572003
1067924,Trinity United Reformed Church,"Trafford, WA14",II,1985-07-12,NA,212797,SJ 76412 87287,1:2500,376412,387287.36084,E08000009,Trafford,53.4167099,-2.36572003
1067925,Denzell House,"Trafford, WA14",II*,1985-07-12,2007-09-17,212798,SJ 75368 87360,1:2500,375368.375,387360.34684,E08000009,Trafford,53.4167099,-2.36572003
1067926,High Lawn,"Trafford, WA14",II,1985-07-12,NA,212800,SJ 76317 86630,1:2500,376317,386630.36084,E08000009,Trafford,53.4167099,-2.36572003
1067927,Water Fountain At Junction With Stamford Road,"Trafford, WA14",II,1985-07-12,NA,212802,SJ 75889 86883,1:2500,375889,386883.36084,E08000009,Trafford,53.4167099,-2.36572003
1067928,Erlesdene,"Trafford, WA14",II,1985-07-12,NA,212803,SJ7562586983,1:2500,375625.293,386982.56525,E08000009,Trafford,53.4167099,-2.36572003
1067929,Vale House,"Trafford, WA14",II,1985-07-12,NA,212806,SJ 75751 86742,1:2500,375751,386742.36084,E08000009,Trafford,53.4167099,-2.36572003
1067930,Bowdon Old Hall,"Trafford, WA14",II,1974-05-16,NA,212807,SJ 76023 86546,1:2500,376023,386546.36084,E08000009,Trafford,53.4167099,-2.36572003
1067931,"30, 32 And 34, Langham Road (See Details For Further Address Information)","Trafford, WA14",II,1985-07-12,NA,212809,SJ 75719 86796,1:2500,375719,386796.36084,E08000009,Trafford,53.4167099,-2.36572003
1067932,"5 And 6, Church Brow","Trafford, WA14",II,1979-08-09,1986-02-27,212811,SJ 75790 86836,1:2500,375790,386836.36084,E08000009,Trafford,53.4167099,-2.36572003
1067933,"7, Church Brow","Trafford, WA14",II,1979-08-09,1986-04-03,212812,SJ 75779 86831,1:2500,375779,386831.36084,E08000009,Trafford,53.4167099,-2.36572003
1067934,"Denehill
 And The Old Vicarage","Trafford, WA14",II,1985-07-12,1986-04-03,212814,SJ 75442 86875,1:2500,375442,386875.36084,E08000009,Trafford,53.4167099,-2.36572003
1067935,"Piers, Railings And Walls Bounding St Marys Graveyard On West, East And North Sides","Trafford, WA14",II,1985-07-12,1986-04-03,212816,SJ 75912 86820,1:2500,375912,386820.36084,E08000009,Trafford,53.4167099,-2.36572003
1067936,Milestone In Grounds Of The Priory,"Trafford, WA14",II,1985-07-12,NA,212820,SJ 76006 85666,1:2500,376006.345,385666.69684,E08000009,Trafford,53.4167099,-2.36572003
1067937,Sundial In Grounds Of The Priory,"Trafford, WA14",II,1985-07-12,NA,212822,SJ 76052 85716,1:2500,376052.268,385716.83284,E08000009,Trafford,53.4167099,-2.36572003
1067938,Barn To North Of Moss Farmhouse,"Trafford, WA14",II,1976-04-26,NA,212825,SJ 76572 86410,1:2500,376572,386410.36084,E08000009,Trafford,53.4167099,-2.36572003
1067939,"Obelisk
Obelisk In Whiteoaks Wood","Dunham Massey, Trafford, WA14",II,1985-07-12,NA,212830,SJ 73253 87988,1:2500,373253,387988.36084,E08000009,Trafford,53.4167099,-2.36572003
1067940,Greenbank,"Dunham Massey, Trafford, WA14",II,1985-07-12,NA,212832,SJ 72416 87927,1:2500,372416,387927.36084,E08000009,Trafford,53.4167099,-2.36572003
1067941,Bridgewater Canal Aqueduct And Adjoining Bridge 1/4 Mile South Of Woodhouse Lane Aqueduct,"Dunham Massey, Trafford, WA14",II,1985-07-12,NA,212835,SJ7285487462,1:2500,372854.3009,387462.10445,E08000009,Trafford,53.4167099,-2.36572003
1067942,Carriage House Immediately To South Of Kitchen Courtyard,"Dunham Massey, Trafford, WA14",I,1959-03-05,1985-07-12,212839,SJ 73444 87349,1:2500,373443.575,387349.84984,E08000009,Trafford,53.4167099,-2.36572003
1067943,Gateway In Bounding Wall Opposite Kitchen Gardens,"Dunham Massey, Trafford, WA14",II,1985-07-12,NA,212844,SJ7371987551,1:2500,373719.4466,387550.7973,E08000009,Trafford,53.4167099,-2.36572003
1067944,Orangery,"Dunham Massey, Trafford, WA14",II,1985-07-12,NA,212846,SJ7353487512,1:2500,373534.0811,387512.4852,E08000009,Trafford,53.4167099,-2.36572003
1067949,Church Of St George,"Trafford, WA14",II,1985-07-12,NA,212754,SJ 76744 88196,1:2500,376744,388196.36084,E08000009,Trafford,53.4167099,-2.36572003
1067950,Victoria Terrace,"Trafford, WA14",II,1985-07-12,NA,212756,SJ 76551 87510,1:2500,376551,387510.36084,E08000009,Trafford,53.4167099,-2.36572003
1067951,Downs Place,"Trafford, WA14",II,1985-07-12,NA,212757,SJ 76483 87483,1:2500,376483,387483.36084,E08000009,Trafford,53.4167099,-2.36572003
1067952,"8, Dunham Road","Trafford, WA14",II,1985-07-12,NA,212759,SJ7673388042,1:2500,376733.4258,388042.3374,E08000009,Trafford,53.4167099,-2.36572003
1067953,Stamford Estates Office And National Trust Shop,"Trafford, WA14",II,1949-12-06,1985-07-12,212763,SJ7671587989,1:2500,376714.5898,387988.5809,E08000009,Trafford,53.4167099,-2.36572003
1067954,Watling Gate,"Trafford, WA14",II,1985-07-12,NA,212765,SJ 77342 90077,1:2500,377342,390077.36084,E08000009,Trafford,53.4167099,-2.36572003
1067955,St Alban's Vicarage,"Trafford, WA14",II,1985-07-12,NA,212767,SJ 76671 89593,1:2500,376671,389593.36084,E08000009,Trafford,53.4167099,-2.36572003
1067956,Former Canal Warehouse Adjacent To Coal Wharf,"Trafford, WA14",II,1985-07-12,NA,212769,SJ 76550 89028,1:2500,376550,389028.36084,E08000009,Trafford,53.4167099,-2.36572003
1067957,"No. 5, Market Street","Trafford, WA14",II,1985-07-12,NA,212771,SJ 76756 87999,1:2500,376756,387999.36084,E08000009,Trafford,53.4167099,-2.36572003
1067958,"10 And 12, Market Street","Trafford, WA14",II,1985-07-12,NA,212774,SJ7673788009,1:2500,376736.9184,388008.7497,E08000009,Trafford,53.4167099,-2.36572003
1067959,"2, 4, 6 And 8, Normans Place","Trafford, WA14",II,1985-07-12,NA,212776,SJ 76540 87728,1:2500,376540,387728.36084,E08000009,Trafford,53.4167099,-2.36572003
1067960,Old Market Tavern,"Trafford, WA14",II,1985-07-12,NA,212780,SJ 76784 88104,1:2500,376784,388104.36084,E08000009,Trafford,53.4167099,-2.36572003
1067961,Church Of St John The Evangelist,"Trafford, WA14",II,1985-07-12,NA,212784,SJ 76616 87375,1:2500,376616,387375.36084,E08000009,Trafford,53.4167099,-2.36572003
1067962,Clock Tower On Station Forecourt,"Trafford, WA14",II,1985-07-12,NA,212789,SJ 76939 87900,1:2500,376939,387900.36084,E08000009,Trafford,53.4167099,-2.36572003
1067963,"Suffolk House, Bradgate,
Holmacre
","Trafford, WA14",II,1985-07-12,NA,212791,SJ 75780 88052,1:2500,375780,388052.36084,E08000009,Trafford,53.4167099,-2.36572003
1067964,Bowgreen Farmhouse,"Trafford, WA14",II,1985-07-12,NA,212795,SJ7543985802,1:2500,375438.9714,385802.07835,E08000009,Trafford,53.4167099,-2.36572003
1083561,Sundial To South West Of Old Church Of Saint Werburg,"Warburton, Trafford, WA13",II,1985-07-12,NA,212952,SJ 69684 89565,1:2500,369683.975,389565.10384,E08000009,Trafford,53.4167099,-2.36572003
1083579,Wigsey Farmhouse,"Warburton, Trafford, WA13",II,1985-07-12,NA,212944,SJ 70066 89521,1:2500,370066,389521.36084,E08000009,Trafford,53.4167099,-2.36572003
1083592,"Lychgate, Old Church Of Saint Werburg","Warburton, Trafford, WA13",II,1985-07-12,NA,212950,SJ 69730 89575,1:2500,369729.603,389575.06384,E08000009,Trafford,53.4167099,-2.36572003
1084309,Tatton Cinema,"Trafford, M33",II,1987-11-13,NA,358732,SJ 78390 92113,1:2500,378390,392113.36084,E08000009,Trafford,53.4167099,-2.36572003
1084310,Oakley,"Trafford, WA14",II,1994-10-06,NA,358733,SJ 75570 87056,1:2500,375570,387056.36084,E08000009,Trafford,53.4167099,-2.36572003
1084311,Stamford House,"Trafford, WA14",II,1992-04-27,NA,358735,SJ7691787856,1:2500,376916.7476,387855.59275,E08000009,Trafford,53.4167099,-2.36572003
1099122,Ollerbarrow House,"Trafford, WA15",II,1981-11-26,NA,212879,SJ7718086676,1:2500,377179.6798,386676.3113,E08000009,Trafford,53.4167099,-2.36572003
1099165,Orchard View,"Dunham Massey, Trafford, WA14",II,1985-07-12,NA,212875,SJ 72470 87892,1:2500,372470,387892.36084,E08000009,Trafford,53.4167099,-2.36572003
1099897,Bank Hall,"Trafford, WA15",II,1979-04-25,NA,212884,SJ 77710 85770,1:2500,377710,385770.36084,E08000009,Trafford,53.4167099,-2.36572003
1099945,"Hale Station, East Platform Waiting Rooms And Canopy","Trafford, WA15",II,1977-05-02,1985-07-12,212881,SJ 76988 86913,1:2500,376988,386913.36084,E08000009,Trafford,53.4167099,-2.36572003
1100238,Davenportgreen Hall,"Trafford, WA15",II,1950-03-02,1985-07-12,212909,SJ 80343 86401,1:2500,380343,386401.36084,E08000009,Trafford,53.4167099,-2.36572003
1100301,Greystoke,"Trafford, WA15",II,1975-10-13,NA,212893,SJ 78386 86649,1:2500,378386,386649.36084,E08000009,Trafford,53.4167099,-2.36572003
1100305,War Memorial At Junction With Broomfield Lane,"Trafford, WA15",II,1985-07-12,NA,212895,SJ 77417 87076,1:2500,377417,387076.36084,E08000009,Trafford,53.4167099,-2.36572003
1100309,The Old Farm,"Trafford, WA15",II,1985-07-12,NA,212897,SJ 78332 86496,1:2500,378332,386496.36084,E08000009,Trafford,53.4167099,-2.36572003
1100328,Tiverton,"Trafford, WA15",II,1985-07-12,NA,212890,SJ 78353 86754,1:2500,378353,386754.36084,E08000009,Trafford,53.4167099,-2.36572003
1100348,"Lychgate, Hale Chapel","Trafford, WA15",II,1985-07-12,NA,212886,SJ 79161 85451,1:2500,379161,385451.36084,E08000009,Trafford,53.4167099,-2.36572003
1101478,"Saint Martin's School
The Old School House","Trafford, M33",II,1976-05-12,NA,212924,SJ 77402 92492,1:2500,377402,392492.36084,E08000009,Trafford,53.4167099,-2.36572003
1101520,"Lychgate, Church Of Saint Martin","Trafford, M33",II,1985-07-12,NA,212920,SJ 77266 92976,1:2500,377266,392976.36084,E08000009,Trafford,53.4167099,-2.36572003
1101537,Ashton New Hall,"Trafford, M33",II,1966-11-11,NA,212918,SJ 77260 92919,1:2500,377260,392919.36084,E08000009,Trafford,53.4167099,-2.36572003
1101556,Marsh Farm,"Trafford, M33",II,1985-07-12,NA,212915,SJ7709192591,1:2500,377090.9351,392590.81655,E08000009,Trafford,53.4167099,-2.36572003
1101723,Barn To South East Of Birch Farmhouse,"Warburton, Trafford, WA13",II,1985-07-12,NA,212940,SJ 72078 90260,1:2500,372078,390260.36084,E08000009,Trafford,53.4167099,-2.36572003
1101758,Post Office House,"Warburton, Trafford, WA13",II,1985-07-12,NA,212938,SJ 70953 89304,1:2500,370953,389304.36084,E08000009,Trafford,53.4167099,-2.36572003
1101761,Former Lloyds Bank At Junction With Tatton Road,"Trafford, M33",II,1985-07-12,NA,212930,SJ 78804 92073,1:2500,378804,392073.36084,E08000009,Trafford,53.4167099,-2.36572003
1101765,Church Of Saint Paul,"Trafford, M33",II,1985-07-12,NA,212932,SJ 78691 91804,1:2500,378691,391804.36084,E08000009,Trafford,53.4167099,-2.36572003
1101800,Trinity House,"Trafford, M33",II,1978-02-07,1985-07-12,212928,SJ 79683 91581,1:2500,379683,391581.36084,E08000009,Trafford,53.4167099,-2.36572003
1107845,Church Of St Alban,"Trafford, WA14",II,1985-07-12,NA,212766,SJ 76700 89572,1:2500,376700,389572.36084,E08000009,Trafford,53.4167099,-2.36572003
1107853,Former Lloyds Bank (Broadheath Branch) And Post Office,"Trafford, WA14",II,1985-07-12,NA,212768,SJ 76651 89187,1:2500,376650.532,389186.99684,E08000009,Trafford,53.4167099,-2.36572003
1107862,"Numbers 2, 4, 6 And Right 3 Bays Of 8","Trafford, WA14",II,1985-07-12,NA,212764,SJ7680288032,1:2500,376802.1133,388032.388,E08000009,Trafford,53.4167099,-2.36572003
1107939,Nursery Cottage,"Trafford, WA14",II,1985-07-12,NA,212758,SJ 75507 87588,1:2500,375507,387588.36084,E08000009,Trafford,53.4167099,-2.36572003
1110847,Dog Farmhouse,"Dunham Massey, Trafford, WA14",II,1985-07-12,NA,212873,SJ 73981 87622,1:2500,373981,387622.36084,E08000009,Trafford,53.4167099,-2.36572003
1119585,"14 And 16, Market Street","Trafford, WA14",II,1985-07-12,NA,212775,SJ7673188000,1:2500,376731.0364,388000.15115,E08000009,Trafford,53.4167099,-2.36572003
1119591,The Elms,"Trafford, WA14",II,1985-07-12,NA,212777,SJ 76476 87730,1:2500,376476,387730.36084,E08000009,Trafford,53.4167099,-2.36572003
1119617,Market House,"Trafford, WA14",II,1985-07-12,NA,212773,SJ 76693 87896,1:2500,376693,387896.36084,E08000009,Trafford,53.4167099,-2.36572003
1120856,Charcoal Lodge,"Trafford, WA14",II,1985-07-12,NA,212796,SJ 74563 87382,1:2500,374562.969,387382.07884,E08000009,Trafford,53.4167099,-2.36572003
1120867,Christ Church,"Trafford, WA15",II,1985-04-26,NA,212792,SJ 79082 88190,1:2500,379082,388190.36084,E08000009,Trafford,53.4167099,-2.36572003
1120879,Seamon's Moss Bridge,"Trafford, WA14",II,1985-07-12,NA,212787,SJ 75282 88646,1:2500,375282,388646.36084,E08000009,Trafford,53.4167099,-2.36572003
1120886,The Old Hall,"Trafford, WA15",II,1978-10-22,1985-07-12,212790,SJ 77705 88227,1:2500,377705,388227.36084,E08000009,Trafford,53.4167099,-2.36572003
1120917,"1-11, Sandiway Road","Trafford, WA14",II,1985-07-12,NA,212785,SJ 76693 88563,1:2500,376693,388563.36084,E08000009,Trafford,53.4167099,-2.36572003
1120921,"16, Old Market Place","Trafford, WA14",II,1985-07-12,NA,212779,SJ 76818 88084,1:2500,376818,388084.36084,E08000009,Trafford,53.4167099,-2.36572003
1120933,"2, 2A, 4A And 4, Old Market Place","Trafford, WA14",II,1985-07-12,NA,212781,SJ 76776 88030,1:2500,376776,388030.36084,E08000009,Trafford,53.4167099,-2.36572003
1121549,"1, Church Brow","Trafford, WA14",II,1979-08-09,1986-02-27,212810,SJ 75807 86847,1:2500,375807,386847.36084,E08000009,Trafford,53.4167099,-2.36572003
1121901,Freestanding Pier To North West Corner Of Garden Forecourt,"Dunham Massey, Trafford, WA14",II,1985-07-12,NA,212843,SJ7347287356,1:2500,373472.2702,387356.34445,E08000009,Trafford,53.4167099,-2.36572003
1121904,Langham Grove Obelisk,"Dunham Massey, Trafford, WA14",II,1985-07-12,NA,212845,SJ7349786979,1:2500,373496.75,386978.55725,E08000009,Trafford,53.4167099,-2.36572003
1121913,Pier At South East Corner Of Forecourt Garden,"Dunham Massey, Trafford, WA14",II,1985-07-12,NA,212848,SJ 73582 87324,1:2500,373582.107,387324.71884,E08000009,Trafford,53.4167099,-2.36572003
1121923,Deer House,"Dunham Massey, Trafford, WA14",II,1959-03-05,NA,212841,SJ 74334 87316,1:2500,374334.293,387316.22784,E08000009,Trafford,53.4167099,-2.36572003
1121939,Willow Cottage,"Dunham Massey, Trafford, WA14",II,1985-07-12,NA,212831,SJ7240488017,1:2500,372403.6972,388016.56015,E08000009,Trafford,53.4167099,-2.36572003
1121942,Bollington Mill,"Dunham Massey, Trafford, WA14",II,1974-04-02,NA,212833,SJ 73020 87119,1:2500,373020.126,387118.97884,E08000009,Trafford,53.4167099,-2.36572003
1121956,Barn Cottages,"Dunham Massey, Trafford, WA14",II,1985-07-12,NA,212838,SJ 73361 87384,1:2500,373361,387384.36084,E08000009,Trafford,53.4167099,-2.36572003
1121961,Moss Cottage,"Trafford, WA14",II,1976-04-26,NA,212824,SJ 76640 86440,1:2500,376640,386440.36084,E08000009,Trafford,53.4167099,-2.36572003
1121966,Moss Farmhouse,"Trafford, WA14",II,1976-04-26,NA,212826,SJ 76580 86383,1:2500,376580,386383.36084,E08000009,Trafford,53.4167099,-2.36572003
1121981,The White Cottage,"Trafford, WA14",II,1985-07-12,1986-04-03,212819,SJ 75745 86807,1:2500,375745,386807.36084,E08000009,Trafford,53.4167099,-2.36572003
1121987,"The Priory
The Well House","Trafford, WA14",II,1985-07-12,NA,212821,SJ 76008 85712,1:2500,376008,385712.36084,E08000009,Trafford,53.4167099,-2.36572003
1122650,Church Of St Mary The Virgin,"Trafford, WA14",II*,1985-07-12,1986-04-03,212815,SJ 75864 86846,1:2500,375864,386846.36084,E08000009,Trafford,53.4167099,-2.36572003
1122687,"7A Bowden Old Forge And 8, 9 And 10","Trafford, WA14",II,1979-08-09,1986-04-03,212813,SJ 75761 86828,1:2500,375761,386828.36084,E08000009,Trafford,53.4167099,-2.36572003
1162750,Former Cross Base In St Matthew's Churchyard,"Trafford, M32",II,1987-06-30,NA,212969,SJ 79443 94193,1:2500,379443,394193.36084,E08000009,Trafford,53.4167099,-2.36572003
1162794,Gorse Hill Park Entrance Portal And Lodges,"Trafford, M32",II,1963-06-20,1987-06-30,212975,SJ 80437 95562,1:2500,380437.403,395562.47384,E08000009,Trafford,53.4167099,-2.36572003
1162801,Union Baptist Church,"Trafford, M32",II,1981-03-27,NA,212977,SJ 80355 94295,1:2500,380355,394295.36084,E08000009,Trafford,53.4167099,-2.36572003
1162830,The Old Rectory,"Trafford, M41",II,1978-09-21,1987-06-30,212984,SJ 74320 93960,1:2500,374320,393960.36084,E08000009,Trafford,53.4167099,-2.36572003
1162835,Jones Chest Tomb To South Of Church Of St Michael,"Trafford, M41",II,1987-06-30,NA,212986,SJ 74732 93950,1:2500,374732,393950.36084,E08000009,Trafford,53.4167099,-2.36572003
1162837,Yew Tree Farmhouse,"Trafford, M41",II,1987-06-30,NA,212988,SJ 74651 95815,1:2500,374651,395815.36084,E08000009,Trafford,53.4167099,-2.36572003
1162845,Commemorative Urn Opposite Junction With Lowood Avenue,"Trafford, M41",II,1987-06-30,NA,212990,SJ 74918 95652,1:2500,374918,395652.36084,E08000009,Trafford,53.4167099,-2.36572003
1162861,Wall On North Side Of Garden At Flixton House,"Trafford, M41",II,1981-01-08,NA,212992,SJ 74702 94399,1:2500,374702,394399.36084,E08000009,Trafford,53.4167099,-2.36572003
1162878,Church Of St Clement,"Trafford, M41",II,1987-06-30,NA,212994,SJ 76816 94318,1:2500,376816,394318.36084,E08000009,Trafford,53.4167099,-2.36572003
1162889,All Saints' Presbytery,"Trafford, M41",II,1987-06-30,NA,212997,SJ 76690 97454,1:2500,376689.747,397454.65584,E08000009,Trafford,53.4167099,-2.36572003
1162894,"16, The Village","Trafford, M41",II,1987-06-30,NA,213000,SJ 74584 94017,1:2500,374584,394017.36084,E08000009,Trafford,53.4167099,-2.36572003
1240376,The Top Rank Club (Former Essoldo Cinema),"Trafford, M32",II,1994-03-28,NA,438795,SJ 79797 94420,1:2500,379797,394420.36084,E08000009,Trafford,53.4167099,-2.36572003
1240409,Essence Factory,"Trafford, M16",II,1994-02-01,NA,438833,SJ 82304 96578,1:2500,382304,396578.36084,E08000009,Trafford,53.4167099,-2.36572003
1245224,Brooklands Station,"Trafford, M33",II,1999-01-11,NA,472728,SJ 78442 91198,1:1250,378442,391198.36085,E08000009,Trafford,53.4167099,-2.36572003
1253113,Boundary Stone,"Trafford, WA14",II,1987-08-27,NA,436247,SJ 76379 87408,1:2500,376379,387408.36084,E08000009,Trafford,53.4167099,-2.36572003
1253114,The Railway Inn Public House,"Trafford, WA14",II,1993-07-21,NA,436248,SJ 76642 89262,1:2500,376641.531,389262.33784,E08000009,Trafford,53.4167099,-2.36572003
1255540,Brindleys Weir,"Trafford, M16",II,1996-03-12,NA,459861,SJ 82230 96953,1:2500,382229.71,396953.73984,E08000009,Trafford,53.4167099,-2.36572003
1261946,Church Of St John The Divine,"Trafford, M33",II*,1974-10-03,1995-02-22,436249,SJ 78913 90316,1:2500,378913,390316.36084,E08000009,Trafford,53.4167099,-2.36572003
1309483,Stretford War Memorial,"Trafford, M32",II,1987-06-30,NA,212971,SJ 80403 95582,1:2500,380403.107,395582.54684,E08000009,Trafford,53.4167099,-2.36572003
1309485,St Ann's Presbytery,"Trafford, M32",II,1987-06-30,NA,212973,SJ 79938 94671,1:2500,379938,394671.36084,E08000009,Trafford,53.4167099,-2.36572003
1323017,"16, Langham Road (See Details For Further Address Information)","Trafford, WA14",II,1985-07-12,NA,212808,SJ 76413 86649,1:2500,376413,386649.36084,E08000009,Trafford,53.4167099,-2.36572003
1323156,West Bank Farmhouse,"Trafford, WA14",II,1985-07-12,NA,212794,SJ 75452 86116,1:2500,375452,386116.36084,E08000009,Trafford,53.4167099,-2.36572003
1323744,"1, 1A And 3 Market Street And 2 Post Office Street","Trafford, WA14",II,1985-07-12,1986-01-24,212770,SJ7676188012,1:2500,376760.8799,388011.8995,E08000009,Trafford,53.4167099,-2.36572003
1325200,Church Of St Margaret,"Trafford, WA14",II*,1985-07-12,NA,212760,SJ 76017 87852,1:2500,376017,387852.36084,E08000009,Trafford,53.4167099,-2.36572003
1337466,Barn 200 Metres North West Of Gardener's Cottage,"Dunham Massey, Trafford, WA14",II,1985-07-12,NA,212870,SJ 73619 87739,1:2500,373619,387739.36084,E08000009,Trafford,53.4167099,-2.36572003
1337640,Manor Farmhouse With Forecourt Railings And Gates,"Dunham Massey, Trafford, WA14",II,1959-03-05,NA,212863,SJ7252387991,1:2500,372523.1032,387990.80465,E08000009,Trafford,53.4167099,-2.36572003
1337661,"Magnolia
 And The Meadows","Dunham Massey, Trafford, WA14",II,1985-07-12,NA,212868,SJ7412087984,1:2500,374119.8163,387983.55735,E08000009,Trafford,53.4167099,-2.36572003
1337667,The Village Farmhouse Including Gatepiers,"Dunham Massey, Trafford, WA14",II,1985-07-12,NA,212865,SJ 72506 88028,1:2500,372506,388028.36084,E08000009,Trafford,53.4167099,-2.36572003
1338497,Sundial Post In Graveyard Of Church Of Saint Mary,"Trafford, WA14",II,1985-07-12,1986-04-03,212817,SJ 75863 86820,1:2500,375863,386820.36084,E08000009,Trafford,53.4167099,-2.36572003
1338520,The Griffin,"Trafford, WA14",II,1985-07-12,NA,212828,SJ7592386861,1:2500,375922.9531,386861.25795,E08000009,Trafford,53.4167099,-2.36572003
1338548,"Lime Tree Cottage
Yew Tree Cottage","Dunham Massey, Trafford, WA14",II,1985-07-12,1986-01-24,212836,SJ 74029 87602,1:2500,374028.612,387602.67084,E08000009,Trafford,53.4167099,-2.36572003
1338554,"Farm Buildings Quadrangle, Home Farm","Dunham Massey, Trafford, WA14",II,1985-07-12,NA,212860,SJ 74401 86404,1:2500,374401,386404.36084,E08000009,Trafford,53.4167099,-2.36572003
1338885,Building Approximately 10 Metres West Of Villa Farmhouse,"Warburton, Trafford, WA13",II,1989-07-07,NA,358731,SJ 70945 89423,1:2500,370945,389423.36084,E08000009,Trafford,53.4167099,-2.36572003
1346199,Station Hotel,"Trafford, WA14",II,1992-04-27,NA,358734,SJ7690287882,1:2500,376902.4173,387881.905,E08000009,Trafford,53.4167099,-2.36572003
1346576,"Cross Base
Cross Base South Of Junction With Wigsey Lane","Warburton, Trafford, WA13",II,1959-03-05,1985-07-12,212946,SJ 69891 89559,1:2500,369890.538,389559.77384,E08000009,Trafford,53.4167099,-2.36572003
1346578,Heathlands Farmhouse,"Warburton, Trafford, WA13",II,1985-07-12,NA,212949,SJ 71182 90145,1:2500,371181.55,390144.98947,E08000009,Trafford,53.4167099,-2.36572003
1347811,Paddocklake Farmhouse,"Warburton, Trafford, WA13",II,1985-07-12,NA,212942,SJ 70169 89516,1:2500,370169,389516.36084,E08000009,Trafford,53.4167099,-2.36572003
1347816,Church Of Saint Werburg,"Warburton, Trafford, WA13",II,1985-07-12,NA,212935,SJ 70479 89152,1:2500,370479,389152.36084,E08000009,Trafford,53.4167099,-2.36572003
1347890,Church Of Saint Anne,"Trafford, M33",II,1985-07-12,NA,212922,SJ 79524 91609,1:2500,379524,391609.36084,E08000009,Trafford,53.4167099,-2.36572003
1348375,Manor House Stables,"Trafford, WA15",II,1985-07-12,NA,212913,SJ 79021 85922,1:2500,379021,385922.36084,E08000009,Trafford,53.4167099,-2.36572003
1348503,"Turvelaws
White Thorn Lodge","Trafford, WA15",II,1985-07-12,NA,212888,SJ 78312 86788,1:2500,378312,386788.36084,E08000009,Trafford,53.4167099,-2.36572003
1349044,"Farm Cottage
Rose Cottage","Dunham Massey, Trafford, WA14",II,1985-07-12,NA,212877,SJ 73917 87520,1:2500,373916.838,387520.17684,E08000009,Trafford,53.4167099,-2.36572003
1356473,2 Piers And Lakeside Wall (Including The Entire Length Which Has A Moulded Coping),"Dunham Massey, Trafford, WA14",II,1985-07-12,NA,212847,SJ7346787460,1:2500,373467.2373,387460.45195,E08000009,Trafford,53.4167099,-2.36572003
1356476,"Bowdon Downs Church, Schoolroom And Lecture Hall","Trafford, WA14",II,1974-10-24,1985-07-12,212753,SJ 76221 87373,1:2500,376221,387373.36084,E08000009,Trafford,53.4167099,-2.36572003
1356477,"32 And 34, The Downs","Trafford, WA14",II,1985-07-12,NA,212755,SJ 76574 87525,1:2500,376574,387525.36084,E08000009,Trafford,53.4167099,-2.36572003
1356478,"7, Market Street","Trafford, WA14",II,1985-07-12,NA,212772,SJ 76749 87988,1:2500,376749,387988.36084,E08000009,Trafford,53.4167099,-2.36572003
1356479,Richmond House,"Trafford, WA14",II,1985-07-12,NA,212778,SJ7646587705,1:2500,376465.1926,387705.29835,E08000009,Trafford,53.4167099,-2.36572003
1356480,"Lloyds Bank, Bank House And Number 7","Trafford, WA14",II,1976-05-12,NA,212782,SJ7676188063,1:2500,376761.0558,388062.8408,E08000009,Trafford,53.4167099,-2.36572003
1356481,"13-21, Sandiway Road","Trafford, WA14",II,1985-07-12,NA,212786,SJ 76745 88554,1:2500,376745,388554.36084,E08000009,Trafford,53.4167099,-2.36572003
1356482,The Downs Cottage,"Trafford, WA14",II,1985-07-12,NA,212793,SJ 76178 87472,1:2500,376178,387472.36084,E08000009,Trafford,53.4167099,-2.36572003
1356493,Stone Flag Wall Around Old Stocks And Cross,"Warburton, Trafford, WA13",II,1985-07-12,NA,212948,SJ 69884 89563,1:2500,369884.078,389563.84284,E08000009,Trafford,53.4167099,-2.36572003
1356494,Slaughterhouse,"Dunham Massey, Trafford, WA14",II,1985-07-12,NA,212851,SJ 73999 87052,1:2500,373999,387052.36084,E08000009,Trafford,53.4167099,-2.36572003
1356495,Stables To South Of Hall,"Dunham Massey, Trafford, WA14",I,1985-07-12,NA,212853,SJ 73462 87303,1:2500,373462,387303.36084,E08000009,Trafford,53.4167099,-2.36572003
1356496,Sundial On Garden Forecourt,"Dunham Massey, Trafford, WA14",II,1985-07-12,NA,212855,SJ7350787376,Unknown,373507.2158,387375.9966,E08000009,Trafford,53.4167099,-2.36572003
1356497,Big Tree Cottages,"Dunham Massey, Trafford, WA14",II,1985-07-12,NA,212872,SJ 73962 87585,1:2500,373961.976,387585.58884,E08000009,Trafford,53.4167099,-2.36572003
1356498,Ivy House,"Dunham Massey, Trafford, WA14",II,1985-07-12,NA,212876,SJ 73976 87561,1:2500,373976,387561.36084,E08000009,Trafford,53.4167099,-2.36572003
1356499,"Hale Station, West Platform Building, Canopy And Signal Box","Trafford, WA14",II,1977-05-02,1985-07-12,212882,SJ 76974 86907,1:2500,376974,386907.36084,E08000009,Trafford,53.4167099,-2.36572003
1356500,Hale Chapel,"Trafford, WA15",II*,1950-03-02,NA,212885,SJ 79142 85446,1:2500,379142,385446.36084,E08000009,Trafford,53.4167099,-2.36572003
1356501,Halecroft,"Trafford, WA15",II*,1975-10-13,NA,212891,SJ7871786355,1:2500,378716.6798,386354.7123,E08000009,Trafford,53.4167099,-2.36572003
1356502,Hale Chapel Sunday School And Schoolmaster's House,"Trafford, WA15",II,1985-07-12,NA,212894,SJ 79262 85846,1:2500,379262,385846.36084,E08000009,Trafford,53.4167099,-2.36572003
1356503,Sundial To Rear Of The Old Farm,"Trafford, WA15",II,1985-07-12,NA,212898,SJ 78343 86491,1:2500,378343,386491.36084,E08000009,Trafford,53.4167099,-2.36572003
1356504,Mile Post At Shepherds Brow,"Trafford, WA14",II,1985-07-12,NA,212799,SJ 75274 87335,1:2500,375274,387335.36084,E08000009,Trafford,53.4167099,-2.36572003
1356505,"Cransley
Summerfield","Trafford, WA14",II,1985-07-12,NA,212801,SJ 76171 86610,1:2500,376171,386610.36084,E08000009,Trafford,53.4167099,-2.36572003
1356506,Hilston House,"Trafford, WA14",II,1985-07-12,NA,212804,SJ 75338 87245,1:2500,375338,387245.36084,E08000009,Trafford,53.4167099,-2.36572003
1356507,War Memorial To North East Of St Mary's Church,"Trafford, WA14",II,1985-07-12,1986-04-03,212818,SJ 75885 86862,1:2500,375885,386862.36084,E08000009,Trafford,53.4167099,-2.36572003
1356508,"Scriven House, The Ridge, Adjoining Shop, The Hollies And Farwood","Trafford, WA14",II,1985-07-12,NA,212823,SJ 76003 86800,1:2500,376003,386800.36084,E08000009,Trafford,53.4167099,-2.36572003
1356509,"Oakfield Cottage
The Cottage","Trafford, WA14",II,1984-08-29,NA,212827,SJ 76514 86932,1:2500,376514,386932.36084,E08000009,Trafford,53.4167099,-2.36572003
1356510,Brick Kiln Lane Bridge,"Dunham Massey, Trafford, WA14",II,1985-07-12,NA,212834,SJ7300887355,1:2500,373007.7366,387355.204,E08000009,Trafford,53.4167099,-2.36572003
1356511,Big Tree House,"Dunham Massey, Trafford, WA14",II,1976-04-26,1985-07-12,212837,SJ 74013 87586,1:2500,374013,387586.36084,E08000009,Trafford,53.4167099,-2.36572003
1356512,Dunham Hall,"Dunham Massey, Trafford, WA14",I,1959-03-05,NA,212842,SJ 73488 87422,1:2500,373488.402,387422.44084,E08000009,Trafford,53.4167099,-2.36572003
1356517,"Bridgewater Canal Aqueduct
Bridgewater Canal Aqueduct Over Hawthorn Road","Trafford, M32",II,1987-06-30,NA,212966,SJ 79667 93798,1:2500,379666.932,393797.91284,E08000009,Trafford,53.4167099,-2.36572003
1356518,Church Of St Matthew,"Trafford, M32",II,1963-06-20,NA,212968,SJ 79482 94175,1:2500,379482,394175.36084,E08000009,Trafford,53.4167099,-2.36572003
1356519,Church Of St Ann,"Trafford, M32",II,1987-06-30,NA,212972,SJ 79917 94655,1:2500,379917,394655.36084,E08000009,Trafford,53.4167099,-2.36572003
1356520,Trafford Road Bridge,"Trafford, M17",II,1987-06-30,NA,212979,SJ8122896561,1:2500,381228.3542,396560.7931,E08000009,Trafford,53.4167099,-2.36572003
1356521,Sundial Immediately South Of Church Of St Michael,"Trafford, M41",II,1987-06-30,NA,212987,SJ 74728 93953,1:2500,374728,393953.36084,E08000009,Trafford,53.4167099,-2.36572003
1356522,"Barton Bridge, Barton Aqueduct And Control Tower","Salford, M41",II*,1987-06-30,1988-05-17,212993,SJ7664297581,1:2500,376641.5806,397580.95165,E08000009,Trafford,53.4167099,-2.36572003
1356523,Newcroft House,"Trafford, M41",II,1987-06-30,NA,212998,SJ 77780 94506,1:2500,377780,394506.36084,E08000009,Trafford,53.4167099,-2.36572003
1356524,Broadoaks,"Trafford, WA15",II,1975-10-13,NA,212900,SJ 78191 86515,1:2500,378191,386515.36084,E08000009,Trafford,53.4167099,-2.36572003
1356525,The Shiel,"Trafford, WA15",II,1975-10-13,NA,212902,SJ 78273 86556,1:2500,378273,386556.36084,E08000009,Trafford,53.4167099,-2.36572003
1356526,The Homestead,"Trafford, WA15",II,1975-10-13,NA,212904,SJ 78297 86594,1:2500,378297,386594.36084,E08000009,Trafford,53.4167099,-2.36572003
1356527,"Sundial, Saint Martin's Church Graveyard","Trafford, M33",II,1985-07-12,NA,212921,SJ 77245 92981,1:2500,377245,392981.36084,E08000009,Trafford,53.4167099,-2.36572003
1356528,"Moss Cottage
The Beech","Trafford, M33",II,1966-11-11,1985-07-12,212925,SJ 77350 91936,1:2500,377350,391936.36084,E08000009,Trafford,53.4167099,-2.36572003
1356529,Sale Old Hall Dovecote,"Trafford, M33",II,1975-03-27,NA,212929,SJ 80689 92317,1:2500,380689,392317.36084,E08000009,Trafford,53.4167099,-2.36572003
1356530,Barn To South West Of The Bent Farmhouse,"Warburton, Trafford, WA13",II,1985-07-12,NA,212936,SJ 70383 89132,1:2500,370383,389132.36084,E08000009,Trafford,53.4167099,-2.36572003
1356531,The School,"Warburton, Trafford, WA13",II,1985-07-12,NA,212939,SJ 71104 89220,1:2500,371104,389220.36084,E08000009,Trafford,53.4167099,-2.36572003
1356532,"Timber Framed Farm Building, South Side Of Warburton Park Farmyard","Warburton, Trafford, WA13",II,1985-07-12,NA,212945,SJ7014690199,1:2500,370146.1328,390198.86475,E08000009,Trafford,53.4167099,-2.36572003
1389135,Sale And Brooklands Cemetery Chapel,"Trafford, M33",II,2000-12-12,NA,486729,SJ7839991379,1:1250,378398.6415,391378.77905,E08000009,Trafford,53.4167099,-2.36572003
1389141,Church Of St Mary,"Partington, Trafford, M31",II,2001-01-17,NA,486735,SJ7182991580,1:1250,371828.7161,391580.37645,E08000009,Trafford,53.4167099,-2.36572003
1389603,Altrincham And Dunham Massey War Memorial,"Trafford, WA14",II,2001-12-05,NA,488291,SJ 75967 87751,1:1250,375966.5355,387751.56785,E08000009,Trafford,53.4167099,-2.36572003
1389616,Gatepiers And Walls To Timperley Lodge,"Trafford, WA14",II,2001-12-12,NA,488304,SJ 76910 89829,1:1250,376909.953,389829.71384,E08000009,Trafford,53.4167099,-2.36572003
1390816,The Main Office Block To The Linotype Works,"Trafford, WA14",II,2004-03-16,NA,490997,SJ 76271 88912,1:1250,376270.5815,388911.86434,E08000009,Trafford,53.4167099,-2.36572003
1391565,Arden Hall,"Trafford, M33",II,2006-04-18,NA,493744,SJ 78604 90918,1:1250,378604.15,390918.80034,E08000009,Trafford,53.4167099,-2.36572003
1391923,Trafford Town Hall,"Trafford, M32",II,2007-03-27,NA,496191,SJ 81007 95778,1:1250,381007.45,395778.56247,E08000009,Trafford,53.4167099,-2.36572003
1392565,Barn North East Of Heathlands Farmhouse,"Warburton, Trafford, WA13",II,2008-04-22,NA,504356,SJ 71194 90153,1:2500,371193.6,390152.86984,E08000009,Trafford,53.4167099,-2.36572003
1393422,The Moorfield,"Trafford, M33",II,2010-01-13,NA,507526,SJ 79402 91221,Unknown,379402,391221.36084,E08000009,Trafford,53.4167099,-2.36572003
1396300,The Church Of St Vincent De Paul And Presbytery,"Trafford, WA14",II,2010-11-16,NA,508478,SJ 76412 87777,1:1250,376412.448,387777.14484,E08000009,Trafford,53.4167099,-2.36572003
1401662,The Volunteer Hotel,"Trafford, M33",II,2012-02-08,NA,NA,SJ7867592456,1:1250,378673.15,392455.06087,E08000009,Trafford,53.4167099,-2.36572003
1403203,"Church Of St Mary The Virgin, Including Boundary Wall & Railings","Trafford, M41",II,2013-02-26,NA,NA,SJ7571995605,1:1250,375719.05,395605.50426,E08000009,Trafford,53.4167099,-2.36572003
1405212,32-34 Railway Street,"Trafford, WA14",II,2011-11-22,NA,NA,SJ7669487639,1:1250,376694.05,387640.54033,E08000009,Trafford,53.4167099,-2.36572003
1416956,"War Memorial In St Mary's Churchyard, Davyhulme","Trafford, M41",II,2014-04-23,NA,NA,SJ7571595620,1:1250,375714.925,395620.49006,E08000009,Trafford,53.4167099,-2.36572003
1416963,Davyhulme Circle War Memorial,"Trafford, M41",II,2014-04-03,NA,NA,SJ7637395711,1:1250,376373.175,395710.53897,E08000009,Trafford,53.4167099,-2.36572003
1431675,"Church Of St Peter, Hale","Trafford, WA15",II,2016-04-15,NA,NA,SJ7736086551,1:1250,377359.95,386550.59788,E08000009,Trafford,53.4167099,-2.36572003
1431681,War Memorial In St Werburg's Churchyard,"Warburton, Trafford, WA13",II,2016-02-18,NA,NA,SJ7046089148,1:1250,370460.2843,389148.41358,E08000009,Trafford,53.4167099,-2.36572003
1433672,"War Memorial Cross In The Grounds Of The Church Of St Anne, Sale","Trafford, M33",II,2016-04-01,NA,NA,SJ7953991612,1:1250,379538.7134,391612.1751,E08000009,Trafford,53.4167099,-2.36572003
1437277,Trafford Park War Memorial,"Trafford, M17",II,2016-08-30,NA,NA,SJ7945296705,1:1250,379451.6,396704.85,E08000009,Trafford,53.4167099,-2.36572003
1437447,War Memorial Outside All Saints' Church,"Trafford, M32",II,2016-08-30,NA,NA,SJ7877695181,1:1250,378776.07,395180.71,E08000009,Trafford,53.4167099,-2.36572003
1437489,Urmston Memorial Cross,"Trafford, M41",II,2016-08-30,NA,NA,SJ7658394951,1:1250,376582.525,394951.25,E08000009,Trafford,53.4167099,-2.36572003
1437774,Hale Barns And Ringway War Memorial,"Trafford, WA15",II,2016-08-30,NA,NA,SJ7910485936,1:1250,379103.9,385936.02917,E08000009,Trafford,53.4167099,-2.36572003
1437788,War Memorial Obelisk And Tablet In Urmston Jewish Cemetery,"Trafford, M41",II,2016-09-07,NA,NA,SJ7734994801,1:1250,377349.4102,394801.3772,E08000009,Trafford,53.4167099,-2.36572003
1439944,Dunham Town War Memorial,"Dunham Massey, Trafford, WA14",II,2016-11-15,NA,NA,SJ7402987921,1:1250,374028.83,387921.04,E08000009,Trafford,53.4167099,-2.36572003
1440079,"St Martin's, Ashton-Upon-Mersey War Memorial","Trafford, M33",II,2017-01-20,NA,NA,SJ7717592978,1:1250,377175.15,392977.80163,E08000009,Trafford,53.4167099,-2.36572003
