{
"type": "FeatureCollection",
"crs": { "type": "name", "properties": { "name": "urn:ogc:def:crs:OGC:1.3:CRS84" } },
"features": [
{ "type": "Feature", "properties": { "club": "ABC Partington Badminton", "category": "Badminton", "address": "Moss Lane, Partington", "postcode": "M31 4FA" }, "geometry": { "type": "Point", "coordinates": [ -2.42096, 53.415136 ] } },
{ "type": "Feature", "properties": { "club": "Acre Gate Golf Club", "category": "Golf", "address": "Pennybridge Lane, Urmston", "postcode": "M41 5DX" }, "geometry": { "type": "Point", "coordinates": [ -2.373865, 53.446756 ] } },
{ "type": "Feature", "properties": { "club": "AFC Sale", "category": "Athletic", "address": "Crossford Bridge Pavillion, Danefield Road, Sale", "postcode": "M33 7WR" }, "geometry": { "type": "Point", "coordinates": [ -2.313783, 53.432778 ] } },
{ "type": "Feature", "properties": { "club": "Altrincham Aces", "category": "Ice Hockey", "address": "Oakfield Road, Station Site, Altrincham", "postcode": "WA15 8EW" }, "geometry": { "type": "Point", "coordinates": [ -2.347053, 53.386779 ] } },
{ "type": "Feature", "properties": { "club": "Altrincham and District Athletic Club", "category": "Athletic", "address": "Grove Lane, Altrincham", "postcode": "WA15 7UF" }, "geometry": { "type": "Point", "coordinates": [ -2.320228, 53.398387 ] } },
{ "type": "Feature", "properties": { "club": "Altrincham and District Badminton Club", "category": "Badminton", "address": "Marlborough Road, Altrincham", "postcode": "WA14 2RS" }, "geometry": { "type": "Point", "coordinates": [ -2.350516, 53.37539 ] } },
{ "type": "Feature", "properties": { "club": "Altrincham Borough Bowling Club", "category": "Bowling", "address": "Willow Tree Road, Altrincham", "postcode": "WA14 2EG" }, "geometry": { "type": "Point", "coordinates": [ -2.350441, 53.380936 ] } },
{ "type": "Feature", "properties": { "club": "Altrincham Golf Club", "category": "Golf", "address": "Stockport Road, Altrincham", "postcode": "WA15 7LP" }, "geometry": { "type": "Point", "coordinates": [ -2.336456, 53.390265 ] } },
{ "type": "Feature", "properties": { "club": "Altrincham Judo Club", "category": "Martial Arts", "address": "Oakfield Road, Altrincham", "postcode": "WA15 8EW" }, "geometry": { "type": "Point", "coordinates": [ -2.345571, 53.388289 ] } },
{ "type": "Feature", "properties": { "club": "Altrincham Karate Club", "category": "Martial Arts", "address": "25 Market Street, Altrincham", "postcode": "WA14 1PF" }, "geometry": { "type": "Point", "coordinates": [ -2.352674, 53.387423 ] } },
{ "type": "Feature", "properties": { "club": "Altrincham Kersal R.F.C.", "category": "Rugby", "address": "Stelfox Avenue, Altrincham", "postcode": "WA15 6UL" }, "geometry": { "type": "Point", "coordinates": [ -2.312396, 53.40069 ] } },
{ "type": "Feature", "properties": { "club": "Altrincham Life Saving and Water Safety Club", "category": "Swimming", "address": "Oakfield Road, Altrincham", "postcode": "WA15 8EW" }, "geometry": { "type": "Point", "coordinates": [ -2.345821, 53.38838 ] } },
{ "type": "Feature", "properties": { "club": "Altrincham Swimming Club", "category": "Swimming", "address": "Oakfield Road, Altrincham", "postcode": "WA15 8EW" }, "geometry": { "type": "Point", "coordinates": [ -2.345898, 53.388269 ] } },
{ "type": "Feature", "properties": { "club": "Altrincham Tae Kwon-Do", "category": "Martial Arts", "address": "Marlborough Road, Altrincham", "postcode": "WA14 2RS" }, "geometry": { "type": "Point", "coordinates": [ -2.350382, 53.375378 ] } },
{ "type": "Feature", "properties": { "club": "Blue Triangle Badminton Club", "category": "Badminton", "address": "Marlborough Road, Altrincham", "postcode": "WA14 2RS" }, "geometry": { "type": "Point", "coordinates": [ -2.350469, 53.375344 ] } },
{ "type": "Feature", "properties": { "club": "Lostock Badminton Club", "category": "Badminton", "address": "Marlborough Road, Altrincham", "postcode": "WA14 2RS" }, "geometry": { "type": "Point", "coordinates": [ -2.350238, 53.375347 ] } },
{ "type": "Feature", "properties": { "club": "Atlantic Badminton Club", "category": "Badminton", "address": "Marlborough Road, Altrincham", "postcode": "WA14 2RS" }, "geometry": { "type": "Point", "coordinates": [ -2.350673, 53.375371 ] } },
{ "type": "Feature", "properties": { "club": "Trafford Aikido Club", "category": "Martial Arts", "address": "Oakfield Road, Altrincham", "postcode": "WA15 8EW" }, "geometry": { "type": "Point", "coordinates": [ -2.345654, 53.388441 ] } },
{ "type": "Feature", "properties": { "club": "Altrincham Football Club", "category": "Football", "address": "Moss Lane, Altrincham", "postcode": "WA15 8AP" }, "geometry": { "type": "Point", "coordinates": [ -2.335238, 53.383404 ] } },
{ "type": "Feature", "properties": { "club": "Ashton Cricket Club", "category": "Cricket", "address": "Little Ees Lane, Sale", "postcode": "M33 5GT" }, "geometry": { "type": "Point", "coordinates": [ -2.336582, 53.436245 ] } },
{ "type": "Feature", "properties": { "club": "Ashton Ladies Bowling Club", "category": "Bowling", "address": "Glebelands Road, Sale", "postcode": "M33 5QU" }, "geometry": { "type": "Point", "coordinates": [ -2.335373, 53.429991 ] } },
{ "type": "Feature", "properties": { "club": "Ashton on Mersey  RUFC", "category": "Rugby", "address": "Banky Lane, Sale", "postcode": "M33 5SL" }, "geometry": { "type": "Point", "coordinates": [ -2.355586, 53.433392 ] } },
{ "type": "Feature", "properties": { "club": "Ashton on Mersey Cricket and Tennis Club", "category": "Cricket, Tennis", "address": "Little Ees Lane, Sale", "postcode": "M33 5GT" }, "geometry": { "type": "Point", "coordinates": [ -2.33651, 53.436232 ] } },
{ "type": "Feature", "properties": { "club": "Ashton on Mersey Golf Club", "category": "Golf", "address": "Church Lane, Sale", "postcode": "M33 5QQ" }, "geometry": { "type": "Point", "coordinates": [ -2.34427, 53.434156 ] } },
{ "type": "Feature", "properties": { "club": "Ashton on Mersey Junior Football Club", "category": "Football", "address": "Dumber Lane, Sale", "postcode": "M33 5QX" }, "geometry": { "type": "Point", "coordinates": [ -2.33715, 53.430175 ] } },
{ "type": "Feature", "properties": { "club": "Ashton Park Veterans Bowling Club", "category": "Bowling", "address": "Glebelands Road, Sale", "postcode": "M33 5QU" }, "geometry": { "type": "Point", "coordinates": [ -2.334904, 53.429845 ] } },
{ "type": "Feature", "properties": { "club": "Atlantic Judo\/Ju-jitsu Club", "category": "Martial Arts", "address": "Brook Close, Altrincham", "postcode": "WA15 6RH" }, "geometry": { "type": "Point", "coordinates": [ -2.342073, 53.395499 ] } },
{ "type": "Feature", "properties": { "club": "Avenue Methodist Church Badminton", "category": "Badminton", "address": "Wincham Road, Sale", "postcode": "M33 4PL" }, "geometry": { "type": "Point", "coordinates": [ -2.341813, 53.414365 ] } },
{ "type": "Feature", "properties": { "club": "Bowdon Bowling and Lawn Tennis Club", "category": "Bowling, Tennis", "address": "Winton Road, Altrincham", "postcode": "WA14 2PD" }, "geometry": { "type": "Point", "coordinates": [ -2.36107, 53.378905 ] } },
{ "type": "Feature", "properties": { "club": "Bowdon Cricket, Hockey and Squash Club", "category": "Multi Sports", "address": "South Downs Road, Altrincham", "postcode": "WA14 3DT" }, "geometry": { "type": "Point", "coordinates": [ -2.35557, 53.373416 ] } },
{ "type": "Feature", "properties": { "club": "Bowdon Croquet Club", "category": "Croquet", "address": "St Mary's Road, Altrincham", "postcode": "WA14 2PL" }, "geometry": { "type": "Point", "coordinates": [ -2.362475, 53.379612 ] } },
{ "type": "Feature", "properties": { "club": "Bowdon Lawn Tennis Club", "category": "Tennis", "address": "Green Walk, Altrincham", "postcode": "WA14 2SJ" }, "geometry": { "type": "Point", "coordinates": [ -2.366813, 53.379662 ] } },
{ "type": "Feature", "properties": { "club": "Bowdon RUFC", "category": "Rugby", "address": "Clay Lane, Altrincham", "postcode": "WA15 7AF" }, "geometry": { "type": "Point", "coordinates": [ -2.311317, 53.387296 ] } },
{ "type": "Feature", "properties": { "club": "Bowdon Vale Bowling Club", "category": "Bowling", "address": "Priory Street, Altrincham", "postcode": "WA14 3BH" }, "geometry": { "type": "Point", "coordinates": [ -2.361789, 53.369682 ] } },
{ "type": "Feature", "properties": { "club": "Broadheath Central FC", "category": "Football", "address": "Viaduct Road, Altrincham", "postcode": "WA14 5DX" }, "geometry": { "type": "Point", "coordinates": [ -2.349618, 53.400464 ] } },
{ "type": "Feature", "properties": { "club": "Brooklands Football Club", "category": "Football", "address": "Budworth Road, Sale", "postcode": "M33 2RP" }, "geometry": { "type": "Point", "coordinates": [ -2.297194, 53.417145 ] } },
{ "type": "Feature", "properties": { "club": "Brooklands Sports Club", "category": "Multi Sports", "address": "George's Road, Sale", "postcode": "M33 3NL" }, "geometry": { "type": "Point", "coordinates": [ -2.317819, 53.414619 ] } },
{ "type": "Feature", "properties": { "club": "Brownley Albion", "category": "Football", "address": "Beech Avenue, Altrincham", "postcode": "WA16 6JS" }, "geometry": { "type": "Point", "coordinates": [ -2.31996, 53.403849 ] } },
{ "type": "Feature", "properties": { "club": "Bucklow Trafford Riding Club", "category": "Riding", "address": "Dairy House Lane, Stretford", "postcode": "WA14 5RE" }, "geometry": { "type": "Point", "coordinates": [ -2.371155, 53.401177 ] } },
{ "type": "Feature", "properties": { "club": "Carrington Riding Centre", "category": "Riding", "address": "Isherwood Road, Urmston", "postcode": "M31 4BH" }, "geometry": { "type": "Point", "coordinates": [ -2.382194, 53.434184 ] } },
{ "type": "Feature", "properties": { "club": "Cheshire Jet Ski Club", "category": "Water Sports", "address": "Rifle Road, Sale", "postcode": "M33 2LX" }, "geometry": { "type": "Point", "coordinates": [ -2.300003, 53.431401 ] } },
{ "type": "Feature", "properties": { "club": "Claremont Tennis Club", "category": "Tennis", "address": "Claremont Avenue, Altrincham", "postcode": "WA14 5ND" }, "geometry": { "type": "Point", "coordinates": [ -2.348383, 53.404184 ] } },
{ "type": "Feature", "properties": { "club": "Davyhulme Park Bowling Club", "category": "Bowling", "address": "Crofts Bank Road, Stretford", "postcode": "M41 0US" }, "geometry": { "type": "Point", "coordinates": [ -2.352432, 53.453066 ] } },
{ "type": "Feature", "properties": { "club": "Davyhulme Park Golf Club", "category": "Golf", "address": "Gleneagles Road, Urmston", "postcode": "M41 8SA" }, "geometry": { "type": "Point", "coordinates": [ -2.383403, 53.455599 ] } },
{ "type": "Feature", "properties": { "club": "Dunham Forest Golf Club", "category": "Golf", "address": "Oldfield Lane, Altrincham", "postcode": "WA14 4TY" }, "geometry": { "type": "Point", "coordinates": [ -2.378752, 53.387525 ] } },
{ "type": "Feature", "properties": { "club": "Flixton Cricket and Sports Club", "category": "Cricket", "address": "Lawrence Rd, Urmston", "postcode": "M41 8UU" }, "geometry": { "type": "Point", "coordinates": [ -2.387818, 53.452126 ] } },
{ "type": "Feature", "properties": { "club": "Flixton Football Club", "category": "Football", "address": "Vally Road, Urmston", "postcode": "M41 8RQ" }, "geometry": { "type": "Point", "coordinates": [ -2.39833, 53.454557 ] } },
{ "type": "Feature", "properties": { "club": "Flixton Golf Club", "category": "Golf", "address": "269 Church Road, Urmston", "postcode": "M41 6EP" }, "geometry": { "type": "Point", "coordinates": [ -2.376749, 53.441377 ] } },
{ "type": "Feature", "properties": { "club": "Flixton Junior Football Club", "category": "Football", "address": "91 Irlam Road, Urmston", "postcode": "M41 6DU" }, "geometry": { "type": "Point", "coordinates": [ -2.396688, 53.445959 ] } },
{ "type": "Feature", "properties": { "club": "Gendai Karate", "category": "Martial Arts", "address": "Partington Central Road, Partington", "postcode": "M31 4EQ" }, "geometry": { "type": "Point", "coordinates": [ -2.425135, 53.41689 ] } },
{ "type": "Feature", "properties": { "club": "Golden Hill Ladies Bowling Club", "category": "Bowling", "address": "Winifred Road, Urmston", "postcode": "M41 5FT" }, "geometry": { "type": "Point", "coordinates": [ -2.355699, 53.451169 ] } },
{ "type": "Feature", "properties": { "club": "Golden Hill Mens Bowling Club", "category": "Bowling", "address": "Winifred Road, Urmston", "postcode": "M41 5FT" }, "geometry": { "type": "Point", "coordinates": [ -2.35553, 53.451201 ] } },
{ "type": "Feature", "properties": { "club": "Hale Barns Cricket Club", "category": "Cricket", "address": "Brooks Drive, Altrincham", "postcode": "WA15 8TN" }, "geometry": { "type": "Point", "coordinates": [ -2.301104, 53.367489 ] } },
{ "type": "Feature", "properties": { "club": "Hale Barns Tennis Club", "category": "Tennis", "address": "Chapel Lane, Altrincham", "postcode": "WA15 0AQ" }, "geometry": { "type": "Point", "coordinates": [ -2.314644, 53.366092 ] } },
{ "type": "Feature", "properties": { "club": "Hale Barns United Junior Football Club", "category": "Football", "address": "Grange Road - Bowdon CofE Primary School, Altrincham", "postcode": "WA14 2DZ" }, "geometry": { "type": "Point", "coordinates": [ -2.354889, 53.371317 ] } },
{ "type": "Feature", "properties": { "club": "Hale Golf Club", "category": "Golf", "address": "Rappax Road, Altrincham", "postcode": "WA15 0NU" }, "geometry": { "type": "Point", "coordinates": [ -2.329151, 53.365269 ] } },
{ "type": "Feature", "properties": { "club": "Hale Ladies Bowling Club", "category": "Bowling", "address": "Stamford Park Road, Altrincham", "postcode": "WA15 9EL" }, "geometry": { "type": "Point", "coordinates": [ -2.341959, 53.383452 ] } },
{ "type": "Feature", "properties": { "club": "Hale Moss Bowling Club", "category": "Bowling", "address": "Stamford Park Road, Altrincham", "postcode": "WA15 9EL" }, "geometry": { "type": "Point", "coordinates": [ -2.341774, 53.383524 ] } },
{ "type": "Feature", "properties": { "club": "Hale Lawn Tennis Club", "category": "Tennis", "address": "Park Avenue, Altrincham", "postcode": "WA15 9DL" }, "geometry": { "type": "Point", "coordinates": [ -2.333181, 53.37549 ] } },
{ "type": "Feature", "properties": { "club": "Hale Veterans' Bowling Club", "category": "Bowling", "address": "Ashley Road, Altrincham", "postcode": "WA14 2LX" }, "geometry": { "type": "Point", "coordinates": [ -2.352851, 53.379275 ] } },
{ "type": "Feature", "properties": { "club": "Hale Village Tennis Club", "category": "Tennis", "address": "Leigh Road, Altrincham", "postcode": "WA15 9BJ" }, "geometry": { "type": "Point", "coordinates": [ -2.343608, 53.377757 ] } },
{ "type": "Feature", "properties": { "club": "Heyes Grove Tennis Club", "category": "Tennis", "address": "Stoney Bridge Lane, Stretford", "postcode": "WA15 6PG" }, "geometry": { "type": "Point", "coordinates": [ -2.324526, 53.399466 ] } },
{ "type": "Feature", "properties": { "club": "Humphrey Park Ladies Bowling Club", "category": "Bowling", "address": "Humphrey Lane, Urmston", "postcode": "M41 9PT" }, "geometry": { "type": "Point", "coordinates": [ -2.332284, 53.450333 ] } },
{ "type": "Feature", "properties": { "club": "Ju Jitsu Club", "category": "Martial Arts", "address": "5 Dovestone Road, Sale", "postcode": "M33 6LE" }, "geometry": { "type": "Point", "coordinates": [ -2.321859, 53.4295 ] } },
{ "type": "Feature", "properties": { "club": "T50 Gymnsatics", "category": "Gymnastics", "address": "Raglan Road, Sale", "postcode": "M33 4AN" }, "geometry": { "type": "Point", "coordinates": [ -2.329799, 53.414416 ] } },
{ "type": "Feature", "properties": { "club": "Legh Arms Bowling Club", "category": "Bowling", "address": "178 Northenden Road, Sale", "postcode": "M33 2SR" }, "geometry": { "type": "Point", "coordinates": [ -2.302699, 53.419272 ] } },
{ "type": "Feature", "properties": { "club": "Longford Park Bowling Club", "category": "Bowling", "address": "Cromwell Road, Stretford", "postcode": "M32 8QL" }, "geometry": { "type": "Point", "coordinates": [ -2.291386, 53.447664 ] } },
{ "type": "Feature", "properties": { "club": "Longhey Athletic Junior Football Club", "category": "Football", "address": "Grove Lane, Altrincham", "postcode": "WA15 6PL" }, "geometry": { "type": "Point", "coordinates": [ -2.32645, 53.381147 ] } },
{ "type": "Feature", "properties": { "club": "Manchester Korfball Club", "category": "Netball, Basketball", "address": "Broad Road, Sale", "postcode": "M33 2AL" }, "geometry": { "type": "Point", "coordinates": [ -2.315886, 53.424678 ] } },
{ "type": "Feature", "properties": { "club": "Mersey Valley Sports and Social Club", "category": "Multi Sports", "address": "Banky Lane, Sale", "postcode": "M33 5SL" }, "geometry": { "type": "Point", "coordinates": [ -2.353487, 53.432694 ] } },
{ "type": "Feature", "properties": { "club": "Montell Carrington RUFC", "category": "Rugby", "address": "Manchester Road, Partington", "postcode": "M31 4BD" }, "geometry": { "type": "Point", "coordinates": [ -2.391366, 53.431556 ] } },
{ "type": "Feature", "properties": { "club": "Navigation Veterans Bowling Club", "category": "Bowling", "address": "Navigation Road, Altrincham", "postcode": "WA14 1LJ" }, "geometry": { "type": "Point", "coordinates": [ -2.343605, 53.396228 ] } },
{ "type": "Feature", "properties": { "club": "Norris Road Veterans Bowling Club", "category": "Bowling", "address": "Moor Nook Park, Norris Road, Sale", "postcode": "M33 2TN" }, "geometry": { "type": "Point", "coordinates": [ -2.305593, 53.414821 ] } },
{ "type": "Feature", "properties": { "club": "Old Stretfordians Amateur Football Club", "category": "Football", "address": "Urmston", "postcode": "M41 5GJ" }, "geometry": { "type": "Point", "coordinates": [ -2.380486, 53.446623 ] } },
{ "type": "Feature", "properties": { "club": "Old Trafford Bowling Club", "category": "Bowling", "address": "Talbot Road, Sale", "postcode": "M16 0PW" }, "geometry": { "type": "Point", "coordinates": [ -2.280557, 53.460569 ] } },
{ "type": "Feature", "properties": { "club": "Manchester United Football Club", "category": "Football", "address": "Sir Matt Busby Way, Stretford", "postcode": "M16 0RA" }, "geometry": { "type": "Point", "coordinates": [ -2.291376, 53.463043 ] } },
{ "type": "Feature", "properties": { "club": "Oldfield Table Tennis Club", "category": "Tennis", "address": "Shay Lane, Altrincham", "postcode": "WA15 8NZ" }, "geometry": { "type": "Point", "coordinates": [ -2.315587, 53.372236 ] } },
{ "type": "Feature", "properties": { "club": "Partington Netball Club", "category": "Netball", "address": "Chapel Lane, Partington", "postcode": "M31 4ES" }, "geometry": { "type": "Point", "coordinates": [ -2.428356, 53.413477 ] } },
{ "type": "Feature", "properties": { "club": "Partington Trampolining Club", "category": "Trampoline", "address": "Chapel Lane, Partington", "postcode": "M31 4ES" }, "geometry": { "type": "Point", "coordinates": [ -2.428563, 53.413482 ] } },
{ "type": "Feature", "properties": { "club": "Partington Village Junior Football Club", "category": "Football", "address": "Chapel Lane, Partington", "postcode": "M31 4ES" }, "geometry": { "type": "Point", "coordinates": [ -2.428442, 53.413353 ] } },
{ "type": "Feature", "properties": { "club": "Pyramid Ventura Badminton Club", "category": "Badminton", "address": "Cecil Avenue, Sale", "postcode": "M33 5BP" }, "geometry": { "type": "Point", "coordinates": [ -2.340796, 53.419769 ] } },
{ "type": "Feature", "properties": { "club": "Quadrant, Urmston Football Club", "category": "Football", "address": "Audley Avenue, Sale", "postcode": "M32 9TG" }, "geometry": { "type": "Point", "coordinates": [ -2.334351, 53.458029 ] } },
{ "type": "Feature", "properties": { "club": "Riddings Bowling Club", "category": "Bowling", "address": "Riddings Road, Stretford", "postcode": "WA15 6BW" }, "geometry": { "type": "Point", "coordinates": [ -2.33198, 53.404879 ] } },
{ "type": "Feature", "properties": { "club": "Ringway Golf Club Ltd.", "category": "Golf", "address": "Hale Road, Sale", "postcode": "WA15 8SW" }, "geometry": { "type": "Point", "coordinates": [ -2.315035, 53.370498 ] } },
{ "type": "Feature", "properties": { "club": "Sailfin Swimming Club for People with Disabilities", "category": "Swimming", "address": "Broad Road, Altrincham", "postcode": "M33 2AL" }, "geometry": { "type": "Point", "coordinates": [ -2.316155, 53.424664 ] } },
{ "type": "Feature", "properties": { "club": "Sale Amateur Football Club", "category": "Football", "address": "Heywood Road, Sale", "postcode": "M33 3WB" }, "geometry": { "type": "Point", "coordinates": [ -2.321306, 53.416137 ] } },
{ "type": "Feature", "properties": { "club": "Sale Atemi Ju Jitsu", "category": "Martial Arts", "address": "5 Dovestone Road, Sale", "postcode": "M33 6LE" }, "geometry": { "type": "Point", "coordinates": [ -2.32175, 53.429415 ] } },
{ "type": "Feature", "properties": { "club": "Sale Golf Club", "category": "Golf", "address": "Golf Road, Sale", "postcode": "M33 2XU" }, "geometry": { "type": "Point", "coordinates": [ -2.291185, 53.424694 ] } },
{ "type": "Feature", "properties": { "club": "Sale Harriers Athletic Club", "category": "Athletic", "address": "Danefield Road, Sale", "postcode": "M33 7WR" }, "geometry": { "type": "Point", "coordinates": [ -2.313648, 53.432761 ] } },
{ "type": "Feature", "properties": { "club": "Sale Juniors Football Club", "category": "Football", "address": "Danefield Road, Sale", "postcode": "M33 7WR" }, "geometry": { "type": "Point", "coordinates": [ -2.315755, 53.432632 ] } },
{ "type": "Feature", "properties": { "club": "Sale Excelsior Club", "category": "Bowling", "address": "2 Symons Road, Sale", "postcode": "M33 7FJ" }, "geometry": { "type": "Point", "coordinates": [ -2.318707, 53.427174 ] } },
{ "type": "Feature", "properties": { "club": "Sale Jubilee Ladies Bowling Club", "category": "Bowling", "address": "Broad Road, Sale", "postcode": "M33 2ES" }, "geometry": { "type": "Point", "coordinates": [ -2.307784, 53.425156 ] } },
{ "type": "Feature", "properties": { "club": "Sale Judo Club", "category": "Martial Arts", "address": "Broad Road, Sale", "postcode": "M33 2AL" }, "geometry": { "type": "Point", "coordinates": [ -2.315712, 53.424644 ] } },
{ "type": "Feature", "properties": { "club": "Sale Moor Cricket Club", "category": "Cricket", "address": "Sunningdale Avenue, Sale", "postcode": "M33 2PJ" }, "geometry": { "type": "Point", "coordinates": [ -2.297263, 53.417372 ] } },
{ "type": "Feature", "properties": { "club": "Sale RUFC", "category": "Rugby", "address": "Heywood Road, Sale", "postcode": "M33 3WB" }, "geometry": { "type": "Point", "coordinates": [ -2.321038, 53.416161 ] } },
{ "type": "Feature", "properties": { "club": "Sale Sports Club", "category": "Multi Sports", "address": "Clarendon Crescent, Sale", "postcode": "M33 2DE" }, "geometry": { "type": "Point", "coordinates": [ -2.30452, 53.427912 ] } },
{ "type": "Feature", "properties": { "club": "Sale United Football Club", "category": "Football", "address": "Danefield Road, Sale", "postcode": "M33 7WR" }, "geometry": { "type": "Point", "coordinates": [ -2.315672, 53.432613 ] } },
{ "type": "Feature", "properties": { "club": "Sale Weight Training Club", "category": "Weights", "address": "30 Raglan Road, Sale", "postcode": "M33 4AG" }, "geometry": { "type": "Point", "coordinates": [ -2.329322, 53.414747 ] } },
{ "type": "Feature", "properties": { "club": "Salians RUFC", "category": "Rugby", "address": "Finny Bank Road, Sale", "postcode": "M33 6LR" }, "geometry": { "type": "Point", "coordinates": [ -2.330633, 53.433544 ] } },
{ "type": "Feature", "properties": { "club": "Silver Feather Badminton Club", "category": "Badminton", "address": "Cecil Avenue, Sale", "postcode": "M33 5BP" }, "geometry": { "type": "Point", "coordinates": [ -2.340605, 53.419806 ] } },
{ "type": "Feature", "properties": { "club": "St Lawrence Gaelic Football Club", "category": "Gaelic Football", "address": "Turn Moss Road, Sale", "postcode": "M32 8QD" }, "geometry": { "type": "Point", "coordinates": [ -2.293538, 53.441386 ] } },
{ "type": "Feature", "properties": { "club": "Stamford Bowling Club", "category": "Bowling", "address": "Oldfield Road, Altrincham", "postcode": "WA14 4WQ" }, "geometry": { "type": "Point", "coordinates": [ -2.354671, 53.392356 ] } },
{ "type": "Feature", "properties": { "club": "Stretford Amateur Swimming Club", "category": "Swimming", "address": "Briggs Road, Stretford", "postcode": "M32 0ZP" }, "geometry": { "type": "Point", "coordinates": [ -2.292301, 53.45818 ] } },
{ "type": "Feature", "properties": { "club": "Stretford Cricket Club", "category": "Cricket", "address": "Lesley Road, Stretford", "postcode": "M32 9EE" }, "geometry": { "type": "Point", "coordinates": [ -2.327468, 53.443106 ] } },
{ "type": "Feature", "properties": { "club": "Stretfordians Junior Football Club", "category": "Football", "address": "Grove Lane, Altrincham", "postcode": "WA15 6PL" }, "geometry": { "type": "Point", "coordinates": [ -2.321925, 53.397866 ] } },
{ "type": "Feature", "properties": { "club": "Tai Chi Chuan", "category": "Martial Arts", "address": "Longford Park School, Stretford", "postcode": "M32 8QJ" }, "geometry": { "type": "Point", "coordinates": [ -2.294093, 53.448255 ] } },
{ "type": "Feature", "properties": { "club": "Tang Soo Doo", "category": "Martial Arts", "address": "Broad Road, Sale", "postcode": "M33 2AL" }, "geometry": { "type": "Point", "coordinates": [ -2.315933, 53.424533 ] } },
{ "type": "Feature", "properties": { "club": "Timperley Sports Club", "category": "Multi Sports", "address": "Stockport Road, Altrincham", "postcode": "WA15 7LU" }, "geometry": { "type": "Point", "coordinates": [ -2.331341, 53.390761 ] } },
{ "type": "Feature", "properties": { "club": "Timperley Villa Youth FC", "category": "Football", "address": "Balmoral Road, Altrincham", "postcode": "WA15 8HJ" }, "geometry": { "type": "Point", "coordinates": [ -2.342081, 53.386988 ] } },
{ "type": "Feature", "properties": { "club": "Trafford Athletic Club", "category": "Athletic", "address": "Ryebank Road, Stretford", "postcode": "M21 9TA" }, "geometry": { "type": "Point", "coordinates": [ -2.289527, 53.446315 ] } },
{ "type": "Feature", "properties": { "club": "Trafford Basketball Centre", "category": "Basketball", "address": "Manor Avenue, Sale", "postcode": "M33 5JX" }, "geometry": { "type": "Point", "coordinates": [ -2.354758, 53.424575 ] } },
{ "type": "Feature", "properties": { "club": "Trafford Football Club", "category": "Football", "address": "Pennybridge Lane, Urmston", "postcode": "M41 5DL" }, "geometry": { "type": "Point", "coordinates": [ -2.37216, 53.446398 ] } },
{ "type": "Feature", "properties": { "club": "Trafford Hawks", "category": "Rugby", "address": "Finny Bank Road, Sale", "postcode": "M33 6LR" }, "geometry": { "type": "Point", "coordinates": [ -2.330858, 53.433669 ] } },
{ "type": "Feature", "properties": { "club": "Trafford MV Cricket Club", "category": "Cricket", "address": "Finny Bank Road, Sale", "postcode": "M33 6LR" }, "geometry": { "type": "Point", "coordinates": [ -2.330778, 53.433652 ] } },
{ "type": "Feature", "properties": { "club": "Trafford MV RFCC", "category": "Rugby", "address": "Finny Bank Road, Sale", "postcode": "M33 6LR" }, "geometry": { "type": "Point", "coordinates": [ -2.330801, 53.433604 ] } },
{ "type": "Feature", "properties": { "club": "Trafford Senior Netball Club", "category": "Netball", "address": "Manor Avenue, Sale", "postcode": "M33 5JX" }, "geometry": { "type": "Point", "coordinates": [ -2.354544, 53.424689 ] } },
{ "type": "Feature", "properties": { "club": "Trafford Metro Swimming Club", "category": "Swimming", "address": "Broad Road, Sale", "postcode": "M33 2AL" }, "geometry": { "type": "Point", "coordinates": [ -2.315692, 53.424553 ] } },
{ "type": "Feature", "properties": { "club": "Trafford Synchronized Swimming Club", "category": "Swimming", "address": "Broad Road, Sale", "postcode": "M33 2AL" }, "geometry": { "type": "Point", "coordinates": [ -2.315806, 53.424508 ] } },
{ "type": "Feature", "properties": { "club": "Trafford Rangers Junior FC", "category": "Football", "address": "Urmston", "postcode": "M41 6JB" }, "geometry": { "type": "Point", "coordinates": [ -2.380233, 53.443309 ] } },
{ "type": "Feature", "properties": { "club": "Trafford Rowing Club", "category": "Rowing", "address": "30 Raglan Road, Sale", "postcode": "M33 4AG" }, "geometry": { "type": "Point", "coordinates": [ -2.329679, 53.41457 ] } },
{ "type": "Feature", "properties": { "club": "Trafford School of Gymnastics", "category": "Gymnastics", "address": "Raglan Road, Sale", "postcode": "M33 4AN" }, "geometry": { "type": "Point", "coordinates": [ -2.329562, 53.414675 ] } },
{ "type": "Feature", "properties": { "club": "Trafford Sub-Aqua Club", "category": "Swimming", "address": "Bowfell Road, Urmston", "postcode": "M41 5RR" }, "geometry": { "type": "Point", "coordinates": [ -2.371123, 53.450119 ] } },
{ "type": "Feature", "properties": { "club": "Trafford Sword Club", "category": "Fencing", "address": "Flixton Road, Urmston", "postcode": "M41 6QY" }, "geometry": { "type": "Point", "coordinates": [ -2.383556, 53.445609 ] } },
{ "type": "Feature", "properties": { "club": "Trinity Bowling Club", "category": "Bowling", "address": "Temple Road, Sale", "postcode": "M33 2FQ" }, "geometry": { "type": "Point", "coordinates": [ -2.304436, 53.423449 ] } },
{ "type": "Feature", "properties": { "club": "Unicorn Athletic Junior Football Club", "category": "Football", "address": "Sylvan Avenue, Sale", "postcode": "M33 3UW" }, "geometry": { "type": "Point", "coordinates": [ -2.332913, 53.409111 ] } },
{ "type": "Feature", "properties": { "club": "Urmston and District Riding Club", "category": "Riding", "address": "Urmston", "postcode": "M41 9EP" }, "geometry": { "type": "Point", "coordinates": [ -2.365681, 53.434985 ] } },
{ "type": "Feature", "properties": { "club": "Urmston Cricket and Tennis Club", "category": "Cricket, Tennis", "address": "Moorside Road, Urmston", "postcode": "M41 5UU" }, "geometry": { "type": "Point", "coordinates": [ -2.361136, 53.451293 ] } },
{ "type": "Feature", "properties": { "club": "Urmston Ladies Hockey Club", "category": "Hockey", "address": "Moorside Road, Urmston", "postcode": "M41 5UU" }, "geometry": { "type": "Point", "coordinates": [ -2.361015, 53.451227 ] } },
{ "type": "Feature", "properties": { "club": "Urmston Meadowside Football Club", "category": "Football", "address": "Flixton Road, Urmston", "postcode": "M41 5DW" }, "geometry": { "type": "Point", "coordinates": [ -2.378689, 53.447006 ] } },
{ "type": "Feature", "properties": { "club": "Urmston Park Mens Bowling Club", "category": "Bowling", "address": "Winifred Road, Urmston", "postcode": "M41 5FT" }, "geometry": { "type": "Point", "coordinates": [ -2.355886, 53.451137 ] } },
{ "type": "Feature", "properties": { "club": "Urmston Town Junior Football Club", "category": "Football", "address": "Barton Clough Audley Avenue, Urmston", "postcode": "M32 9TG" }, "geometry": { "type": "Point", "coordinates": [ -2.333502, 53.458888 ] } },
{ "type": "Feature", "properties": { "club": "Victoria Park Bowling Club", "category": "Bowling", "address": "Victoria Road, Stretford", "postcode": "M32 0AD" }, "geometry": { "type": "Point", "coordinates": [ -2.310281, 53.449139 ] } },
{ "type": "Feature", "properties": { "club": "Walton Park Bowling Club", "category": "Bowling", "address": "Walton Road, Sale", "postcode": "M33 4FG" }, "geometry": { "type": "Point", "coordinates": [ -2.331591, 53.413321 ] } },
{ "type": "Feature", "properties": { "club": "Walton Park Ladies Bowling Club", "category": "Bowling", "address": "Walton Road, Sale", "postcode": "M33 4FG" }, "geometry": { "type": "Point", "coordinates": [ -2.330986, 53.413174 ] } },
{ "type": "Feature", "properties": { "club": "William Wroe Veterans Golf Society", "category": "Golf", "address": "Stockport Road, Urmston", "postcode": "WA15 7LP" }, "geometry": { "type": "Point", "coordinates": [ -2.336416, 53.390191 ] } },
{ "type": "Feature", "properties": { "club": "Winchester Ladies Bowling Club", "category": "Bowling", "address": "Crofts Bank Road, Urmston", "postcode": "M41 0US" }, "geometry": { "type": "Point", "coordinates": [ -2.355621, 53.451095 ] } },
{ "type": "Feature", "properties": { "club": "Woodheys Club Ltd", "category": "Football", "address": "299 Washway Road, Sale", "postcode": "M33 4EE" }, "geometry": { "type": "Point", "coordinates": [ -2.338089, 53.413401 ] } }
]
}
