[
  {
    "Location":"Trafford College (Talbot Centre)",
    "Address1":"Talbot Road",
    "Address2":"Manchester",
    "Address3":"",
    "Postcode":"M32 0XH",
    "Notes":"Purchased by Trafford College. Located behind reception at the main entrance.",
    "Latitude":53.457091,
    "Longitude":-2.290487
  },
  {
    "Location":"Acre Hall Primary",
    "Address1":"Irlam Road",
    "Address2":"Flixton",
    "Address3":"Manchester",
    "Postcode":"M41 6NA",
    "Notes":"Scheme: Via 999 offer",
    "Latitude":53.448269,
    "Longitude":-2.393184
  },
  {
    "Location":"AECOM",
    "Address1":"Aecom House",
    "Address2":"179 Moss Lane",
    "Address3":"Altrincham",
    "Postcode":"WA15 8FH",
    "Notes":"",
    "Latitude":53.384092,
    "Longitude":-2.337856
  },
  {
    "Location":"Airkikx",
    "Address1":"9 Trafford Way",
    "Address2":"Trafford Park",
    "Address3":"Manchester",
    "Postcode":"M41 7JA",
    "Notes":"",
    "Latitude":53.468029,
    "Longitude":-2.362573
  },
  {
    "Location":"All Saints Catholic Primary",
    "Address1":"Cedar Road",
    "Address2":"Sale",
    "Address3":"",
    "Postcode":"M33 5NW",
    "Notes":"Scheme: Funded by (http://www.handonheart.org) Hand on Heart Charity and Trafford Housing Trust",
    "Latitude":53.430623,
    "Longitude":-2.350398
  },
  {
    "Location":"Altrincham College of Arts",
    "Address1":"Green Lane",
    "Address2":"Timperley",
    "Address3":"Altrincham",
    "Postcode":"WA15 8QW",
    "Notes":"Scheme: Funded by (http://www.handonheart.org) Hand on Heart Charity",
    "Latitude":53.384436,
    "Longitude":-2.323453
  },
  {
    "Location":"Altrincham Custody Office",
    "Address1":"Barrington Road",
    "Address2":"Altrincham",
    "Address3":"",
    "Postcode":"WA14 1HZ",
    "Notes":"",
    "Latitude":53.393753,
    "Longitude":-2.350305
  },
  {
    "Location":"Altrincham FC",
    "Address1":"Moss Lane",
    "Address2":"Altrincham",
    "Address3":"",
    "Postcode":"WA15 8AP",
    "Notes":"",
    "Latitude":53.382893,
    "Longitude":-2.335137
  },
  {
    "Location":"Altrincham Golf Course",
    "Address1":"Altrincham Golf Course",
    "Address2":"Stockport Road",
    "Address3":"Altrincham",
    "Postcode":"WA15 7LP",
    "Notes":"",
    "Latitude":53.390421,
    "Longitude":-2.3367
  },
  {
    "Location":"Altrincham Grammar School for Boys",
    "Address1":"Marlborough Road",
    "Address2":"Bowdon",
    "Address3":"Altrincham",
    "Postcode":"WA14 2RS",
    "Notes":"",
    "Latitude":53.37587,
    "Longitude":-2.351069
  },
  {
    "Location":"Altrincham Grammar School for Boys",
    "Address1":"Marlborough Road",
    "Address2":"Bowdon",
    "Address3":"Altrincham",
    "Postcode":"WA14 2RS",
    "Notes":"",
    "Latitude":53.376581,
    "Longitude":-2.350961
  },
  {
    "Location":"Altrincham Grammar School for Girls",
    "Address1":"Cavendish Road",
    "Address2":"Bowdon",
    "Address3":"Altrincham",
    "Postcode":"WA14 2NL",
    "Notes":"Scheme: Funded by (http://www.handonheart.org) Hand on Heart Charity",
    "Latitude":53.381228,
    "Longitude":-2.36047
  },
  {
    "Location":"Altrincham Interchange",
    "Address1":"Stamford New Road",
    "Address2":"Altrincham",
    "Address3":"",
    "Postcode":"WA14 1EN",
    "Notes":"",
    "Latitude":53.387593,
    "Longitude":-2.347652
  },
  {
    "Location":"Altrincham Leisure Centre",
    "Address1":"Altrincham Leisure Centre",
    "Address2":"Oakfield Road",
    "Address3":"Altrincham",
    "Postcode":"WA15 8EW",
    "Notes":"",
    "Latitude":53.386788,
    "Longitude":-2.346925
  },
  {
    "Location":"Altrincham Medical Practice",
    "Address1":"7 Lloyd Street",
    "Address2":"Altrincham",
    "Address3":"",
    "Postcode":"WA14 2DD",
    "Notes":"",
    "Latitude":53.384625,
    "Longitude":-2.351718
  },
  {
    "Location":"Altrincham Muslim Association",
    "Address1":"Islamic Cultural Centre",
    "Address2":"Grove Lane",
    "Address3":"Hale, Altrincham",
    "Postcode":"WA15 8JG",
    "Notes":"",
    "Latitude":53.38056,
    "Longitude":-2.327272
  },
  {
    "Location":"Altrincham Town Centre - Cresta Court Hotel",
    "Address1":"Church Street",
    "Address2":"Altrincham",
    "Address3":"",
    "Postcode":"WA14 4DP",
    "Notes":"",
    "Latitude":53.391004,
    "Longitude":-2.349786
  },
  {
    "Location":"Altrincham Town Centre - Tesco",
    "Address1":"Manor Road",
    "Address2":"Altrincham",
    "Address3":"",
    "Postcode":"WA15 9QT",
    "Notes":"",
    "Latitude":53.38493,
    "Longitude":-2.345873
  },
  {
    "Location":"Ashton-on-Mersey School",
    "Address1":"Cecil Avenue",
    "Address2":"Sale",
    "Address3":"",
    "Postcode":"M33 5BP",
    "Notes":"",
    "Latitude":53.419465,
    "Longitude":-2.338992
  },
  {
    "Location":"Barrington Medical Centre",
    "Address1":"68 Barrington Road",
    "Address2":"Altrincham",
    "Address3":"Cheshire",
    "Postcode":"WA14 1JB",
    "Notes":"",
    "Latitude":53.395207,
    "Longitude":-2.350979
  },
  {
    "Location":"Barton Clough Primary School",
    "Address1":"Audley Avenue",
    "Address2":"Stretford",
    "Address3":"Manchester",
    "Postcode":"M32 9TG",
    "Notes":"",
    "Latitude":53.456807,
    "Longitude":-2.334726
  },
  {
    "Location":"Basell Polyolefins UK Limited",
    "Address1":"Isherwood Road",
    "Address2":"Carrington",
    "Address3":"Manchester",
    "Postcode":"M31 4AJ",
    "Notes":"",
    "Latitude":53.430233,
    "Longitude":-2.397427
  },
  {
    "Location":"Blessed Thomas Holford Catholic College",
    "Address1":"Urban Road",
    "Address2":"Altrincham",
    "Address3":"",
    "Postcode":"WA15 8HT",
    "Notes":"",
    "Latitude":53.386914,
    "Longitude":-2.341652
  },
  {
    "Location":"Blessed Thomas Holford Catholic College",
    "Address1":"Urban Road",
    "Address2":"Altrincham",
    "Address3":"",
    "Postcode":"WA15 8HT",
    "Notes":"",
    "Latitude":53.387563,
    "Longitude":-2.340661
  },
  {
    "Location":"Blessed Thomas Holford Catholic College",
    "Address1":"Urban Road",
    "Address2":"Altrincham",
    "Address3":"",
    "Postcode":"WA15 8HT",
    "Notes":"Scheme: Funded by (http://www.handonheart.org) Hand on Heart Charity",
    "Latitude":53.387762,
    "Longitude":-2.341895
  },
  {
    "Location":"BlueSCI / Broomwood Community Centre",
    "Address1":"Broomwood Community Wellbeing Centre",
    "Address2":"Mainwood Road",
    "Address3":"Timperley",
    "Postcode":"WA15 7JU",
    "Notes":"Scheme: Funded by Councillor Butt's Mayoral Charity",
    "Latitude":53.391562,
    "Longitude":-2.30591
  },
  {
    "Location":"Bodmin Road Medical Centre",
    "Address1":"Bodmin Road",
    "Address2":"Sale",
    "Address3":"Cheshire",
    "Postcode":"M33 5JH",
    "Notes":"",
    "Latitude":53.428129,
    "Longitude":-2.351853
  },
  {
    "Location":"Boundary House Medical Centre",
    "Address1":"462 Northenden Road",
    "Address2":"Sale",
    "Address3":"",
    "Postcode":"M33 2RH",
    "Notes":"",
    "Latitude":53.415651,
    "Longitude":-2.288937
  },
  {
    "Location":"Bowden Rugby Club",
    "Address1":"Clay Lane",
    "Address2":"Altrincham",
    "Address3":"",
    "Postcode":"WA15 7AF",
    "Notes":"",
    "Latitude":53.387848,
    "Longitude":-2.314397
  },
  {
    "Location":"Bowdon CE Primary School",
    "Address1":"Grange Road",
    "Address2":"Bowdon",
    "Address3":"Altrincham",
    "Postcode":"WA14 3EX",
    "Notes":"",
    "Latitude":53.372567,
    "Longitude":-2.356308
  },
  {
    "Location":"Bowdon Community Parish Centre/St. Mary's Church/ St. Luke's",
    "Address1":"St Mary's & Bowdon Parish Centre",
    "Address2":"Stamford Road",
    "Address3":"Bowdon",
    "Postcode":"WA14 2TR",
    "Notes":"Scheme: Funded by Councillor Butt's Mayoral Charity",
    "Latitude":53.377679,
    "Longitude":-2.363161
  },
  {
    "Location":"Bowdon Hockey Club",
    "Address1":"S Downs Road",
    "Address2":"Bowdon",
    "Address3":"Altrincham",
    "Postcode":"WA14 3DR",
    "Notes":"",
    "Latitude":53.374085,
    "Longitude":-2.353615
  },
  {
    "Location":"Bowdon Preparatory School for Girls",
    "Address1":"Astley Road",
    "Address2":"Altrincham",
    "Address3":"",
    "Postcode":"WA14 2LT",
    "Notes":"Scheme: Funded by Councillor Butt's Mayoral Charity",
    "Latitude":53.381402,
    "Longitude":-2.35342
  },
  {
    "Location":"Brentwood School",
    "Address1":"Brentwood Avenue",
    "Address2":"Altrincham",
    "Address3":"",
    "Postcode":"WA14 1SR",
    "Notes":"Scheme: Funded by the St. James Foundation",
    "Latitude":53.398358,
    "Longitude":-2.342809
  },
  {
    "Location":"British Red Cross",
    "Address1":"10 Brindley Road",
    "Address2":"City Park",
    "Address3":"",
    "Postcode":"M16 9HQ",
    "Notes":"",
    "Latitude":53.464644,
    "Longitude":-2.275606
  },
  {
    "Location":"Broadheath Primary School",
    "Address1":"Sinderland Road",
    "Address2":"Broadheath",
    "Address3":"Altrincham",
    "Postcode":"WA14 5JQ",
    "Notes":"Scheme: Funded by (http://www.handonheart.org) Hand on Heart Charity",
    "Latitude":53.403873,
    "Longitude":-2.359654
  },
  {
    "Location":"Broadoak School",
    "Address1":"Warburton Lane",
    "Address2":"Partington",
    "Address3":"Manchester",
    "Postcode":"M31 4BU",
    "Notes":"",
    "Latitude":53.413193,
    "Longitude":-2.429801
  },
  {
    "Location":"Brooklands Dragons JFC",
    "Address1":"Sale Moor Cricket Club",
    "Address2":"Budworth Road (off Norris Rd)",
    "Address3":"Sale Moor",
    "Postcode":"M33 2RP",
    "Notes":"",
    "Latitude":53.41731,
    "Longitude":-2.296512
  },
  {
    "Location":"Brooks Bar Medical Centre",
    "Address1":"162-164 Chorlton Road",
    "Address2":"Manchester",
    "Address3":"",
    "Postcode":"M16 7WW",
    "Notes":"",
    "Latitude":53.459388,
    "Longitude":-2.258553
  },
  {
    "Location":"Cardiac Bus",
    "Address1":"Greater Manchester Public Health Network",
    "Address2":"8th Floor, Westpoint",
    "Address3":"501 Chester Road, Trafford",
    "Postcode":"M16 9HU",
    "Notes":"",
    "Latitude":53.463015,
    "Longitude":-2.272779
  },
  {
    "Location":"Carrington Training Ground",
    "Address1":"Aon Training Complex",
    "Address2":"Birch Road off Isherwood Road",
    "Address3":"Carrington, Manchester",
    "Postcode":"M31 4BH",
    "Notes":"",
    "Latitude":53.432739,
    "Longitude":-2.373224
  },
  {
    "Location":"Carrington Training Ground",
    "Address1":"Aon Training Complex",
    "Address2":"Birch Road off Isherwood Road",
    "Address3":"Carrington, Manchester",
    "Postcode":"M31 4BH",
    "Notes":"",
    "Latitude":53.432798,
    "Longitude":-2.373895
  },
  {
    "Location":"Chill Factore",
    "Address1":"Trafford Way",
    "Address2":"Trafford Quays Leisure Village",
    "Address3":"Manchester",
    "Postcode":"M41 7JA",
    "Notes":"",
    "Latitude":53.468068,
    "Longitude":-2.361414
  },
  {
    "Location":"Conway Road Health Centre",
    "Address1":"80A Conway Road",
    "Address2":"Sale",
    "Address3":"",
    "Postcode":"M33 2TB",
    "Notes":"",
    "Latitude":53.417889,
    "Longitude":-2.303562
  },
  {
    "Location":"Costa Coffee - Timperley",
    "Address1":"363 Stockport Road",
    "Address2":"Timperley",
    "Address3":"",
    "Postcode":"WA15 7UG",
    "Notes":"Scheme: Funded by Councillor Butt's Mayoral Charity",
    "Latitude":53.397543,
    "Longitude":-2.318485
  },
  {
    "Location":"Costco Trafford",
    "Address1":"Barton Dock Road",
    "Address2":"Trafford Park",
    "Address3":"Manchester",
    "Postcode":"M41 7PP",
    "Notes":"",
    "Latitude":53.469783,
    "Longitude":-2.342345
  },
  {
    "Location":"Crossford Bridge",
    "Address1":"Sports Grounds",
    "Address2":"Crossford Bridge",
    "Address3":"Sale",
    "Postcode":"M33 7WR",
    "Notes":"",
    "Latitude":53.431357,
    "Longitude":-2.313034
  },
  {
    "Location":"David Atkinson For a Junior Football Team",
    "Address1":"29 Truro Drive",
    "Address2":"Sale",
    "Address3":"",
    "Postcode":"M33 5DF",
    "Notes":"",
    "Latitude":53.422224,
    "Longitude":-2.351849
  },
  {
    "Location":"David Lloyd Leisure Centre",
    "Address1":"Barton Embankment",
    "Address2":"Trafford Park",
    "Address3":"",
    "Postcode":"M17 8RH",
    "Notes":"",
    "Latitude":53.47,
    "Longitude":-2.360137
  },
  {
    "Location":"Davyhulme Medical Centre",
    "Address1":"130 Broadway",
    "Address2":"Urmston",
    "Address3":"Manchester",
    "Postcode":"M41 7WJ",
    "Notes":"",
    "Latitude":53.459499,
    "Longitude":-2.366781
  },
  {
    "Location":"Davyhulme Primary School",
    "Address1":"Canterbury Road",
    "Address2":"Davyhulme",
    "Address3":"Manchester",
    "Postcode":"M41 0RX",
    "Notes":"Scheme: Via 999 deal",
    "Latitude":53.453982,
    "Longitude":-2.351148
  },
  {
    "Location":"Dunham Massey Park",
    "Address1":"Woodhouse Lane",
    "Address2":"Altrincham",
    "Address3":"",
    "Postcode":"WA14 4SJ",
    "Notes":"Scheme: Funded by Councillor Butt's Mayoral Charity",
    "Latitude":53.382662,
    "Longitude":-2.400312
  },
  {
    "Location":"DW Fitness",
    "Address1":"Trafford Park",
    "Address2":"Manchester",
    "Address3":"",
    "Postcode":"M17 8DD",
    "Notes":"",
    "Latitude":53.468246,
    "Longitude":-2.365144
  },
  {
    "Location":"Eden Square - Urmston Town Centre",
    "Address1":"Golden Way",
    "Address2":"Urmston",
    "Address3":"",
    "Postcode":"M41 0NA",
    "Notes":"",
    "Latitude":53.44917,
    "Longitude":-2.35549
  },
  {
    "Location":"Egerton High School",
    "Address1":"Kingsway Park",
    "Address2":"Urmston",
    "Address3":"",
    "Postcode":"M41 7FZ",
    "Notes":"Scheme: Funded by (http://www.handonheart.org) Hand on Heart Charity",
    "Latitude":53.459534,
    "Longitude":-2.343076
  },
  {
    "Location":"English Martyrs R.C Primary School",
    "Address1":"Wycliffe Road",
    "Address2":"Urmston",
    "Address3":"Manchester",
    "Postcode":"M41 5AH",
    "Notes":"Scheme: Bought from (http://www.handonheart.org) Hand on Heart Charity",
    "Latitude":53.448756,
    "Longitude":-2.358567
  },
  {
    "Location":"Firswood Community Centre (Rotary Club)",
    "Address1":"Great Stone Road",
    "Address2":"Stretford",
    "Address3":"Manchester",
    "Postcode":"M32 8QS",
    "Notes":"Scheme: Funded by Councillor Butt's Mayoral Charity",
    "Latitude":53.451691,
    "Longitude":-2.287389
  },
  {
    "Location":"Flixton Girls' School",
    "Address1":"Flixton Road",
    "Address2":"Flixton",
    "Address3":"Urmston, Manchester",
    "Postcode":"M41 5DR",
    "Notes":"",
    "Latitude":53.449697,
    "Longitude":-2.371093
  },
  {
    "Location":"Flixton Golf Course",
    "Address1":"Wm Wroe Golf Course",
    "Address2":"Pennybridge Lane",
    "Address3":"Flixton",
    "Postcode":"M41 5DX",
    "Notes":"",
    "Latitude":53.446247,
    "Longitude":-2.373427
  },
  {
    "Location":"Forest Gate Primary School",
    "Address1":"Daniel Adamson Avenue",
    "Address2":"Partington",
    "Address3":"Manchester",
    "Postcode":"M31 4PN",
    "Notes":"",
    "Latitude":53.417003,
    "Longitude":-2.440802
  },
  {
    "Location":"GH Carnall Leisure Centre",
    "Address1":"GH Carnall Leisure Centre",
    "Address2":"Kingsway Park",
    "Address3":"Davyhulme",
    "Postcode":"M41 7FJ",
    "Notes":"",
    "Latitude":53.457772,
    "Longitude":-2.342971
  },
  {
    "Location":"Gloucester House Medical Centre",
    "Address1":"17 Station Road",
    "Address2":"Urmston",
    "Address3":"Manchester",
    "Postcode":"M41 9JS",
    "Notes":"",
    "Latitude":53.447354,
    "Longitude":-2.352599
  },
  {
    "Location":"GMP Force Headquarters",
    "Address1":"Chester House",
    "Address2":"Boyer Street",
    "Address3":"Manchester",
    "Postcode":"M16 0RE",
    "Notes":"",
    "Latitude":53.457338,
    "Longitude":-2.262773
  },
  {
    "Location":"Gorse Hill Primary School",
    "Address1":"Burleigh Road",
    "Address2":"Stretford",
    "Address3":"Manchester",
    "Postcode":"M32 0PF",
    "Notes":"Scheme: Funded by (http://www.handonheart.org) Hand on Heart Charity",
    "Latitude":53.455599,
    "Longitude":-2.299011
  },
  {
    "Location":"Gorse Hill Studios",
    "Address1":"Cavendish Road",
    "Address2":"Stretford",
    "Address3":"Manchester",
    "Postcode":"M32 0PS",
    "Notes":"Scheme: Funded by Councillor Butt's Mayoral Charity",
    "Latitude":53.456164,
    "Longitude":-2.297135
  },
  {
    "Location":"Holy Angels Church",
    "Address1":"Wicker Lane",
    "Address2":"Hale Barns",
    "Address3":"Cheshire",
    "Postcode":"WA15 0HF",
    "Notes":"Scheme: Funded by Councillor Butt's Mayoral Charity",
    "Latitude":53.369665,
    "Longitude":-2.317389
  },
  {
    "Location":"Holy Family Catholic Primary School",
    "Address1":"Old Hall Road Sale Moor",
    "Address2":"Sale",
    "Address3":"",
    "Postcode":"M33 2JA",
    "Notes":"Scheme: Via 999 offer",
    "Latitude":53.420439,
    "Longitude":-2.301127
  },
  {
    "Location":"Imperial War Museum",
    "Address1":"IWM North The Quays",
    "Address2":"Trafford Wharf Road",
    "Address3":"Manchester",
    "Postcode":"M17 1TZ",
    "Notes":"",
    "Latitude":53.46973,
    "Longitude":-2.298733
  },
  {
    "Location":"ITV Granada Studio - Coronation Street",
    "Address1":"Wharf Road",
    "Address2":"Stretford",
    "Address3":"Manchester",
    "Postcode":"M17 1AU",
    "Notes":"",
    "Latitude":53.470646,
    "Longitude":-2.302355
  },
  {
    "Location":"Kellogg's",
    "Address1":"Kelloggs",
    "Address2":"Trafford Park",
    "Address3":"Manchester",
    "Postcode":"M17 1EG",
    "Notes":"",
    "Latitude":53.456683,
    "Longitude":-2.3166
  },
  {
    "Location":"Kings Road Primary School",
    "Address1":"Kings Road",
    "Address2":"Firswood",
    "Address3":"Stretford, Manchester",
    "Postcode":"M16 0GR",
    "Notes":"",
    "Latitude":53.454015,
    "Longitude":-2.281516
  },
  {
    "Location":"Lancashire County Cricket Club",
    "Address1":"Talbot Road",
    "Address2":"Manchester",
    "Address3":"",
    "Postcode":"M16 0PX",
    "Notes":"Scheme: Funded by Councillor Butt's Mayoral Charity",
    "Latitude":53.457254,
    "Longitude":-2.287622
  },
  {
    "Location":"Legh Arms Sale Moor / Partnership Scheme",
    "Address1":"178 Northenden Road",
    "Address2":"Sale",
    "Address3":"",
    "Postcode":"M33 2SR",
    "Notes":"",
    "Latitude":53.419707,
    "Longitude":-2.302612
  },
  {
    "Location":"Leverett House - Trafford Housing Trust",
    "Address1":"Leverett Close",
    "Address2":"Altrincham",
    "Address3":"",
    "Postcode":"WA14 4LU",
    "Notes":"Scheme: Funded by Councillor Butt's Mayoral Charity",
    "Latitude":53.392325,
    "Longitude":-2.370684
  },
  {
    "Location":"Lingarth House - Trafford Housing Trust",
    "Address1":"Lyngarth House",
    "Address2":"Grosvenor Road",
    "Address3":"",
    "Postcode":"WA14 1LH",
    "Notes":"Scheme: Funded by Councillor Butt's Mayoral Charity",
    "Latitude":53.39545,
    "Longitude":-2.344515
  },
  {
    "Location":"Longford Park School",
    "Address1":"74 Cromwell Road",
    "Address2":"Stretford",
    "Address3":"",
    "Postcode":"M32 8QF",
    "Notes":"",
    "Latitude":53.447703,
    "Longitude":-2.29346
  },
  {
    "Location":"Longford Park/ Trafford Atheltic Club",
    "Address1":"Ryebank Road",
    "Address2":"Stretford",
    "Address3":"",
    "Postcode":"M21 9TA",
    "Notes":"Scheme: Funded by Councillor Butt's Mayoral Charity",
    "Latitude":53.445948,
    "Longitude":-2.290602
  },
  {
    "Location":"Loreto Grammar School",
    "Address1":"Dunham Road",
    "Address2":"Altrincham",
    "Address3":"",
    "Postcode":"WA14 4AH",
    "Notes":"",
    "Latitude":53.388276,
    "Longitude":-2.357252
  },
  {
    "Location":"Lostock College",
    "Address1":"Selby Road",
    "Address2":"Stretford",
    "Address3":"",
    "Postcode":"M32 9PL",
    "Notes":"Scheme: Funded by (http://www.handonheart.org) Hand on Heart Charity",
    "Latitude":53.453697,
    "Longitude":-2.331554
  },
  {
    "Location":"M&I Materials Ltd",
    "Address1":"Hibernia Way",
    "Address2":"Trafford Park",
    "Address3":"Manchester",
    "Postcode":"M32 0ZD",
    "Notes":"",
    "Latitude":53.461185,
    "Longitude":-2.328179
  },
  {
    "Location":"Manchester United Football Club",
    "Address1":"Sir Matt Busby Way",
    "Address2":"Manchester",
    "Address3":"",
    "Postcode":"M16 0RA",
    "Notes":"",
    "Latitude":53.462348,
    "Longitude":-2.292204
  },
  {
    "Location":"Manchester United Football Club",
    "Address1":"Sir Matt Busby Way",
    "Address2":"Manchester",
    "Address3":"",
    "Postcode":"M16 0RA",
    "Notes":"",
    "Latitude":53.462523,
    "Longitude":-2.291006
  },
  {
    "Location":"Manchester United Football Club",
    "Address1":"Sir Matt Busby Way",
    "Address2":"Manchester",
    "Address3":"",
    "Postcode":"M16 0RA",
    "Notes":"",
    "Latitude":53.462787,
    "Longitude":-2.289914
  },
  {
    "Location":"Manchester United Football Club",
    "Address1":"Sir Matt Busby Way",
    "Address2":"Manchester",
    "Address3":"",
    "Postcode":"M16 0RA",
    "Notes":"",
    "Latitude":53.463392,
    "Longitude":-2.289964
  },
  {
    "Location":"Manchester United Football Club",
    "Address1":"Sir Matt Busby Way",
    "Address2":"Manchester",
    "Address3":"",
    "Postcode":"M16 0RA",
    "Notes":"",
    "Latitude":53.4634,
    "Longitude":-2.292875
  },
  {
    "Location":"Manchester United Football Club",
    "Address1":"Sir Matt Busby Way",
    "Address2":"Manchester",
    "Address3":"",
    "Postcode":"M16 0RA",
    "Notes":"",
    "Latitude":53.463681,
    "Longitude":-2.291621
  },
  {
    "Location":"Manchester United Football Club",
    "Address1":"Sir Matt Busby Way",
    "Address2":"Manchester",
    "Address3":"",
    "Postcode":"M16 0RA",
    "Notes":"",
    "Latitude":53.463879,
    "Longitude":-2.290549
  },
  {
    "Location":"Manor High School",
    "Address1":"Manor Avenue",
    "Address2":"Sale",
    "Address3":"",
    "Postcode":"M33 5JX",
    "Notes":"Scheme: Purchased from (http://www.handonheart.org) Hand on Heart Charity via a Youth and Philanthropy Initiative (YPI) Donation",
    "Latitude":53.425983,
    "Longitude":-2.354017
  },
  {
    "Location":"Millom Court - Trafford Housing Trust",
    "Address1":"Cartmel Drive",
    "Address2":"Timperley",
    "Address3":"Altrincham",
    "Postcode":"WA15 7ES",
    "Notes":"Scheme: Funded by Councillor Butt's Mayoral Charity",
    "Latitude":53.395391,
    "Longitude":-2.307054
  },
  {
    "Location":"Moss Park Infant School",
    "Address1":"Moss Park Road",
    "Address2":"Stretford",
    "Address3":"",
    "Postcode":"M32 9HR",
    "Notes":"",
    "Latitude":53.44854,
    "Longitude":-2.321133
  },
  {
    "Location":"Moss Park Junior School",
    "Address1":"Moss Park Road",
    "Address2":"Stretford",
    "Address3":"",
    "Postcode":"M32 9HR",
    "Notes":"Scheme: Donated in memory of Eddie Rowley by his family and friends through (http://www.handonheart.org) Hand on Heart Charity",
    "Latitude":53.448159,
    "Longitude":-2.321179
  },
  {
    "Location":"MS Therapy Centre",
    "Address1":"4th Avenue",
    "Address2":"Trafford Park",
    "Address3":"Manchester",
    "Postcode":"M17 1DB",
    "Notes":"",
    "Latitude":53.46495,
    "Longitude":-2.312
  },
  {
    "Location":"Neighbourhoods & Communities & Enterprise",
    "Address1":"2 Hope Road",
    "Address2":"Brindley Lodge",
    "Address3":"Sale",
    "Postcode":"M33 3FS",
    "Notes":"",
    "Latitude":53.42398,
    "Longitude":-2.318548
  },
  {
    "Location":"New Haven - Trafford Housing Trust",
    "Address1":"New Haven",
    "Address2":"Tulip Drive",
    "Address3":"Timperly",
    "Postcode":"WA15 6LP",
    "Notes":"Scheme: Funded by Councillor Butt's Mayoral Charity",
    "Latitude":53.397596,
    "Longitude":-2.33575
  },
  {
    "Location":"North Cestrian Grammar School",
    "Address1":"Dunham Road",
    "Address2":"Altrincham",
    "Address3":"",
    "Postcode":"WA14 4AJ",
    "Notes":"",
    "Latitude":53.388244,
    "Longitude":-2.355928
  },
  {
    "Location":"Old Trafford Community Academy",
    "Address1":"Malvern Street",
    "Address2":"Old Trafford",
    "Address3":"Manchester",
    "Postcode":"M15 4FL",
    "Notes":"Scheme: Funded by (http://www.handonheart.org) Hand on Heart Charity and Trafford Housing Trust",
    "Latitude":53.465126,
    "Longitude":-2.26514
  },
  {
    "Location":"Old Trafford Sports Barn",
    "Address1":"Sports Barn",
    "Address2":"St Hildas Road",
    "Address3":"Old Trafford",
    "Postcode":"M16 9PQ",
    "Notes":"",
    "Latitude":53.461165,
    "Longitude":-2.271909
  },
  {
    "Location":"Orchard Court Trafford Housing Trust",
    "Address1":"Orchard Court",
    "Address2":"Baker Street",
    "Address3":"Timperly",
    "Postcode":"WA15 7XH",
    "Notes":"Scheme: Funded by Councillor Butt's Mayoral Charity",
    "Latitude":53.398545,
    "Longitude":-2.317575
  },
  {
    "Location":"Park Medical Practice",
    "Address1":"119 Park Road",
    "Address2":"Altrincham",
    "Address3":"Altrincham, Cheshire",
    "Postcode":"WA15 6QQ",
    "Notes":"",
    "Latitude":53.401915,
    "Longitude":-2.327843
  },
  {
    "Location":"Park Road Primary School",
    "Address1":"Frieston Road",
    "Address2":"Timperley",
    "Address3":"Altrincham, Cheshire",
    "Postcode":"WA14 5AP",
    "Notes":"Scheme: Purchased through (http://www.handonheart.org) Hand on Heart Charity",
    "Latitude":53.406141,
    "Longitude":-2.340044
  },
  {
    "Location":"Park Road Primary School",
    "Address1":"Park Road",
    "Address2":"Sale",
    "Address3":"Altrincham",
    "Postcode":"M33 6HT",
    "Notes":"",
    "Latitude":53.430281,
    "Longitude":-2.328784
  },
  {
    "Location":"Partington FUSE",
    "Address1":"Warburton Lane",
    "Address2":"Manchester",
    "Address3":"",
    "Postcode":"M31 4BU",
    "Notes":"",
    "Latitude":53.411895,
    "Longitude":-2.431271
  },
  {
    "Location":"Partington Health Centre",
    "Address1":"Central Road Surgery",
    "Address2":"Partington",
    "Address3":"Manchester",
    "Postcode":"M31 4FY",
    "Notes":"",
    "Latitude":53.41722,
    "Longitude":-2.425412
  },
  {
    "Location":"Partington Primary School",
    "Address1":"Central Road",
    "Address2":"Urmston",
    "Address3":"",
    "Postcode":"M31 4FL",
    "Notes":"",
    "Latitude":53.417696,
    "Longitude":-2.425431
  },
  {
    "Location":"Partington Sports Village",
    "Address1":"Partington Leisure Centre",
    "Address2":"Chapel Lane",
    "Address3":"Partington",
    "Postcode":"M31 4ES",
    "Notes":"",
    "Latitude":53.414814,
    "Longitude":-2.427148
  },
  {
    "Location":"Pictor Special School",
    "Address1":"Grove Lane",
    "Address2":"Timperley",
    "Address3":"Trafford",
    "Postcode":"WA15 6PH",
    "Notes":"Scheme: Donated by Manor High School",
    "Latitude":53.397632,
    "Longitude":-2.325593
  },
  {
    "Location":"Power League Soccer Dome Trafford",
    "Address1":"Trafford Way",
    "Address2":"Urmston",
    "Address3":"Manchester",
    "Postcode":"M17 8DD",
    "Notes":"",
    "Latitude":53.468983,
    "Longitude":-2.365222
  },
  {
    "Location":"Provision Manchester",
    "Address1":"Unit F",
    "Address2":"A.K Worthington, Westbrook Road",
    "Address3":"Trafford Park, Manchester",
    "Postcode":"M17 1AY",
    "Notes":"",
    "Latitude":53.470235,
    "Longitude":-2.308875
  },
  {
    "Location":"Ring Way Golf Club",
    "Address1":"Hale Mount Road",
    "Address2":"Hale Barns",
    "Address3":"Altrincham",
    "Postcode":"WA15 8SW",
    "Notes":"",
    "Latitude":53.370013,
    "Longitude":-2.315062
  },
  {
    "Location":"Roebuck Hotel",
    "Address1":"2 Church Road",
    "Address2":"Urmston",
    "Address3":"Greater Manchester",
    "Postcode":"M41 6HD",
    "Notes":"",
    "Latitude":53.443021,
    "Longitude":-2.367573
  },
  {
    "Location":"Sale Grammar School",
    "Address1":"Marsland Road",
    "Address2":"Sale",
    "Address3":"",
    "Postcode":"M33 3NH",
    "Notes":"Scheme: Funded by (http://www.handonheart.org) Hand on Heart Charity",
    "Latitude":53.418129,
    "Longitude":-2.315029
  },
  {
    "Location":"Sale High School",
    "Address1":"Norris Road",
    "Address2":"Sale",
    "Address3":"Greater Manchester",
    "Postcode":"M33 3JR",
    "Notes":"Scheme: Funded by (http://www.handonheart.org) Hand on Heart Charity",
    "Latitude":53.41421,
    "Longitude":-2.304739
  },
  {
    "Location":"Sale Leisure Centre",
    "Address1":"Sale Leisure Centre",
    "Address2":"Broad Road",
    "Address3":"Sale",
    "Postcode":"M33 2AL",
    "Notes":"",
    "Latitude":53.42467,
    "Longitude":-2.31595
  },
  {
    "Location":"Sale Q Park",
    "Address1":"5 Broad Road",
    "Address2":"Sale",
    "Address3":"Cheshire",
    "Postcode":"M33 2AE",
    "Notes":"",
    "Latitude":53.4249,
    "Longitude":-2.317607
  },
  {
    "Location":"Sale Town Centre - Brindley Lodge",
    "Address1":"2 Hope Road",
    "Address2":"Sale",
    "Address3":"",
    "Postcode":"M33 3AB",
    "Notes":"",
    "Latitude":53.423511,
    "Longitude":-2.319176
  },
  {
    "Location":"Sale Town Centre - Public Toilets",
    "Address1":"John Street",
    "Address2":"Sale",
    "Address3":"",
    "Postcode":"M33 7GA",
    "Notes":"",
    "Latitude":53.425206,
    "Longitude":-2.324185
  },
  {
    "Location":"Sale Water Park - Watersports Centre Building",
    "Address1":"Rifle Road",
    "Address2":"Sale",
    "Address3":"",
    "Postcode":"M33 2LX",
    "Notes":"Scheme: Funded by Councillor Butt's Mayoral Charity",
    "Latitude":53.428746,
    "Longitude":-2.293345
  },
  {
    "Location":"Sale Waterside Arts Centre",
    "Address1":"1 Waterside Plaza",
    "Address2":"Sale",
    "Address3":"",
    "Postcode":"M33 7ZF",
    "Notes":"Scheme: Funded by Councillor Butt's Mayoral Charity",
    "Latitude":53.425127,
    "Longitude":-2.320001
  },
  {
    "Location":"Seymour Park Community Primary School",
    "Address1":"Northumberland Road",
    "Address2":"Old Trafford",
    "Address3":"Manchester",
    "Postcode":"M16 9QE",
    "Notes":"Scheme: Funded by (http://www.handonheart.org) Hand on Heart Charity and THT",
    "Latitude":53.458377,
    "Longitude":-2.272358
  },
  {
    "Location":"Shay Lane Medical Centre",
    "Address1":"Shay Lane",
    "Address2":"Hale Barns",
    "Address3":"Altrincham",
    "Postcode":"WA15 8NZ",
    "Notes":"",
    "Latitude":53.372205,
    "Longitude":-2.315574
  },
  {
    "Location":"Springfield Primary School",
    "Address1":"Springfield Road",
    "Address2":"Sale",
    "Address3":"",
    "Postcode":"M33 7XS",
    "Notes":"Scheme: Funded by Councillor Butt's Mayoral Charity",
    "Latitude":53.424425,
    "Longitude":-2.320387
  },
  {
    "Location":"St. Alphonsus' RC Primary School",
    "Address1":"Hamilton Street",
    "Address2":"Stretford",
    "Address3":"",
    "Postcode":"M16 7PT",
    "Notes":"Scheme: Funded by (http://www.handonheart.org) Hand on Heart Charity and THT",
    "Latitude":53.463547,
    "Longitude":-2.263594
  },
  {
    "Location":"St. Ambrose College",
    "Address1":"Wicker Lane",
    "Address2":"Hale Barns",
    "Address3":"Altrincham",
    "Postcode":"WA15 0HE",
    "Notes":"",
    "Latitude":53.371365,
    "Longitude":-2.320483
  },
  {
    "Location":"St. Anne's C.E. Primary School",
    "Address1":"Trinity Road",
    "Address2":"Sale",
    "Address3":"",
    "Postcode":"M33 3ES",
    "Notes":"Scheme: Funded by (http://www.handonheart.org) Hand on Heart Charity and Manchester Guardian Society Charitable Trust",
    "Latitude":53.42033,
    "Longitude":-2.30859
  },
  {
    "Location":"St. Ann's RC Primary School",
    "Address1":"Derbyshire Lane",
    "Address2":"Stretford",
    "Address3":"",
    "Postcode":"M32 8SH",
    "Notes":"",
    "Latitude":53.450268,
    "Longitude":-2.306231
  },
  {
    "Location":"St. Anthony's Catholic College",
    "Address1":"Bradfield Road",
    "Address2":"Urmston",
    "Address3":"Manchester",
    "Postcode":"M41 9PD",
    "Notes":"Scheme: Funded by (http://www.handonheart.org) Hand on Heart Charity",
    "Latitude":53.449131,
    "Longitude":-2.334575
  },
  {
    "Location":"St. Hilda's CE Primary School",
    "Address1":"Warwick Road South",
    "Address2":"Stretford",
    "Address3":"",
    "Postcode":"M16 0EX",
    "Notes":"Scheme: Donated in memory of Eddie Rowley by family and friends through (http://www.handonheart.org) Hand on Heart Charity",
    "Latitude":53.450571,
    "Longitude":-2.279226
  },
  {
    "Location":"St. Hugh's Catholic Primary School",
    "Address1":"Park Road",
    "Address2":"Timperley",
    "Address3":"Altrincham",
    "Postcode":"WA15 6TQ",
    "Notes":"",
    "Latitude":53.402168,
    "Longitude":-2.335875
  },
  {
    "Location":"St. Hugh's Catholic Primary School",
    "Address1":"Park Road",
    "Address2":"Timperley",
    "Address3":"Altrincham",
    "Postcode":"WA15 6TQ",
    "Notes":"",
    "Latitude":53.402313,
    "Longitude":-2.335102
  },
  {
    "Location":"St. John Vianney",
    "Address1":"Rye Bank Road",
    "Address2":"Stretford",
    "Address3":"",
    "Postcode":"M16 0EX",
    "Notes":"Scheme: Purchased from (http://www.handonheart.org) Hand on Heart Charity",
    "Latitude":53.451213,
    "Longitude":-2.278525
  },
  {
    "Location":"St. John’s Medical Centre",
    "Address1":"St John's Road",
    "Address2":"Altrincham",
    "Address3":"Cheshire",
    "Postcode":"WA14 2NW",
    "Notes":"",
    "Latitude":53.382776,
    "Longitude":-2.353808
  },
  {
    "Location":"St. John's Centre",
    "Address1":"Ayres Road",
    "Address2":"Old Trafford",
    "Address3":"",
    "Postcode":"M16 7GX",
    "Notes":"Scheme: Funded by Councillor Butt's Mayoral Charity",
    "Latitude":53.457155,
    "Longitude":-2.268163
  },
  {
    "Location":"St Joseph's Catholic Primary School",
    "Address1":"Marlborough Road",
    "Address2":"Sale",
    "Address3":"",
    "Postcode":"M33 3AF",
    "Notes":"Scheme: Funded by (http://www.handonheart.org) Hand on Heart Charity",
    "Latitude":53.422193,
    "Longitude":-2.317842
  },
  {
    "Location":"St. Margaret Ward Catholic Primary School",
    "Address1":"Cherry Lane",
    "Address2":"Sale",
    "Address3":"",
    "Postcode":"M33 4GY",
    "Notes":"",
    "Latitude":53.414003,
    "Longitude":-2.356498
  },
  {
    "Location":"St. Mary Magdalene Church - Heatbeat Café",
    "Address1":"44 Moss Lane",
    "Address2":"Sale",
    "Address3":"",
    "Postcode":"M33 6GD",
    "Notes":"Scheme: Funded by Councillor Butt's Mayoral Charity",
    "Latitude":53.424754,
    "Longitude":-2.33774
  },
  {
    "Location":"St. Michael's CE Primary School",
    "Address1":"The Grove",
    "Address2":"Flixton",
    "Address3":"Urmston",
    "Postcode":"M41 6JB",
    "Notes":"",
    "Latitude":53.443216,
    "Longitude":-2.382524
  },
  {
    "Location":"St. Monica's RC Primary School",
    "Address1":"Woodsend Road South",
    "Address2":"Urmston",
    "Address3":"",
    "Postcode":"M41 6QB",
    "Notes":"Scheme: Via 999 offer",
    "Latitude":53.446246,
    "Longitude":-2.390756
  },
  {
    "Location":"St. Teresa's RC Primary School",
    "Address1":"St Teresa's Road",
    "Address2":"Firswood",
    "Address3":"Stretford",
    "Postcode":"M16 0GQ",
    "Notes":"Scheme: Funded by (http://www.handonheart.org) Hand on Heart Charity and THT",
    "Latitude":53.452275,
    "Longitude":-2.283372
  },
  {
    "Location":"St. Vincent's Catholic Junior and Infant School",
    "Address1":"Orchard Road",
    "Address2":"Altrincham",
    "Address3":"Cheshire",
    "Postcode":"WA15 8EY",
    "Notes":"Scheme: Funded by (http://www.handonheart.org) Hand on Heart Charity",
    "Latitude":53.390205,
    "Longitude":-2.343074
  },
  {
    "Location":"St. Vincent's RC Primary School",
    "Address1":"Osborne Road",
    "Address2":"Altrincham",
    "Address3":"Cheshire",
    "Postcode":"WA15 8EU",
    "Notes":"",
    "Latitude":53.389788,
    "Longitude":-2.344484
  },
  {
    "Location":"Stamford Park",
    "Address1":"Stamford Park Road",
    "Address2":"Altrincham",
    "Address3":"",
    "Postcode":"WA15 9EZ",
    "Notes":"",
    "Latitude":53.383193,
    "Longitude":-2.337319
  },
  {
    "Location":"Stretford Custody Suite",
    "Address1":"Talbot Road",
    "Address2":"Stretford",
    "Address3":"",
    "Postcode":"M32 0XB",
    "Notes":"",
    "Latitude":53.457663,
    "Longitude":-2.289096
  },
  {
    "Location":"Stretford High School Community Language College",
    "Address1":"Great Stone road",
    "Address2":"Stretford",
    "Address3":"Manchester",
    "Postcode":"M32 0XA",
    "Notes":"Scheme: Funded by (http://www.handonheart.org) Hand on Heart Charity",
    "Latitude":53.457221,
    "Longitude":-2.293706
  },
  {
    "Location":"Stretford Mall",
    "Address1":"Chester Road",
    "Address2":"Stretford",
    "Address3":"Manchester",
    "Postcode":"M32 9BD",
    "Notes":"Scheme: Funded by Councillor Butt's Mayoral Charity",
    "Latitude":53.445223,
    "Longitude":-2.310817
  },
  {
    "Location":"Stretford Sports Village",
    "Address1":"Stretford Leisure Centre",
    "Address2":"Greatstone Road",
    "Address3":"",
    "Postcode":"M32 0ZS",
    "Notes":"",
    "Latitude":53.458347,
    "Longitude":-2.292675
  },
  {
    "Location":"The Delamere Medical practice",
    "Address1":"Delamere centre",
    "Address2":"Delamere Ave",
    "Address3":"Stretford, Manchester",
    "Postcode":"M32 0DF",
    "Notes":"",
    "Latitude":53.450904,
    "Longitude":-2.307365
  },
  {
    "Location":"The Village Surgery",
    "Address1":"Grove Lane",
    "Address2":"Altrincham",
    "Address3":"",
    "Postcode":"WA15 6PH",
    "Notes":"",
    "Latitude":53.397511,
    "Longitude":-2.324876
  },
  {
    "Location":"Thermo Fisher Scientific",
    "Address1":"1 Saint Georges Court",
    "Address2":"Altrincham",
    "Address3":"",
    "Postcode":"WA14 5TP",
    "Notes":"",
    "Latitude":53.398236,
    "Longitude":-2.368691
  },
  {
    "Location":"Think Money Group",
    "Address1":"Think Park",
    "Address2":"Mosley Road",
    "Address3":"Trafford Park, Manchester",
    "Postcode":"M17 1FQ",
    "Notes":"",
    "Latitude":53.459026,
    "Longitude":-2.315391
  },
  {
    "Location":"Timperly Health Care Centre",
    "Address1":"169 Grove Lane",
    "Address2":"Timperly",
    "Address3":"",
    "Postcode":"WA15 6PH",
    "Notes":"",
    "Latitude":53.397618,
    "Longitude":-2.324709
  },
  {
    "Location":"Total Fitness - Altrincham",
    "Address1":"Denmark Street",
    "Address2":"Altrincham",
    "Address3":"",
    "Postcode":"WA14 2DE",
    "Notes":"",
    "Latitude":53.384543,
    "Longitude":-2.350588
  },
  {
    "Location":"Total Fitness - Altrincham",
    "Address1":"Denmark Street",
    "Address2":"Altrincham",
    "Address3":"",
    "Postcode":"WA14 2DE",
    "Notes":"",
    "Latitude":53.384737,
    "Longitude":-2.351117
  },
  {
    "Location":"Total Fitness - Altrincham",
    "Address1":"Denmark Street",
    "Address2":"Altrincham",
    "Address3":"",
    "Postcode":"WA14 2DE",
    "Notes":"",
    "Latitude":53.385014,
    "Longitude":-2.350319
  },
  {
    "Location":"Trafford Centre",
    "Address1":"Urmston",
    "Address2":"Manchester",
    "Address3":"",
    "Postcode":"M17 8AA",
    "Notes":"",
    "Latitude":53.463345,
    "Longitude":-2.345208
  },
  {
    "Location":"Trafford Centre",
    "Address1":"Urmston",
    "Address2":"Manchester",
    "Address3":"",
    "Postcode":"M17 8AA",
    "Notes":"",
    "Latitude":53.464357,
    "Longitude":-2.345925
  },
  {
    "Location":"Trafford Centre",
    "Address1":"Urmston",
    "Address2":"Manchester",
    "Address3":"",
    "Postcode":"M17 8AA",
    "Notes":"",
    "Latitude":53.464882,
    "Longitude":-2.349311
  },
  {
    "Location":"Trafford Centre",
    "Address1":"Urmston",
    "Address2":"Manchester",
    "Address3":"",
    "Postcode":"M17 8AA",
    "Notes":"",
    "Latitude":53.464973,
    "Longitude":-2.346348
  },
  {
    "Location":"Trafford Centre",
    "Address1":"Urmston",
    "Address2":"Manchester",
    "Address3":"",
    "Postcode":"M17 8AA",
    "Notes":"",
    "Latitude":53.465358,
    "Longitude":-2.348853
  },
  {
    "Location":"Trafford Centre",
    "Address1":"Urmston",
    "Address2":"Manchester",
    "Address3":"",
    "Postcode":"M17 8AA",
    "Notes":"",
    "Latitude":53.465561,
    "Longitude":-2.347691
  },
  {
    "Location":"Trafford Centre",
    "Address1":"Urmston",
    "Address2":"Manchester",
    "Address3":"",
    "Postcode":"M17 8AA",
    "Notes":"",
    "Latitude":53.465826,
    "Longitude":-2.348327
  },
  {
    "Location":"Trafford Centre",
    "Address1":"Urmston",
    "Address2":"Manchester",
    "Address3":"",
    "Postcode":"M17 8AA",
    "Notes":"",
    "Latitude":53.46622,
    "Longitude":-2.348653
  },
  {
    "Location":"Trafford Centre",
    "Address1":"Urmston",
    "Address2":"Manchester",
    "Address3":"",
    "Postcode":"M17 8AA",
    "Notes":"",
    "Latitude":53.466528,
    "Longitude":-2.347394
  },
  {
    "Location":"Trafford Centre",
    "Address1":"Urmston",
    "Address2":"Manchester",
    "Address3":"",
    "Postcode":"M17 8AA",
    "Notes":"",
    "Latitude":53.46653,
    "Longitude":-2.34944
  },
  {
    "Location":"Trafford Centre",
    "Address1":"Urmston",
    "Address2":"Manchester",
    "Address3":"",
    "Postcode":"M17 8AA",
    "Notes":"",
    "Latitude":53.466583,
    "Longitude":-2.350688
  },
  {
    "Location":"Trafford Centre",
    "Address1":"Urmston",
    "Address2":"Manchester",
    "Address3":"",
    "Postcode":"M17 8AA",
    "Notes":"",
    "Latitude":53.466761,
    "Longitude":-2.351832
  },
  {
    "Location":"Trafford College",
    "Address1":"Trafford College",
    "Address2":"Manchester Road",
    "Address3":"Altrincham, Cheshire",
    "Postcode":"WA14 5PQ",
    "Notes":"",
    "Latitude":53.405485,
    "Longitude":-2.349545
  },
  {
    "Location":"Trafford Health Centre",
    "Address1":"Trafford General Hospital",
    "Address2":"Moorside Road",
    "Address3":"Urmston, Manchester",
    "Postcode":"M41 5SL",
    "Notes":"",
    "Latitude":53.454076,
    "Longitude":-2.370679
  },
  {
    "Location":"Trafford Shopmobility - Altrincham",
    "Address1":"19 Regent Road",
    "Address2":"Altrincham",
    "Address3":"",
    "Postcode":"WA14 1RY",
    "Notes":"Scheme: Funded by Councillor Butt's Mayoral Charity",
    "Latitude":53.385934,
    "Longitude":-2.35267
  },
  {
    "Location":"Trafford Town Hall",
    "Address1":"Talbot Road",
    "Address2":"Stretford",
    "Address3":"",
    "Postcode":"M32 0TH",
    "Notes":"",
    "Latitude":53.459016,
    "Longitude":-2.287483
  },
  {
    "Location":"Urmston Grammar School",
    "Address1":"Newton Road",
    "Address2":"Urmston",
    "Address3":"Manchester",
    "Postcode":"M41 5UG",
    "Notes":"Scheme: Funded by (http://www.handonheart.org) Hand on Heart Charity",
    "Latitude":53.450564,
    "Longitude":-2.361042
  },
  {
    "Location":"Urmston Infants School",
    "Address1":"Wycliffe Road",
    "Address2":"Urmston",
    "Address3":"",
    "Postcode":"M41 5AH",
    "Notes":"Scheme: Funded by (http://www.handonheart.org) Hand on Heart Charity",
    "Latitude":53.45007,
    "Longitude":-2.359528
  },
  {
    "Location":"Urmston Junior School",
    "Address1":"Hereford Grove",
    "Address2":"Urmston",
    "Address3":"",
    "Postcode":"M41 5AJ",
    "Notes":"Scheme: Funded by (http://www.handonheart.org) Hand on Heart Charity",
    "Latitude":53.449697,
    "Longitude":-2.35943
  },
  {
    "Location":"Urmston Leisure Centre",
    "Address1":"Urmston Leisure Centre",
    "Address2":"Bowfell Road",
    "Address3":"Urmston",
    "Postcode":"M41 5RR",
    "Notes":"",
    "Latitude":53.450426,
    "Longitude":-2.370919
  },
  {
    "Location":"Urmston Masonic Hall",
    "Address1":"Westbourne Road",
    "Address2":"Urmston",
    "Address3":"Manchester",
    "Postcode":"M41 0XP",
    "Notes":"",
    "Latitude":53.449915,
    "Longitude":-2.349849
  },
  {
    "Location":"Warehouse Project",
    "Address1":"Victoria Warehouse",
    "Address2":"Trafford Wharf Rd",
    "Address3":"Manchester",
    "Postcode":"M17 1AB",
    "Notes":"",
    "Latitude":53.464388,
    "Longitude":-2.285305
  },
  {
    "Location":"Washway Road Medical Centre",
    "Address1":"67 Washway Road",
    "Address2":"Sale",
    "Address3":"",
    "Postcode":"M33 7SS",
    "Notes":"",
    "Latitude":53.422417,
    "Longitude":-2.328151
  },
  {
    "Location":"Well Green Primary School",
    "Address1":"Briony Avenue",
    "Address2":"Hale",
    "Address3":"",
    "Postcode":"WA15 8QA",
    "Notes":"Scheme: Funded by (http://www.handonheart.org) Hand on Heart Charity",
    "Latitude":53.37667,
    "Longitude":-2.316239
  },
  {
    "Location":"Wellacre Academy",
    "Address1":"Urmston Irlam Road",
    "Address2":"Flixton",
    "Address3":"Manchester",
    "Postcode":"M41 6AP",
    "Notes":"Scheme: Funded by (http://www.handonheart.org) Hand on Heart Charity",
    "Latitude":53.447739,
    "Longitude":-2.395769
  },
  {
    "Location":"Wellfield Junior School",
    "Address1":"Dumber Lane",
    "Address2":"Sale",
    "Address3":"",
    "Postcode":"M33 5QX",
    "Notes":"",
    "Latitude":53.43061,
    "Longitude":-2.339427
  },
  {
    "Location":"Wellgreen Lodge - Trafford Housing Trust",
    "Address1":"Wellfield Lane",
    "Address2":"Altrincham",
    "Address3":"",
    "Postcode":"WA15 8NW",
    "Notes":"Scheme: Funded by Councillor Butt's Mayoral Charity",
    "Latitude":53.381826,
    "Longitude":-2.314383
  },
  {
    "Location":"Wellington School",
    "Address1":"Wellington Road",
    "Address2":"Altrincham",
    "Address3":"Timperley",
    "Postcode":"WA15 7RH",
    "Notes":"",
    "Latitude":53.394002,
    "Longitude":-2.332912
  },
  {
    "Location":"Wellington School",
    "Address1":"Wellington Road",
    "Address2":"Altrincham",
    "Address3":"Timperley",
    "Postcode":"WA15 7RH",
    "Notes":"",
    "Latitude":53.394133,
    "Longitude":-2.334901
  },
  {
    "Location":"West Timperly Medical Centre",
    "Address1":"21 Dawson Road",
    "Address2":"Altrincham",
    "Address3":"",
    "Postcode":"WA14 5PF",
    "Notes":"",
    "Latitude":53.402733,
    "Longitude":-2.353087
  },
  {
    "Location":"Willows Primary School",
    "Address1":"Victoria Road",
    "Address2":"Timperly",
    "Address3":"Altrincham",
    "Postcode":"WA15 6PP",
    "Notes":"Scheme: Funded by (http://www.handonheart.org) Hand on Heart Charity",
    "Latitude":53.396218,
    "Longitude":-2.330461
  },
  {
    "Location":"Woodheys Primary School",
    "Address1":"Meadway",
    "Address2":"Sale",
    "Address3":"Altrincham",
    "Postcode":"M33 4PG",
    "Notes":"",
    "Latitude":53.413876,
    "Longitude":-2.346671
  }
]